{"type":"FeatureCollection","features":[{"type":"Feature","geometry":{"type":"Point","coordinates":[-107.42595509765998,25.20119259582564]},"id":"00000000000000000000","properties":{"field_1":"SP1","field_2":-107.42565,"field_3":25.20128}},{"type":"Feature","geometry":{"type":"Point","coordinates":[-107.40062085456108,25.16812076806293]},"id":"00000000000000000001","properties":{"field_1":"SP2","field_2":-107.39996,"field_3":25.16813}},{"type":"Feature","geometry":{"type":"Point","coordinates":[-107.3897686201231,25.106109807821454]},"id":"00000000000000000002","properties":{"field_1":"SP3","field_2":-107.3889,"field_3":25.10275}},{"type":"Feature","geometry":{"type":"Point","coordinates":[-107.39599211402222,25.16806587147724]},"id":"00000000000000000003","properties":{"field_1":"SP4","field_2":-107.39422,"field_3":25.1706}}]}