{"type":"FeatureCollection","features":[{"type":"Feature","geometry":{"type":"Point","coordinates":[-107.41636452460226,25.203289625262705]},"id":"00000000000000000000","properties":{"id":1,"layer":"pt_01"}},{"type":"Feature","geometry":{"type":"Point","coordinates":[-107.37915057162321,25.148041809426285]},"id":"00000000000000000001","properties":{"id":3,"layer":"pt_03"}},{"type":"Feature","geometry":{"type":"Point","coordinates":[-107.42145959296194,25.19250302114207]},"id":"00000000000000000002","properties":{"id":5,"layer":"pt_05"}},{"type":"Feature","geometry":{"type":"Point","coordinates":[-107.41594423145419,25.15728006153638]},"id":"00000000000000000003","properties":{"id":6,"layer":"pt_06"}},{"type":"Feature","geometry":{"type":"Point","coordinates":[-107.42496388292733,25.207579702643905]},"id":"00000000000000000004","properties":{"id":2,"layer":"pt_02"}},{"type":"Feature","geometry":{"type":"Point","coordinates":[-107.37617785521718,25.13560734897518]},"id":"00000000000000000005","properties":{"id":4,"layer":"pt_04"}}]}