{"type":"FeatureCollection","features":[{"type":"Feature","geometry":{"type":"Polygon","coordinates":[[[-107.50158179369876,25.141176198039954],[-107.50150794953126,25.141177453218084],[-107.50117339418493,25.14118302464724],[-107.5005780383763,25.14119309614252],[-107.5002427620186,25.141162963395555],[-107.50016756412171,25.141097003714986],[-107.50009245651978,25.141031120493988],[-107.50001725866568,25.140965160618105],[-107.4994556676855,25.14093875529033],[-107.49841752643584,25.140956305042867],[-107.49786090386044,25.14093436536641],[-107.4977808319128,25.140868469496965],[-107.49770554444417,25.140798055693818],[-107.49763043754243,25.140732170167226],[-107.49729525519925,25.14070639255073],[-107.49669990813291,25.140716443934245],[-107.49636463669901,25.14068629927631],[-107.49628943990652,25.14062033595697],[-107.49625287964902,25.140517923902163],[-107.496250171482,25.140383580938128],[-107.49620882680225,25.14028568654436],[-107.49613353978195,25.140215271043992],[-107.49605834305532,25.140149394801806],[-107.49598323662227,25.140083420012342],[-107.49590803993846,25.140017456069025],[-107.49583284327606,25.139951579533978],[-107.49575277194363,25.13988568131067],[-107.49567757532549,25.139819804576096],[-107.49560246900079,25.13975382929441],[-107.49552727242548,25.139687952364635],[-107.4954520758716,25.139621987831063],[-107.49537687933913,25.139551560382134],[-107.49530168282811,25.139485595651024],[-107.49522648633852,25.139419718328543],[-107.49511274378995,25.139390278352185],[-107.49496514936548,25.139392768841244],[-107.49485122638606,25.13935880012402],[-107.49477612029656,25.13929291140225],[-107.49470092395676,25.139226946019072],[-107.4946257276384,25.1391609805382],[-107.4945506216131,25.13909509152381],[-107.49447542533757,25.139029125847667],[-107.49440013881186,25.138958708174073],[-107.49432006791423,25.138892895646304],[-107.49424487170441,25.138826929670657],[-107.49416976578756,25.138761040162088],[-107.4940945696206,25.138695073991173],[-107.49401937347507,25.138629107722565],[-107.4939055411755,25.138595214141468],[-107.49375794742643,25.138597702714637],[-107.49364411523969,25.1385682716954],[-107.49356900949388,25.138502294028463],[-107.49352829713341,25.138198328415093],[-107.49351737430605,25.137656407240108],[-107.49354553895272,25.137351355696794],[-107.49361802682316,25.13728288987645],[-107.49369538936689,25.137214445762186],[-107.49376769673574,25.13714153890929],[-107.49380010416468,25.137042402964276],[-107.49379739602283,25.136908057304172],[-107.49383467811136,25.136804392665873],[-107.49390707578983,25.13673593773543],[-107.49397956375962,25.13666755935252],[-107.49405196147787,25.1365991043848],[-107.4940836467698,25.136222219723294],[-107.49406992550331,25.13554596151637],[-107.49402307460538,25.135174919088882],[-107.49394787848023,25.13510903858098],[-107.4938726823765,25.135043070467617],[-107.49379757656563,25.13497709131598],[-107.49375063544468,25.134606058628325],[-107.49373691419552,25.13392979631357],[-107.49369493801008,25.133558685563884],[-107.49361974197849,25.133492716486572],[-107.4935058195801,25.13345883066127],[-107.49335822605472,25.133461315857417],[-107.49324439404049,25.133427331285414],[-107.49316919813734,25.133361449257663],[-107.4930940925268,25.133295468684192],[-107.4930188966665,25.133229586461308],[-107.49260987850303,25.133205120311228],[-107.49186216497031,25.133217669618162],[-107.49145305833069,25.133188747381997],[-107.49137786293842,25.133122776156636],[-107.49130275783813,25.133056793895395],[-107.49122756248875,25.13299090998406],[-107.49103989015569,25.132958256868754],[-107.49074470594837,25.13296322052151],[-107.49055847828367,25.13300214935766],[-107.49048608152468,25.133070602844327],[-107.49041359451533,25.133138979740504],[-107.49034119779614,25.133207433189916],[-107.49015497041658,25.133246361611157],[-107.48985978720043,25.13325132343575],[-107.4896734698911,25.133285799152958],[-107.48960107337527,25.133354252365372],[-107.48952858660935,25.133422716496266],[-107.48945122528842,25.13349115864142],[-107.48926996337921,25.13353009702943],[-107.48896981631873,25.133535133481598],[-107.48878358990844,25.133574060187186],[-107.48871119363712,25.133642513124073],[-107.48863870711604,25.133710889468944],[-107.48856631088454,25.13377934236856],[-107.48837999448997,25.133813816584375],[-107.48808481326255,25.13381877473025],[-107.48789858747791,25.133857787882715],[-107.48782619144984,25.13392615303513],[-107.48775370517234,25.13399461661512],[-107.48768130918407,25.134062981730242],[-107.48756883366076,25.134100760745017],[-107.48742124346023,25.134103239081952],[-107.48730876804798,25.13413646736897],[-107.48723637218205,25.13420938288228],[-107.487163976336,25.13427774784106],[-107.48709149024079,25.134346211227193],[-107.48701909443457,25.134414663659005],[-107.48694660837923,25.134483039497457],[-107.48687421261285,25.134551491891994],[-107.48679685207154,25.134619933150006],[-107.48672310231177,25.134621166549607],[-107.48664790826952,25.13455527936125],[-107.48657271424875,25.13448930456485],[-107.48649761051836,25.134423406246043],[-107.48638369119897,25.134389425739137],[-107.48623610166274,25.134391902797145],[-107.48612723750739,25.134362385250547],[-107.48604716912337,25.134296562835594],[-107.48597197527418,25.134230587387346],[-107.48589678144648,25.134160148791832],[-107.48582158764025,25.134094260656962],[-107.4857463938555,25.13402828491366],[-107.48567129036083,25.133962385649077],[-107.48559609661902,25.133896409710587],[-107.48552099316723,25.13383051025105],[-107.48544579946834,25.133764534117372],[-107.4853657312916,25.1336987107793],[-107.48529053763707,25.13363273444611],[-107.48510783429708,25.133599995549964],[-107.48480769198078,25.133605021788178],[-107.4846200242222,25.133572358359768],[-107.48454483078072,25.133506381310614],[-107.48446972762892,25.1334403932303],[-107.48439453423039,25.133374503497404],[-107.48431943112152,25.13330851522206],[-107.48424423776592,25.133242625294073],[-107.48416913469991,25.133176636823706],[-107.48409394138729,25.13311074670062],[-107.48390627413772,25.133077994154153],[-107.48360613319193,25.133083104335338],[-107.48342352128927,25.13305472689361],[-107.48334336346004,25.13298444916873],[-107.48326817038338,25.13291847071622],[-107.48319297732824,25.132852579678072],[-107.48233633767711,25.132835558717606],[-107.48070295294514,25.13286288502202],[-107.47984623113908,25.132841393978325],[-107.47977103906243,25.132775499896557],[-107.47969593727386,25.132709507274093],[-107.47962074524021,25.132643612997253],[-107.47954555322808,25.132577631109537],[-107.47947045150393,25.132511725707868],[-107.47942901919174,25.13240936350407],[-107.47942631119771,25.132275008246314],[-107.47938975328098,25.132172580789877],[-107.47931465160136,25.132106587544538],[-107.47923449502468,25.132040768678667],[-107.47915939338941,25.131974862747597],[-107.47912283550983,25.131872434974778],[-107.47912012751894,25.131738079340398],[-107.47907869526199,25.131635716528535],[-107.47900359367125,25.131569722753557],[-107.47892840183569,25.131503827323883],[-107.47885330028791,25.131437833353914],[-107.47877810849535,25.131371937729185],[-107.47870291672429,25.131305954492984],[-107.47862781524096,25.13124004774444],[-107.47854765887375,25.13116967708843],[-107.47851119134542,25.131071700827363],[-107.47850848336086,25.130937344547533],[-107.47846705120033,25.13083498092234],[-107.47839194978441,25.130769073741913],[-107.47831675812385,25.130703089878185],[-107.47824156648483,25.13063719343108],[-107.47820013436639,25.13053482947323],[-107.47819742638502,25.130400472814237],[-107.4781609589053,25.130298032760074],[-107.47808576731086,25.130232135982617],[-107.47801066600391,25.13016614066527],[-107.47793547445248,25.130100243692773],[-107.47785540856243,25.130034324120047],[-107.47778012678954,25.12996397463314],[-107.47752368148765,25.12993682268922],[-107.47707605369892,25.129944365986237],[-107.47681590819596,25.12998005857359],[-107.47674360548396,25.130052959505903],[-107.47674495946717,25.130120094546115],[-107.47682006041225,25.130186090996993],[-107.4768952516444,25.130251988908462],[-107.47697035263246,25.13031798516437],[-107.47701449252608,25.130554707421172],[-107.47702270669934,25.130962231288503],[-107.47698804469528,25.131195803072693],[-107.47691574193588,25.13126870414677],[-107.47684325866524,25.131337076301936],[-107.47677086568017,25.131405525025524],[-107.4766983824495,25.13147389714332],[-107.47662598950434,25.131542345829615],[-107.47655350631366,25.13161071791005],[-107.47647614880844,25.13167924247333],[-107.47644518775965,25.131849968325454],[-107.47645060368629,25.132118682345254],[-107.47641467804166,25.132289571484247],[-107.47634219490931,25.13235794355667],[-107.47626980206233,25.132426392197463],[-107.47619731896997,25.13249476423251],[-107.47612501642826,25.13256766514686],[-107.47605253337585,25.132636124659424],[-107.47598014060873,25.132704485711514],[-107.4759076575963,25.132772945186712],[-107.47587037804726,25.1328766120577],[-107.47587308600465,25.133010969001997],[-107.47583571619528,25.133110096016708],[-107.47576341375316,25.13318299685946],[-107.47569093080055,25.133251456301917],[-107.47561853813312,25.133319817283986],[-107.47554605522052,25.133388276689068],[-107.47547357232791,25.133456648560973],[-107.47540117972041,25.1335250970015],[-107.4753286968678,25.13359346883601],[-107.47529277137667,25.13376435786634],[-107.47529818727955,25.13403307162718],[-107.47526722636964,25.13420379708863],[-107.47518986924335,25.13427232143324],[-107.47511738644907,25.13434069325962],[-107.47504508420475,25.134413593960662],[-107.47497260145046,25.13448205326444],[-107.47490020898108,25.134550414108],[-107.47482772626678,25.134618873374382],[-107.47475524357252,25.134687245107642],[-107.47471931815984,25.134858133963807],[-107.47472473405088,25.135126847484365],[-107.47469377320861,25.135297572774412],[-107.47462129055131,25.135366032034124],[-107.47454393361537,25.13543446873999],[-107.4744715412642,25.135502917033538],[-107.47439905866827,25.135571376235497],[-107.47432675662178,25.135644189280374],[-107.47425427406583,25.13571264844532],[-107.47418179152989,25.13578102007723],[-107.4741093992786,25.135849468277794],[-107.47403691678267,25.135917839872285],[-107.4737768645554,25.135958071522545],[-107.47332915289,25.135965534679894],[-107.47306910136406,25.136001214192085],[-107.47299661915545,25.13606967296218],[-107.47292413696685,25.13613804419888],[-107.47285174506248,25.13620649200535],[-107.47277926291392,25.13627486320462],[-107.47270696131368,25.136347763296566],[-107.4726344792051,25.136416221973498],[-107.47256208738065,25.13648458219095],[-107.47248464078758,25.136553116673625],[-107.47241224900448,25.136621476852024],[-107.47233976697731,25.13668993545243],[-107.47226737523418,25.13675829559346],[-107.47219489324705,25.136826754156445],[-107.47212241127991,25.136895125185955],[-107.47205010986069,25.136968025112147],[-107.47197762793358,25.137036483619372],[-107.47186515912992,25.13706970045543],[-107.4717174874834,25.137072172289386],[-107.47160510905505,25.137109841260525],[-107.47153262725088,25.1371782996293],[-107.47146023573049,25.137246659538963],[-107.47138775396635,25.13731511787031],[-107.47131527222227,25.13738348866803],[-107.47124288076186,25.137451936036477],[-107.47116552482187,25.137520459193727],[-107.4710931334028,25.13759328226912],[-107.47102065174012,25.137661740505585],[-107.47094826036103,25.137730100283072],[-107.47087577873839,25.137798558482096],[-107.47080329713577,25.137866929147442],[-107.47061708359601,25.137905920631734],[-107.47032192231818,25.137910840174538],[-107.4701341746446,25.137878166786983],[-107.4700590756128,25.13781216813913],[-107.46998388633929,25.137746267833684],[-107.46990878735055,25.13768026899083],[-107.46964729500588,25.137648818591483],[-107.46919959038893,25.137656269396313],[-107.46893818901448,25.137629269718133],[-107.4688629097996,25.137558828449002],[-107.46878781113196,25.137492916047908],[-107.46871262222307,25.13742692695728],[-107.46859880087858,25.1373974688023],[-107.46845122133422,25.13739992592243],[-107.4683386637804,25.137433150962906],[-107.46826627314182,25.137501597331557],[-107.46819379226064,25.137569967088936],[-107.46812140166207,25.13764287673158],[-107.46800893451244,25.13767609066519],[-107.46786135530023,25.13767854722453],[-107.46774888826221,25.137716311793515],[-107.46767640752411,25.13778468139396],[-107.46760401706844,25.13785312756869],[-107.46753153637043,25.137921497131664],[-107.46734532515468,25.137960484081166],[-107.46705007729862,25.13796540664991],[-107.46686377616291,25.1379998530317],[-107.46679129566964,25.138068222356573],[-107.46671881519642,25.138136679178945],[-107.46664642500532,25.13820503754389],[-107.46646012415663,25.138244034351942],[-107.46616496755999,25.13824894416363],[-107.46597875731554,25.13828784188734],[-107.46590627706713,25.13835629845351],[-107.46583379683877,25.138424667484436],[-107.46575644249513,25.138493188695655],[-107.46568396230825,25.138561557687428],[-107.46561157240313,25.138630003255123],[-107.46558052237515,25.138800741835436],[-107.46558593807744,25.139069462132053],[-107.46555001392099,25.13924035276562],[-107.46547753379123,25.139308721750496],[-107.46540505368152,25.139377178232987],[-107.46533266385347,25.13944553625845],[-107.46526027404545,25.13951844511834],[-107.46518779399587,25.139586814028583],[-107.46511043984303,25.139655335114675],[-107.4650379598349,25.139723703985744],[-107.46500564621384,25.13982729518229],[-107.46500835405902,25.13996165526403],[-107.46504472944876,25.14005964790465],[-107.46512000756665,25.140130091369254],[-107.4652337371383,25.140159562701026],[-107.465381405132,25.140157097021106],[-107.46549522507884,25.140191020464048],[-107.4655704130645,25.14025701106051],[-107.46557176699001,25.14032414711287],[-107.46549928685423,25.140392603712478],[-107.46542689700013,25.14046096185494],[-107.46535441690445,25.14052941841705],[-107.4653225545524,25.140901716682464],[-107.465336093795,25.141578064398633],[-107.46530910557212,25.14195038448633],[-107.46523680603218,25.14202319507768],[-107.4651242498593,25.14205641909255],[-107.46497667227209,25.142058874604786],[-107.46486420647247,25.14209663832606],[-107.4647917265325,25.14216500731918],[-107.46471924661257,25.14223346380941],[-107.46464685697411,25.14230182184266],[-107.46457437709431,25.142370278295378],[-107.46450189723456,25.142438647213385],[-107.46442454328432,25.1425071683322],[-107.46435206346605,25.142575537210995],[-107.46427976419034,25.142648435056355],[-107.46420728441215,25.142716891413976],[-107.46413480465401,25.142785260236852],[-107.46406232491594,25.14285371655691],[-107.46394985950904,25.142886928983675],[-107.46380219232262,25.142889394455995],[-107.46368981728851,25.142927059083608],[-107.46361733767363,25.142995515265063],[-107.4635448580788,25.143063883911648],[-107.46347237850405,25.14313234005554],[-107.46299092689424,25.143176155530433],[-107.46209545091799,25.143191036145875],[-107.4616125576757,25.143163257468586],[-107.46153737082675,25.143097264783925],[-107.4615009959244,25.14299935855194],[-107.46149819785519,25.142860457817175],[-107.4614568586427,25.14276262696831],[-107.4613816718385,25.14269663395519],[-107.46126785368021,25.1426627074277],[-107.46112018800699,25.14266516951002],[-107.46100781412447,25.142702831950697],[-107.46093533525234,25.14277128720639],[-107.46086285640033,25.14283965492624],[-107.46079037756836,25.142908110144365],[-107.4606779135675,25.142941319951973],[-107.46053024822726,25.14294378147293],[-107.46041778433822,25.142981454458795],[-107.46034539588948,25.14304989861877],[-107.46027291720088,25.143118266162286],[-107.46020043853238,25.143186721204206],[-107.46009293907474,25.143224318547112],[-107.45994040003768,25.14322684405183],[-107.4598328104272,25.14325998874941],[-107.45976042214035,25.143332896117872],[-107.45968306959162,25.143401415533916],[-107.45961059108657,25.143469782882697],[-107.4595381126016,25.14353823773],[-107.45946563413672,25.143606605041178],[-107.45939315569193,25.143675059850892],[-107.45932076752676,25.143743416205474],[-107.45924828912212,25.143811870977636],[-107.45917581073755,25.14388023821363],[-107.45910342263255,25.143953145415384],[-107.45902607027816,25.14402157712879],[-107.4589535919552,25.144090031824515],[-107.4588812039117,25.14415838806525],[-107.4588087256289,25.144226842723416],[-107.45873624736616,25.144295209845364],[-107.45854995214793,25.14433419929728],[-107.45825480447218,25.14433909671003],[-107.45806706545117,25.144306320720293],[-107.45799196988052,25.14424040206619],[-107.45791678407238,25.144174406715088],[-107.45784159828588,25.144108498784114],[-107.4569109390383,25.14408813171373],[-107.45512490572693,25.144117738498608],[-107.45419570027948,25.144168941168033],[-107.45412322329612,25.144237394242126],[-107.45405074633288,25.144305759778426],[-107.45397826938976,25.144374212814906],[-107.45386580831982,25.144411881097337],[-107.45371823708561,25.144414324239126],[-107.45360568587007,25.14444753977037],[-107.45353320905046,25.14451599266811],[-107.45346073225097,25.14458435802792],[-107.45338834572908,25.14465279997296],[-107.45331595922725,25.14472561785587],[-107.45324348248805,25.1447940706788],[-107.45317100576897,25.14486243596376],[-107.45309852907,25.14493088874906],[-107.45291223787132,25.14496531971084],[-107.45261204215929,25.144970290221544],[-107.45243071545174,25.145009108824986],[-107.45235823895827,25.145077561372062],[-107.45228088860077,25.145145990645076],[-107.45220841214888,25.145214443152867],[-107.45210091597897,25.145252035139336],[-107.45194838160731,25.145254551773206],[-107.45184070503058,25.145287701911943],[-107.45176831895785,25.145360606862706],[-107.45169593290518,25.14542896078134],[-107.45161849248704,25.145497488272913],[-107.45151090630323,25.145530627322426],[-107.45136324614327,25.145533079141956],[-107.45124952260514,25.145503595940518],[-107.45117433873769,25.145437595269062],[-107.4510991548919,25.145371682019686],[-107.45102397106778,25.145301217645265],[-107.45091015742086,25.145271744877263],[-107.45076258785738,25.145274184906864],[-107.4506486840679,25.145240259246325],[-107.45057350037357,25.14517425792098],[-107.45049840695737,25.145108333104822],[-107.45042322330632,25.145042331584346],[-107.45034939352361,25.14504355671743],[-107.45027691760808,25.145112008563167],[-107.4501995678674,25.145180437051067],[-107.4501270919935,25.145248888857527],[-107.45001959668085,25.145286479297592],[-107.44986706352566,25.145288993334763],[-107.44975938780765,25.145322141888826],[-107.44968700231225,25.14539504617505],[-107.4496146168369,25.145463399393098],[-107.4495371770364,25.14553192609876],[-107.44946470134649,25.14560029019016],[-107.44939222567672,25.14566874178294],[-107.44931984028318,25.145737094924133],[-107.44924736465367,25.145805546479288],[-107.44906107620392,25.14584443606883],[-107.44876584899622,25.145849323006992],[-107.44857947063453,25.145883759319887],[-107.44850699521072,25.14595221063673],[-107.44843470031861,25.14602501613335],[-107.44836222493502,25.14609346741296],[-107.44817584686177,25.146127903305715],[-107.44787565659863,25.146132863425017],[-107.44769433318254,25.14617167628595],[-107.44762185800471,25.14624012732723],[-107.44754450905134,25.146308554924172],[-107.44747203391516,25.146377005926148],[-107.44739820496774,25.146378229638206],[-107.44732311246565,25.14631221508995],[-107.44724792972984,25.146246298876253],[-107.44717274701568,25.14618029504418],[-107.44676371010797,25.14615123749814],[-107.4460207303232,25.146163509879102],[-107.44561304904519,25.146206139653522],[-107.44554057444599,25.14627450247197],[-107.44546313585538,25.146343027715012],[-107.44539066129784,25.1464113904941],[-107.44531692319461,25.146412602039383],[-107.44524174103739,25.14634668411177],[-107.44516655890187,25.146280678565123],[-107.44509146704264,25.1462147495327],[-107.4449775657302,25.14618073074837],[-107.44482990926929,25.146183174981964],[-107.44471618858016,25.1461536852072],[-107.44464100659626,25.14608776662825],[-107.4445657343796,25.146017307729668],[-107.44449064269352,25.145951378044202],[-107.4444154607747,25.145885371648625],[-107.44434036913194,25.14581944176827],[-107.44426518725648,25.14575343517757],[-107.44419000540272,25.145687516011225],[-107.44377600919684,25.1456585220213],[-107.44303303793049,25.145670774714556],[-107.4426240075207,25.14564616544463],[-107.4425488261406,25.145580157263225],[-107.44247373503593,25.145514225599175],[-107.44239846344551,25.145443764476045],[-107.4423233723842,25.145377832614905],[-107.44224819109088,25.145311824041073],[-107.44217310007288,25.14524589198506],[-107.44209791882295,25.14517988321613],[-107.44201786390242,25.145114025723046],[-107.44194268269732,25.145048104277567],[-107.44186759176742,25.14498208430461],[-107.44179241060569,25.144916162664114],[-107.44171858326752,25.144917382510155],[-107.44164610975176,25.14498574390174],[-107.44157363625617,25.145054192797485],[-107.44150125303413,25.14512254324456],[-107.4413887070917,25.145155749157617],[-107.44124105266525,25.145158188448345],[-107.44112859708855,25.14519593445925],[-107.44105612373701,25.14526429567418],[-107.44098365040566,25.145332744393414],[-107.44091117709446,25.14540110557066],[-107.44079872166026,25.145438763877138],[-107.4406511578215,25.145441191702442],[-107.44053861224658,25.145474484560562],[-107.4404662293123,25.145547298378716],[-107.44039375614518,25.145615746921816],[-107.44032128299823,25.145684107922794],[-107.44013491067686,25.14571853218092],[-107.43983969358283,25.14572339725846],[-107.43965205806795,25.145695131676568],[-107.4395769677988,25.14562919752574],[-107.43950178729861,25.145563186659494],[-107.4394265165675,25.145492810420137],[-107.43916514498915,25.145465751505228],[-107.43871740236712,25.145473114066352],[-107.43845594124875,25.1454416006998],[-107.43838076107245,25.145375588759112],[-107.4383055809179,25.145309664244866],[-107.4382304910373,25.145243641204473],[-107.4379689401561,25.145212137374337],[-107.43752119959271,25.14521949508953],[-107.43726118370716,25.145259661787108],[-107.43718871143273,25.14532802169702],[-107.43715757453397,25.14549878007619],[-107.43716298964654,25.145767525785548],[-107.43712697915012,25.145938347682087],[-107.43705450691309,25.146006707603064],[-107.43698203469624,25.14607515502947],[-107.4369095624996,25.146143514912726],[-107.43683718057491,25.146216415137452],[-107.43676470841861,25.146284774983382],[-107.43643068694814,25.146321628669032],[-107.43583538792562,25.14633149258811],[-107.43550145790023,25.146372796740465],[-107.43542898611621,25.146441156146775],[-107.43539171234227,25.146544824570306],[-107.43539432962889,25.146679208894877],[-107.43536183917622,25.146778273291712],[-107.43528458411616,25.146851236676515],[-107.4352121123926,25.14691968357382],[-107.43513964068927,25.146988042927582],[-107.43506716900613,25.14705648978716],[-107.43499469734319,25.147124849103182],[-107.43492222570045,25.147193208400324],[-107.43484975407792,25.14726165520331],[-107.43477719222454,25.147330025365463],[-107.43470472064246,25.147398472130686],[-107.4346274657777,25.14747134780841],[-107.43455499423733,25.14753979453466],[-107.4344825227172,25.14760815371729],[-107.43441005121727,25.147676600405802],[-107.43433757973753,25.147744959550682],[-107.43426510827801,25.147813318676675],[-107.4341926368387,25.147881765308576],[-107.4341201654196,25.14795012439682],[-107.4340476940207,25.148018570990974],[-107.43397034910046,25.148091457388706],[-107.43393785882577,25.148190609244857],[-107.4339405663485,25.148324982800567],[-107.43390320253727,25.148428574445838],[-107.43383073119887,25.14849702100616],[-107.43375825988068,25.148565380022863],[-107.4336857885827,25.148633826545442],[-107.43361340755557,25.14870663838544],[-107.433540936298,25.14877508487067],[-107.43346846506063,25.148843443812243],[-107.43339599384346,25.148911890259715],[-107.43332352264652,25.14898024916351],[-107.43324608769132,25.149048770046242],[-107.43306477446569,25.149087564770923],[-107.43276460162862,25.149092490879536],[-107.43257823472298,25.149126906549842],[-107.43250576375414,25.149195265194304],[-107.4324332928055,25.149263711344897],[-107.43236082187708,25.14933206995159],[-107.43228699721612,25.14933328529779],[-107.43221181882376,25.149267357324536],[-107.4321367307033,25.149201330827132],[-107.43206155235443,25.149135402658867],[-107.4319877277785,25.149136617767795],[-107.43191038347148,25.149205039732855],[-107.43183791268895,25.149273485682645],[-107.43176544192664,25.14934184408832],[-107.43121004400354,25.14938687288773],[-107.43016693879727,25.149403979196386],[-107.42961163454227,25.149448902597825],[-107.42953907415203,25.149517358689053],[-107.42946660403128,25.149585716335682],[-107.42939413393076,25.1496540739634],[-107.42920776944386,25.14968848520991],[-107.42891256476048,25.149693328153294],[-107.42872629086827,25.14973227920355],[-107.42865382097445,25.149800636592452],[-107.42858135110085,25.149869081488625],[-107.42850391755962,25.149937513135356],[-107.42843144772787,25.150005870465872],[-107.4283590681652,25.150078768240714],[-107.42828659837389,25.15014721306003],[-107.42821412860282,25.15021557033425],[-107.42810149816442,25.150248778144874],[-107.42795394153424,25.150251193224484],[-107.42784149170605,25.150288842881707],[-107.42776893181066,25.150357298441836],[-107.42769646218417,25.15042565555795],[-107.4276239925779,25.15049410018149],[-107.42755152299188,25.15056245725979],[-107.42747905342611,25.15063081431919],[-107.42740667412906,25.150703711831888],[-107.42733420460372,25.150772068853875],[-107.42722166479567,25.15080526524328],[-107.42707401841746,25.15080769046309],[-107.42696021524561,25.150778195214894],[-107.42688503839581,25.15071226325551],[-107.42680986156776,25.150641779816592],[-107.42673468476153,25.150575847660008],[-107.42662088173853,25.150546351931506],[-107.42647332595037,25.150548765377074],[-107.42635943279392,25.150514816390757],[-107.4262842561182,25.150448796251226],[-107.42620907946427,25.15038286354094],[-107.42613399308019,25.15031683230867],[-107.42605881646979,25.150250899403392],[-107.42598373012919,25.15018495550315],[-107.42590855356237,25.1501189348759],[-107.42582841338067,25.15004861198651],[-107.42541941004622,25.15002394983776],[-107.42467640100534,25.150036113344083],[-107.42426721899308,25.15000700503728],[-107.42419213317123,25.14994097192134],[-107.4241169571238,25.149875037131633],[-107.42404178109814,25.149809014716705],[-107.42392797925685,25.1497750518211],[-107.4237803347537,25.149777472454854],[-107.42366788673499,25.149815206192407],[-107.42359532800722,25.149883572768793],[-107.4235228595469,25.14995192843058],[-107.42345039110684,25.150020371601318],[-107.42337792268705,25.150088727225288],[-107.42330554453457,25.150161623384484],[-107.42323307615526,25.150229978971026],[-107.42316060779622,25.15029833453866],[-107.4230479795524,25.15033162582303],[-107.42290042579741,25.15033403480265],[-107.42278788791351,25.150371691393744],[-107.42271541967894,25.15044004682214],[-107.42267941118637,25.150610872251956],[-107.42268473575012,25.15087964043322],[-107.42272751275777,25.15104918167684],[-107.42280259815539,25.151115128020578],[-107.42287777382167,25.151181150899166],[-107.4229528592628,25.151247097048063],[-107.42302803497265,25.15131311973158],[-107.42310321070431,25.151383518699483],[-107.42321701218351,25.151413017714823],[-107.42336465636582,25.151410596849544],[-107.42347854820693,25.151444548580326],[-107.42355372406924,25.151510570707725],[-107.42360038184829,25.151881655303583],[-107.42361373842876,25.152557941264337],[-107.42365552287073,25.15292917523311],[-107.42373069878438,25.152995108967946],[-107.42380587471982,25.153061042605263],[-107.42388592402918,25.15312700040231],[-107.42392238392573,25.15322938089339],[-107.42392500109673,25.153363768754513],[-107.42396642459971,25.153466162466227],[-107.4240416006035,25.153532095671377],[-107.42411668638175,25.153598127202926],[-107.42419186242914,25.153664060213057],[-107.4242346396855,25.153833598127363],[-107.4242398740338,25.15410237298082],[-107.42420386532947,25.154273196578632],[-107.42413139669902,25.154341552809566],[-107.42405892808885,25.154409996548125],[-107.42398654974625,25.15448280569861],[-107.42391408117656,25.154551249399713],[-107.4238366490286,25.154619679748212],[-107.42376418050083,25.154688035883186],[-107.42369171199331,25.154756479525815],[-107.42365931325241,25.15485999689803],[-107.42366193042075,25.15499438425574],[-107.42369839028581,25.15509685161911],[-107.42377356621188,25.1551627842798],[-107.42384865191251,25.155228815266902],[-107.42392879148235,25.155294673523347],[-107.42400387722793,25.15536070431116],[-107.42407905324258,25.155426636577474],[-107.42415413903169,25.155492579644065],[-107.42422931508992,25.15555859924159],[-107.42427335581601,25.155795290919855],[-107.4242814780819,25.15620288186029],[-107.42424673283521,25.156440947144734],[-107.42417426419279,25.15650930356893],[-107.42406172575589,25.156542499344113],[-107.42391408117656,25.15654492393516],[-107.42380163309983,25.156582572445494],[-107.42372916458183,25.156651016256486],[-107.42365660583691,25.156719383420267],[-107.42358413735947,25.156787739667227],[-107.4235116689023,25.15685618342136],[-107.42343929071247,25.156928992565494],[-107.42336682229578,25.15699743628215],[-107.42329426365228,25.1570658033514],[-107.42321692193649,25.157134310347438],[-107.42314445358197,25.157202666479407],[-107.42307189500072,25.157271033490034],[-107.42299942668674,25.15733947711024],[-107.42292695839302,25.15740783318532],[-107.42285449011956,25.15747618924144],[-107.42285575357621,25.157543431837837],[-107.42293101950484,25.157613904529462],[-107.42300619520834,25.157679836660005],[-107.4230812806867,25.15774577959077],[-107.4231564564338,25.157811799052308],[-107.42323163220271,25.15787773089025],[-107.42331168133475,25.15794368682062],[-107.42338676690159,25.158009629357263],[-107.42346194273728,25.15807556089836],[-107.42353711859478,25.158141579867713],[-107.4236122944741,25.158212062552863],[-107.42368747037519,25.158277993799107],[-107.42376264629809,25.158343924947808],[-107.42383773199556,25.158409954423103],[-107.42391290796202,25.158475885376745],[-107.42399295730445,25.158541840383933],[-107.42406813331593,25.15860777113819],[-107.42414321910186,25.15867371269371],[-107.42421839515693,25.158739730778354],[-107.42429366148119,25.158810201660483],[-107.42436874733245,25.15887614292136],[-107.4244439234529,25.158942073185738],[-107.42451900934766,25.15900810177699],[-107.42459418551168,25.159074031846288],[-107.42467423506444,25.159139985930235],[-107.42474941127347,25.159205915800147],[-107.42482458750429,25.159271933097585],[-107.42489967350929,25.159337873671898],[-107.42497494003132,25.15940834364925],[-107.42505011632753,25.159474273126737],[-107.42512520239782,25.159540300931354],[-107.42520037873757,25.159606230213758],[-107.4252754648514,25.159672170298542],[-107.42535064123471,25.159738186910698],[-107.42543069102099,25.159804052444734],[-107.4255058674493,25.159870068857405],[-107.42558104389941,25.15993599764777],[-107.42565622037132,25.160006477620538],[-107.425731396865,25.160072406213626],[-107.42580657338048,25.160138422233672],[-107.4258816596698,25.160204361532124],[-107.42595683622883,25.160270377357005],[-107.42603201280966,25.160336305559845],[-107.42611206280623,25.16040217017087],[-107.42618714918397,25.160468196599478],[-107.42626232583154,25.16053412450543],[-107.42633759274902,25.160604592673035],[-107.42641267919207,25.16067061880684],[-107.426487855905,25.16073654641788],[-107.4265630326397,25.160802473931355],[-107.426638119148,25.1608684997726],[-107.42671329592626,25.16093442709099],[-107.42679334613308,25.16100037830302],[-107.42686852295633,25.161066305421983],[-107.42694369980134,25.16113231996728],[-107.42701878641982,25.161198257792716],[-107.42709405355676,25.161268724955573],[-107.42716923046714,25.161334651682058],[-107.42724431715088,25.16140067673657],[-107.4273194941048,25.16146660326795],[-107.42739467108049,25.161532617225415],[-107.42747472149753,25.161598479990335],[-107.42754980826966,25.161664417126882],[-107.42762498531211,25.1617304307873],[-107.42770016237631,25.16179635682658],[-107.42777533946231,25.161866833986828],[-107.42785051657008,25.161932847352183],[-107.42792569369962,25.16199877309654],[-107.42800078060225,25.162064797169243],[-107.42807595777533,25.162130722718487],[-107.42815600840255,25.162196584560345],[-107.42823118562059,25.162262597433383],[-107.42830636286041,25.162328522685613],[-107.42838144987319,25.162394546266363],[-107.4284567174054,25.162465011619194],[-107.42853189471055,25.1625309365765],[-107.42860698178856,25.1625969598624],[-107.42868215913725,25.16266288462458],[-107.4287573365077,25.162728809289177],[-107.42883738734508,25.162794757730712],[-107.42891256476048,25.162860682195877],[-107.42898765194863,25.162926704989804],[-107.42906282940756,25.16299262925984],[-107.42913809713735,25.16306309370759],[-107.42921318439073,25.163129028684025],[-107.429288361915,25.163195040181744],[-107.42936353946101,25.163260964059248],[-107.42943862677961,25.163326986265705],[-107.4295187680763,25.163392835357126],[-107.4295938554398,25.1634588573642],[-107.42966903307429,25.163524780847123],[-107.42974421073055,25.163590791754807],[-107.42981938840857,25.16366126620179],[-107.42989456610837,25.163727189389757],[-107.42996974382994,25.16379311248013],[-107.43004483132387,25.16385913389972],[-107.43012000908894,25.16392505679496],[-107.43019518687578,25.163991067114708],[-107.43027523815654,25.1640569260851],[-107.43035041598831,25.1641229362053],[-107.43042550359233,25.164188869610875],[-107.43050077171719,25.164259332248363],[-107.43057594961428,25.164325342073457],[-107.43065112753312,25.164391264279047],[-107.4307262152241,25.164457284814137],[-107.43080139318646,25.164523206824587],[-107.43087657117056,25.164589216259145],[-107.43095662266137,25.164655074306225],[-107.43103180069042,25.164720996019618],[-107.43110688849146,25.164787016062668],[-107.43118215681382,25.164857477794907],[-107.43125733490815,25.164923399213315],[-107.4313324227744,25.16498941896146],[-107.43140760091224,25.165055340184722],[-107.43148277907184,25.16512134883174],[-107.43155786700325,25.16518728076588],[-107.43163800895401,25.165253214504794],[-107.43171309693031,25.16531914623961],[-107.43178827517832,25.165385154491837],[-107.43186345344812,25.16545107512523],[-107.43193872198971,25.165521535852335],[-107.43201381005295,25.165587467194865],[-107.43208898838799,25.165653475054313],[-107.4321641667448,25.165719395295103],[-107.4322392548732,25.16578541386603],[-107.43231939703418,25.165851259159584],[-107.43239448520745,25.16591727753109],[-107.43246966365265,25.165983197377233],[-107.43254484211964,25.16604920464656],[-107.43262002060837,25.1661196753755],[-107.43269519911884,25.166185594926628],[-107.43277037765108,25.1662516019008],[-107.43284555620507,25.166317521256683],[-107.43292064453041,25.166383538943],[-107.43300078690159,25.16644938331243],[-107.43307587527178,25.166515400799312],[-107.43315105391417,25.166581319760542],[-107.43322623257829,25.166647326144552],[-107.43330141126418,25.16671770844845],[-107.43337658997183,25.166783714634995],[-107.43345176870122,25.16684963320358],[-107.43352694745235,25.166915639194794],[-107.4336020359746,25.166981568476263],[-107.43368217855594,25.16704749944173],[-107.43375726712304,25.16711342852385],[-107.43383244596255,25.167179434120207],[-107.43390762482382,25.167245352098867],[-107.43398280370683,25.16731582101842],[-107.43405798261159,25.167381826319613],[-107.4341331615381,25.167447744003226],[-107.43420834048635,25.167513749109073],[-107.43428342920546,25.167579677506232],[-107.4343586081972,25.16764568241681],[-107.4344386607609,25.167711535744928],[-107.43451383979752,25.16777754045591],[-107.43458901885589,25.167843457549562],[-107.434664288187,25.167913914655166],[-107.43473937703784,25.167979929980152],[-107.43481455616144,25.16804584677875],[-107.43488973530678,25.168111850999203],[-107.43496491447387,25.168177767602533],[-107.43504000341154,25.168243782537182],[-107.43512014643628,25.16830962403211],[-107.4351952354188,25.16837563876731],[-107.43527041467422,25.16844155497592],[-107.43534568420266,25.16851201117605],[-107.43542077325031,25.168578025616263],[-107.43549595257096,25.168643941529822],[-107.43557113191335,25.168709944864833],[-107.43564631127748,25.168775860583107],[-107.43572140041198,25.16884187463298],[-107.43580154364675,25.16890771520364],[-107.43587663282608,25.16897372905406],[-107.43595181227855,25.169039644377595],[-107.43602699175274,25.169105647122358],[-107.4361022615002,25.16917610231703],[-107.43617735076637,25.16924202825609],[-107.43625253030578,25.16930803070564],[-107.43632770986692,25.169373945538812],[-107.43640288944981,25.169439947792995],[-107.436482942643,25.169505798350237],[-107.43655812227075,25.169571800404785],[-107.43663321166855,25.16963772575426],[-107.43670839133975,25.169703727613516],[-107.43678366128444,25.169774181902635],[-107.43685884099912,25.169840096045895],[-107.43693393048376,25.169906108521268],[-107.43700911024189,25.169972022469317],[-107.43708429002176,25.170038023837982],[-107.43716434342468,25.170103873471543],[-107.43723952324943,25.17016987464057],[-107.4373147030959,25.170235788193775],[-107.43738979271214,25.170301800079283],[-107.43746506285402,25.1703722534628],[-107.43754024276568,25.170438166720903],[-107.43761542269905,25.17050416739932],[-107.43769060265417,25.17057016798002],[-107.43776569237892,25.17063609185739],[-107.43784583624368,25.17070201717274],[-107.43792092601325,25.1707679408507],[-107.43799610605664,25.170833941036452],[-107.43807128612177,25.170899853606798],[-107.43814655646086,25.170970306084595],[-107.43822164631722,25.171036316887704],[-107.43829682644753,25.171102229162937],[-107.43837200659956,25.171168228858047],[-107.43844718677332,25.171234140937965],[-107.43852724059566,25.17130007624143],[-107.43860242081428,25.17136598812178],[-107.43867751080222,25.17143199833498],[-107.43875269106425,25.17149791002011],[-107.43882796160045,25.171568361592218],[-107.43890314190598,25.171634360597032],[-107.4389783222332,25.171700271986943],[-107.43905341232961,25.17176628170986],[-107.43912859270026,25.171832280421633],[-107.43920377309261,25.171898191518622],[-107.43928382714775,25.17196412579593],[-107.43935900758495,25.17203003669335],[-107.43943418804389,25.17209603501006],[-107.43950936852455,25.172166496590275],[-107.4395845490269,25.17223240719255],[-107.439659729551,25.172298405213994],[-107.4397349100968,25.172364315620946],[-107.43981009066434,25.17243031344698],[-107.43988518100075,25.172496322089593],[-107.43996532551833,25.172562157011626],[-107.44004041589953,25.17262816545474],[-107.44011559655532,25.17269407536917],[-107.44019086748573,25.172764525129676],[-107.44026604818495,25.172830522363032],[-107.4403412289059,25.172896431982238],[-107.44041631939555,25.172962439935027],[-107.44049150015988,25.173028349358965],[-107.44056668094595,25.17309434620157],[-107.44064673542027,25.173160191114043],[-107.44072191625118,25.173226187756967],[-107.44079709710378,25.173292184302156],[-107.4408722779781,25.173358093233485],[-107.44094745887412,25.17342855290354],[-107.44102263979187,25.173494549153435],[-107.44109782073131,25.173560457789595],[-107.44117300169248,25.173626453844065],[-107.44124818267535,25.173692362284882],[-107.44132823735926,25.173758293789245],[-107.44140341838695,25.173824202030474],[-107.44147850918297,25.173890208605716],[-107.44155369025407,25.173956204167425],[-107.4415915966847,25.174125775725262],[-107.44159701188953,25.174398957244403],[-107.44156587446331,25.174565239792017],[-107.44149349124343,25.174638143472475],[-107.44142092753697,25.174706518155638],[-107.44134845410406,25.174774969419246],[-107.44131108922872,25.174874093041662],[-107.44131388708152,25.175012991926756],[-107.4413552231038,25.175110823086904],[-107.44143031388593,25.17517682908758],[-107.44161316725126,25.175209672299783],[-107.44191335030024,25.17520469449771],[-107.44210107769857,25.175237384963925],[-107.44217625894942,25.17530337933208],[-107.44225144022197,25.17536937360249],[-107.4423266215162,25.175435280260047],[-107.44240180283215,25.175501274335012],[-107.44247689391611,25.175567191714336],[-107.44255207527543,25.17563318559392],[-107.44262725665646,25.175699179375762],[-107.44270731176434,25.175765021097494],[-107.44278258344401,25.17583546701996],[-107.44285776489158,25.175901460502132],[-107.44293294636088,25.175967366371783],[-107.44356355096774,25.17598831248419],[-107.44475454674357,25.175968678075602],[-107.44538389219325,25.17592693234326],[-107.4454613307603,25.17585840413855],[-107.44553380533748,25.175790038906527],[-107.44560618968002,25.17571713385023],[-107.44571386368311,25.175683978777485],[-107.44586639440905,25.17568145233456],[-107.4459739782647,25.175643844787782],[-107.44604645298445,25.175575479399313],[-107.44612389174834,25.175506950978075],[-107.44619636650977,25.17543858554991],[-107.44626884129134,25.17537013258893],[-107.44634131609304,25.175301767122743],[-107.44641379091492,25.175233401637538],[-107.44648626575695,25.175164948619553],[-107.44659872364633,25.175127276173644],[-107.44674638110928,25.175124813538577],[-107.44685883911089,25.17508714090023],[-107.44693131407662,25.175018687743293],[-107.4470038793178,25.174950311160877],[-107.44707635432385,25.174881945479562],[-107.44714882935007,25.174813492265596],[-107.44722130439641,25.17474512654627],[-107.44725857986397,25.174641463534954],[-107.4472558722027,25.174507107604626],[-107.4472882738843,25.174403509166147],[-107.44736074896942,25.174335143433005],[-107.44743818812371,25.174266614636807],[-107.4475106632505,25.174198248863977],[-107.44758313839742,25.17412979555847],[-107.44765561356448,25.174061429747645],[-107.44772808875169,25.173992976404158],[-107.44780056395905,25.173924610555325],[-107.44787294893095,25.173851704898457],[-107.44794542417857,25.173783339012033],[-107.44801798970195,25.173714962186143],[-107.44809046498987,25.173646508748067],[-107.44816781410518,25.1735780781779],[-107.44824028943475,25.173509624700202],[-107.4484217034862,25.17347078414197],[-107.44872189437785,25.17346579146555],[-107.44890962668052,25.17349855938449],[-107.44898480989539,25.173564548602634],[-107.44905999313193,25.17363045020972],[-107.44913517639014,25.173696439232387],[-107.44939664822637,25.173727984625437],[-107.44984458971328,25.17372051269957],[-107.4500997443153,25.173680447783656],[-107.45017718428277,25.173612005525598],[-107.45020958632728,25.17350840730948],[-107.45020687863537,25.173374052520852],[-107.450244244786,25.173274841803202],[-107.450316630436,25.173201935406265],[-107.45038910636256,25.17313356874398],[-107.45046158230925,25.173065202062702],[-107.45053405827605,25.172996747849478],[-107.450606534263,25.172928381130223],[-107.45108814357418,25.172884539826438],[-107.45198385261004,25.17286969406479],[-107.45246555471978,25.172830387300216],[-107.45253803124304,25.172761932427075],[-107.45261050778643,25.172693565047293],[-107.45268298434993,25.172625110136195],[-107.45275681479272,25.172623875838223],[-107.45283199911593,25.172689862094277],[-107.45291205735666,25.172755783450114],[-107.45298724172457,25.172821681994225],[-107.45316992267992,25.17285006679029],[-107.45347011903333,25.17284506306541],[-107.45365650088762,25.172810603144864],[-107.45372897774145,25.172742235381733],[-107.4538014546154,25.172673780087685],[-107.45387393150945,25.172605412286604],[-107.45398648284059,25.17256763639992],[-107.45413405422636,25.17256526464038],[-107.45424795953649,25.172599171898753],[-107.45432314428902,25.172665156855835],[-107.4543596084505,25.17276313205584],[-107.45436240644331,25.172901937017606],[-107.45440374453395,25.172999847223664],[-107.45447883907345,25.173065755264748],[-107.45455402389243,25.173131739794965],[-107.45462929899098,25.17320217639056],[-107.45470448385326,25.173268073211545],[-107.45477966873719,25.17333405744631],[-107.45496731513853,25.173362275589025],[-107.45526751355781,25.173357354340087],[-107.45545028636624,25.173390099638244],[-107.45552547146482,25.173456083158797],[-107.45560553053114,25.17352200165644],[-107.45568071567438,25.173587897466128],[-107.45594228432446,25.173619417030434],[-107.45638527282185,25.17361208450037],[-107.45664539803926,25.173571930920282],[-107.45671787572228,25.173503474570314],[-107.45675379866603,25.173332680327075],[-107.45674838314655,25.17306397762134],[-107.45677943212638,25.17289316068338],[-107.45685190984658,25.172824791854325],[-107.45696437220191,25.172787024470065],[-107.45711203552844,25.172784638034983],[-107.45722458825449,25.172751410091816],[-107.45729706609814,25.17268295361264],[-107.45733434300438,25.17257929118037],[-107.45733172549747,25.172444928941978],[-107.45736403817078,25.172341342376686],[-107.45743651605308,25.172272973394605],[-107.45750899395549,25.17220451688274],[-107.45758147187799,25.17213614786272],[-107.45765891406396,25.17206761540536],[-107.45773139202802,25.17199924634573],[-107.4578038700122,25.17193087726713],[-107.45787634801644,25.171862420658794],[-107.45794864552265,25.171789522836082],[-107.45802112356705,25.171721153701014],[-107.45820750866764,25.17168668802878],[-107.45850283680853,25.1716818256771],[-107.4586891319932,25.171642819725292],[-107.45876161024286,25.171574450351173],[-107.45883408851262,25.171505993447536],[-107.45890656680247,25.171437624035477],[-107.45898391912151,25.17136910207277],[-107.45905639745288,25.171300732621148],[-107.45912887580434,25.171232363150562],[-107.45920126391638,25.171159454042332],[-107.45938764985821,25.17112498704586],[-107.4596828890723,25.171120045867898],[-107.4598691850976,25.171081126116324],[-107.45994166367433,25.171012756388176],[-107.46001414227112,25.170944299130785],[-107.460086620888,25.17087592936471],[-107.46015909952496,25.170807472069416],[-107.46023157818202,25.170739102265443],[-107.46030902115284,25.170670568942516],[-107.46038140959152,25.170602210027198],[-107.46045379805024,25.170529300560403],[-107.46052627678894,25.170460930679365],[-107.46059875554774,25.170392473269143],[-107.46067123432658,25.1703241033502],[-107.46074371312554,25.170255645902092],[-107.46081619194456,25.170187275945246],[-107.46088867078367,25.17011890596945],[-107.46096114964286,25.170050448464508],[-107.46103850256952,25.169982013372703],[-107.46111089121005,25.169909103737762],[-107.46118337013081,25.169840646174745],[-107.46125584907163,25.16977227610296],[-107.46132832803252,25.169703818502068],[-107.4614008070135,25.169635448392388],[-107.46147328601458,25.169567078263768],[-107.46154576503571,25.169498620606056],[-107.46161815381659,25.169430261368273],[-107.46169559719785,25.16936172765092],[-107.46172529285946,25.169123779929723],[-107.46171707916547,25.168716276726297],[-107.4617516488902,25.168478263572034],[-107.46182412798844,25.16840980590938],[-107.46189660710675,25.168341435738103],[-107.46196908624513,25.168272978037585],[-107.46204156540361,25.168204607828443],[-107.46211404458215,25.168136150090064],[-107.46218652378076,25.16806777984304],[-107.46225891273889,25.167994869971672],[-107.46233626604918,25.167926434595035],[-107.46240874530935,25.167857976779697],[-107.46248122458957,25.167789606455692],[-107.46255370388988,25.167721148602507],[-107.46262609294956,25.167652789169527],[-107.46269857228998,25.16758433127852],[-107.46295870378663,25.16754417036712],[-107.46340657825994,25.167536757310685],[-107.46366671046016,25.167501058026314],[-107.4637391900887,25.167432599795383],[-107.46381157947624,25.167359776979744],[-107.46388405914489,25.167291318711374],[-107.46395653883361,25.167222947933983],[-107.4640290185424,25.16715448962776],[-107.46406629640792,25.167050826940713],[-107.46406358857246,25.166916477067108],[-107.46409608259968,25.166817419076548],[-107.46416838182465,25.166744519608713],[-107.46424086159207,25.166676061270103],[-107.46431830574932,25.166607614345338],[-107.46434393995094,25.166168098045905],[-107.46432760266018,25.165357457175435],[-107.46435802071063,25.16491342221625],[-107.46443050053057,25.164845051474458],[-107.46450298037054,25.164776593203413],[-107.46457546023059,25.164708222423794],[-107.46461273817391,25.16460455940733],[-107.4646100303328,25.164470208857576],[-107.46464252442782,25.164371063026632],[-107.46471500432648,25.16430269223323],[-107.46478730372236,25.164229792740468],[-107.46485978366111,25.164161421909675],[-107.46489724216782,25.16406220000456],[-107.46489444406232,25.16392339729172],[-107.46493181231251,25.163824186284806],[-107.46500429229125,25.16375572792817],[-107.46518562771823,25.163716881254093],[-107.46548583786486,25.163711858210593],[-107.46567213802064,25.16367739785221],[-107.46574452794249,25.16360457467674],[-107.46581700814616,25.16353611606306],[-107.46588948836985,25.163467744940686],[-107.46596196861363,25.163399286289224],[-107.46603444887745,25.163330915129052],[-107.46610683889944,25.163262467369766],[-107.46617931920335,25.163194096171825],[-107.4662517995273,25.163125637444818],[-107.4663291540172,25.16305720104672],[-107.46640154412063,25.162984290193407],[-107.46647402450607,25.16291591891861],[-107.46654650491156,25.162847460114804],[-107.46661898533712,25.162779088802218],[-107.46669137552063,25.16271064089083],[-107.46676385598624,25.16264226954048],[-107.46683633647193,25.16257381066115],[-107.46690881697766,25.162505439273012],[-107.46698617166156,25.162436915178652],[-107.46705856194653,25.1623640916678],[-107.46713104251373,25.162295632711672],[-107.46720352310098,25.162227261246713],[-107.46723592725543,25.162128126278233],[-107.46723312912495,25.16198932407811],[-107.46727049770875,25.161890112966],[-107.4673429783346,25.16182165397727],[-107.46741536871812,25.1617488303948],[-107.46748784938403,25.161680371368707],[-107.46756033006997,25.161611999833834],[-107.46763768494621,25.161543475583116],[-107.4677101656736,25.161475104008815],[-107.46778255615857,25.16140665583614],[-107.46785503692603,25.161338284224097],[-107.46792751771353,25.161269825083117],[-107.46799999852108,25.16120145343331],[-107.46807238908612,25.161128542173206],[-107.46810560571117,25.160823310021716],[-107.46809477420254,25.16028590904329],[-107.46804928187116,25.159981981561106],[-107.46797409317412,25.159916090098303],[-107.46789881423614,25.159845658926105],[-107.46782371584473,25.15977966882521],[-107.46778228537119,25.15968186090147],[-107.46777957749732,25.159542959563804],[-107.46781694615906,25.159443835656514],[-107.46788933667354,25.159375387615103],[-107.46800180377184,25.15933770339693],[-107.46814947332572,25.159335223566863],[-107.4682620307983,25.15930199125843],[-107.4683344214357,25.159229080046515],[-107.46840681209311,25.159160719358486],[-107.4684792930332,25.15909226021089],[-107.4688871002404,25.159054077686967],[-107.46963014501655,25.159041716311947],[-107.47003921769935,25.15906620920233],[-107.47011440698871,25.159132186767273],[-107.47018959629965,25.15919816423448],[-107.47026478563212,25.15926851709242],[-107.4703786076999,25.159298049551374],[-107.47052627859259,25.15929556684965],[-107.4706401910373,25.159329463566763],[-107.4707152902355,25.15939545140915],[-107.47079047971873,25.159461428221867],[-107.4708656692235,25.159527317427354],[-107.47187021390657,25.159546364477546],[-107.47380412444357,25.15951408351072],[-107.47480723613825,25.159461436611355],[-107.47487971884686,25.15939306278123],[-107.47495220157552,25.15932460142407],[-107.47502459405924,25.15925623849123],[-107.4751370642169,25.15921854867976],[-107.47528473778762,25.15921606022882],[-107.47539865229807,25.15924995186213],[-107.47547375285814,25.15931593556216],[-107.47554894370482,25.1593818207212],[-107.47562413457302,25.159447793290507],[-107.47581188617471,25.159480527298598],[-107.47611201822062,25.159475493726625],[-107.47629336132829,25.159436634490877],[-107.47636584444719,25.15936817265181],[-107.4764432019199,25.159299732801983],[-107.47651568508014,25.159231270923566],[-107.47658807799489,25.15916290747007],[-107.4766604709296,25.159089993599704],[-107.47669161253484,25.15892371889848],[-107.47668601607216,25.158650497763308],[-107.4767219417539,25.15847961795019],[-107.47679442499107,25.158411243553303],[-107.47705457047273,25.15837552538208],[-107.47750237875648,25.158367999323584],[-107.47776387892772,25.15839503357619],[-107.47783898016411,25.158460928100332],[-107.47791426195387,25.15853135103671],[-107.47798945349923,25.158597321933925],[-107.47839853921066,25.15862178634988],[-107.47914152064764,25.15860937885769],[-107.47954934442144,25.158571162476257],[-107.47962182843862,25.15850278711429],[-107.47969413194267,25.15842988325616],[-107.47976661599978,25.158361420350147],[-107.4798439744738,25.15829297931432],[-107.47991645857222,25.158224516368993],[-107.47998885242399,25.15815615184977],[-107.48006133656236,25.15808768886679],[-107.48017380887642,25.15804999546029],[-107.48032139501161,25.158047512472127],[-107.48043034703124,25.158081563388862],[-107.48051050397261,25.158147368202222],[-107.48058569626076,25.15821333700056],[-107.48066079830355,25.15827931663984],[-107.48076984073077,25.158313268639354],[-107.48092239188448,25.158310708177485],[-107.48103125388614,25.15834030644897],[-107.48110644632325,25.158406187190543],[-107.48118660347073,25.158476541546886],[-107.48126179595228,25.158542509592863],[-107.48137065809446,25.158572019895296],[-107.48152320959676,25.158569458527296],[-107.48163216211441,25.158603507927584],[-107.48170735472334,25.158669388014815],[-107.48178254735379,25.158735355510384],[-107.48186261444006,25.158801257199727],[-107.48204540579381,25.15883397036577],[-107.48234563522632,25.158828911165955],[-107.48253185708202,25.158789978115095],[-107.48260434192142,25.158721601725002],[-107.4826767365132,25.158653148750577],[-107.48274922139252,25.15858477232284],[-107.4830831214868,25.15854325378235],[-107.4836785280594,25.15853330533649],[-107.48401387362182,25.15856353873669],[-107.48408906691158,25.158629416749374],[-107.48416416995472,25.158695393110925],[-107.48423936328741,25.158761358433473],[-107.48442712104273,25.158793990967776],[-107.48472229816927,25.158789101129607],[-107.4849099660008,25.158817281016837],[-107.4849851595466,25.158883245625066],[-107.48502659273407,25.158985591741416],[-107.48502930078577,25.159119933429533],[-107.4850658594864,25.159222345251315],[-107.48514105307673,25.159288309528183],[-107.4854025608445,25.1593197006162],[-107.48585038334501,25.159312229626558],[-107.48611180154872,25.159339167279132],[-107.48618699543785,25.159405130580108],[-107.48626209907962,25.15947110472636],[-107.48633729301169,25.159536980327598],[-107.48682032201167,25.159564701928268],[-107.4877158823281,25.159549670440345],[-107.48819737927569,25.159505731895823],[-107.4882698656753,25.159437353527913],[-107.48834226182532,25.159368898582006],[-107.4884147482648,25.159300520176462],[-107.48874874581527,25.159263525223984],[-107.48934416520147,25.159253459822704],[-107.48967798339025,25.159212021704715],[-107.48975047019725,25.159143642860077],[-107.48982286675415,25.159075187438837],[-107.489895353601,25.159006808556576],[-107.4899678404678,25.158938342152283],[-107.4900451116703,25.15886535797274],[-107.49011750830815,25.158796989978306],[-107.49018999523605,25.158728523516356],[-107.4902623919137,25.1586600679812],[-107.49033487888144,25.158591688984803],[-107.4904072755989,25.1585232334121],[-107.49047976260651,25.158454854378093],[-107.49096126460516,25.158410907138506],[-107.49185683899718,25.158395849008105],[-107.4923384337821,25.158356348276556],[-107.49241092132074,25.158287968602817],[-107.4924832283374,25.15821506067266],[-107.49255571591586,25.158146593459207],[-107.49266819356768,25.1581133527995],[-107.49281587697793,25.158110843623387],[-107.49292826446963,25.158073151090004],[-107.49300075217042,25.158004683737886],[-107.49307314961997,25.15793631481674],[-107.49314563736057,25.15786784742703],[-107.49333186685276,25.157828899867603],[-107.49362714422794,25.157823890988634],[-107.49381346433152,25.157789394446937],[-107.4938859522756,25.157721014321346],[-107.49395834996815,25.15765255762268],[-107.49403074768057,25.157579638294656],[-107.49410811034535,25.157511191935658],[-107.49418050809888,25.157442735179465],[-107.49420470086882,25.15693605089452],[-107.4941853827613,25.1559866301532],[-107.49421445019466,25.15547987775246],[-107.49428684797736,25.15541150863188],[-107.49435933605153,25.155343041042485],[-107.494431733874,25.1552746718844],[-107.49450422198798,25.155206204257446],[-107.4945766198502,25.15513783506186],[-107.4946490177323,25.15506491571278],[-107.49472638057841,25.154996381874458],[-107.49475598970169,25.154758459082824],[-107.49474777497508,25.154355367906632],[-107.49470850677997,25.1541186223602],[-107.49462843578874,25.15405273015328],[-107.49451938762331,25.15401870281712],[-107.49437179353079,25.15402120081669],[-107.49425796107913,25.15399177852459],[-107.49418285515856,25.153925808779572],[-107.49410756871636,25.153855398173615],[-107.49403237256712,25.15378952668096],[-107.49391854026193,25.153760103907857],[-107.4937709465056,25.153762513527557],[-107.49365702404191,25.153728638743427],[-107.4935818280211,25.153662679290605],[-107.49350672229303,25.15359670879373],[-107.4934315263151,25.153530836648862],[-107.4933563303586,25.153464876902888],[-107.49327625977783,25.153399070630144],[-107.49323969993787,25.153296574512176],[-107.49323699180177,25.153162234961016],[-107.49319555732305,25.1530598922741],[-107.49312036143382,25.152993932094848],[-107.49304516556604,25.152928059321507],[-107.4929699697197,25.152862098946787],[-107.49296861565304,25.152794885267287],[-107.49304110336492,25.152726505845944],[-107.49311341055439,25.152653598104095],[-107.49318589830607,25.152585218645623],[-107.49325829580644,25.15251676261045],[-107.49333565824467,25.152448229558754],[-107.49359094542464,25.152412549345303],[-107.49403869157042,25.15240507085574],[-107.49429876382379,25.152364783966952],[-107.49437116162966,25.152296415078162],[-107.49444364972697,25.152227947720753],[-107.49451604757259,25.152159578794496],[-107.4945898897847,25.15215832477968],[-107.49466996076424,25.152224130462155],[-107.49474515709524,25.152290089647494],[-107.4948202631759,25.152356059681907],[-107.49500802847112,25.15238867961545],[-107.49530321745057,25.15238377123004],[-107.49548944846593,25.1523447364836],[-107.4955619368705,25.152276356247146],[-107.49563433502296,25.152207899436306],[-107.49570682346733,25.152139519162333],[-107.49577922165955,25.152071062314047],[-107.49585161987162,25.151998142796387],[-107.49588619408713,25.151764604623825],[-107.49587788905322,25.15135706001946],[-107.49590749830575,25.151119135937094],[-107.49597998682515,25.15105066815905],[-107.49605735006148,25.150982221731166],[-107.49612974834986,25.150913764861276],[-107.49616071171366,25.15074305393159],[-107.49615529538154,25.150474288414387],[-107.49619122372003,25.150303412755296],[-107.49626362204515,25.150235043400215],[-107.4963360203901,25.150166586523174],[-107.49640841875492,25.150093666962032],[-107.4964808171396,25.150025297551213],[-107.49655330581646,25.14995682967115],[-107.4966257042409,25.1498884602229],[-107.49670306766649,25.14981992616681],[-107.49673538518356,25.149716340842414],[-107.49673267701158,25.149582001768106],[-107.49676995951484,25.149478339324556],[-107.49684235799867,25.149409882340034],[-107.49694996276448,25.14937670732601],[-107.49710252328782,25.1493741317092],[-107.4972100378871,25.149336504793663],[-107.49728252676422,25.149268036724994],[-107.49731971907255,25.149164385230858],[-107.49731701089458,25.14903004625484],[-107.49735438375298,25.148930835496365],[-107.49742669212446,25.14885792664449],[-107.49749918106109,25.148789546046014],[-107.49757157974493,25.148721088873202],[-107.49764406872131,25.14865270823725],[-107.49771646744489,25.14858425102705],[-107.49778886618832,25.148515881301336],[-107.49786135522437,25.148447413106005],[-107.49793375400752,25.14837895583972],[-107.49801111781643,25.148310508947024],[-107.49811863278573,25.148272794175792],[-107.49826622897358,25.148270382355275],[-107.49837870905957,25.14823259028117],[-107.49845110798458,25.14816422036148],[-107.49852359720242,25.148095751971944],[-107.49859599616715,25.148027294511817],[-107.4986733601701,25.14795884740468],[-107.49874584944898,25.147890378957328],[-107.49881824847462,25.147822008942462],[-107.49889064752013,25.147753551405913],[-107.49896313685863,25.147685082902402],[-107.49903553594386,25.147616712831457],[-107.49910793504893,25.147543792587403],[-107.49918033417384,25.147475334976498],[-107.4992527333186,25.14740696484987],[-107.49933009751392,25.147338430055136],[-107.49940258697305,25.14727004894101],[-107.49947498617874,25.147201591253708],[-107.49954738540426,25.147133221050666],[-107.49961987492301,25.147064752377453],[-107.49965571345956,25.14689388772476],[-107.49965020678233,25.14662067124603],[-107.4996812608324,25.146454411854766],[-107.49975366011446,25.146386041644945],[-107.49982605941636,25.14631312125862],[-107.49989845873813,25.146244663508792],[-107.49993583196185,25.14614545254934],[-107.49993294321007,25.146006673037792],[-107.49997031643868,25.1459074620477],[-107.5000428060735,25.14583899333479],[-107.50011520545463,25.14577062305475],[-107.50018751458207,25.145697713545093],[-107.50022001307273,25.145598568732083],[-107.50021721459144,25.145464240867046],[-107.50025449758665,25.14536057811097],[-107.50032689702583,25.145292120296656],[-107.50039938675849,25.145223739018256],[-107.50047178623736,25.14515528116658],[-107.50047034185853,25.145083616284968],[-107.50039514389687,25.145017746185268],[-107.50032003623025,25.14495177753634],[-107.50024483831136,25.144885819738136],[-107.50020340273255,25.14478347848498],[-107.50020060425145,25.14464915028915],[-107.50023797751791,25.144549939129472],[-107.50031028667892,25.14447702966716],[-107.50038277640702,25.1444086484633],[-107.50045517588134,25.144340190685682],[-107.50049254918382,25.144240979501514],[-107.50048975069964,25.144102188576767],[-107.50044831508242,25.14400430982369],[-107.50037320740068,25.143938340736412],[-107.50029791919305,25.14386793076976],[-107.50022272128047,25.143802059936505],[-107.50018137597873,25.143704169910684],[-107.5001786677714,25.143569830329096],[-107.5002158604876,25.14346617822895],[-107.50028835018978,25.143397709638933],[-107.50036074963823,25.14332933948171],[-107.50043314910651,25.143260881802227],[-107.50050554859463,25.143187961421173],[-107.5005779481026,25.143119591208354],[-107.50065531268602,25.143051056353837],[-107.500727712235,25.142982598598472],[-107.50075867613796,25.142811886593435],[-107.50075325971153,25.142543119793736],[-107.50078909840182,25.142372341473056],[-107.5008615882613,25.142303872781774],[-107.50093398786682,25.142235415019755],[-107.50100638749217,25.14216704474277],[-107.50104367059875,25.142063381556493],[-107.5010409623826,25.141928954291256],[-107.5010732804305,25.141825368185472],[-107.50114568009401,25.14175699789611],[-107.5012181700513,25.141688529136395],[-107.50129553482219,25.141620081691148],[-107.50136793454661,25.141551623840442],[-107.50144033429085,25.141483165971103],[-107.50151282432898,25.141414784638712],[-107.50158513383886,25.141341874992353],[-107.50162313921966,25.141274000662055],[-107.50162178510861,25.141206874541297],[-107.50158179369876,25.141176198039954]]]},"id":"00000000000000000000","properties":{"SqM":19612195.31,"SqMi":7.5723,"basin_id":4,"id":6,"layer":"pt_06"}}]}