{"type":"FeatureCollection","features":[{"type":"Feature","geometry":{"type":"Polygon","coordinates":[[[-107.38260723590895,25.160773016420432],[-107.38253216221284,25.16070703944375],[-107.38245203550373,25.160636593824872],[-107.38241567170142,25.16053864130606],[-107.38241305495158,25.16040432150187],[-107.38237163812143,25.160301900298418],[-107.38229656449423,25.16023592289021],[-107.38222140065633,25.160169956254286],[-107.38214632707309,25.160103891112147],[-107.38207107304656,25.160033470648738],[-107.38199599950731,25.159967405309562],[-107.38188212598368,25.15993796553405],[-107.38173450554808,25.1599403406906],[-107.38162063214051,25.159906261033864],[-107.38154555873302,25.1598402827784],[-107.38147039511512,25.159774315294573],[-107.3813953217516,25.159708336844403],[-107.38132142143085,25.15970953495337],[-107.38124896484888,25.15977787707364],[-107.38117641805505,25.159846230043627],[-107.381098998738,25.15991464466864],[-107.38102518873487,25.159915831786158],[-107.3809500252694,25.159849863881952],[-107.38087495205816,25.159783885011738],[-107.38079978863671,25.159717916912676],[-107.380685915644,25.15968383613082],[-107.38053829589668,25.159686209689497],[-107.38042938578303,25.15965660817383],[-107.38034934996263,25.159590701261074],[-107.38030901624975,25.15928671818763],[-107.38029845910448,25.158744803374056],[-107.38025316263993,25.158440804294564],[-107.38017808963264,25.15837482414068],[-107.38010292641538,25.15830885475702],[-107.38002776322014,25.158238333175444],[-107.37997985007837,25.157800098546616],[-107.37996414972878,25.156989349808136],[-107.37992110912016,25.156550964139946],[-107.37984603621007,25.15648498279277],[-107.37977087309011,25.15641901221499],[-107.37969570999219,25.156348489408792],[-107.37961567440074,25.1562825801812],[-107.3795405113483,25.156216609304675],[-107.3794654385496,25.156150627464307],[-107.3793902755412,25.156084656392963],[-107.37931520278649,25.156018586816746],[-107.37924003982211,25.155952615550557],[-107.3791261675219,25.15591861861826],[-107.37897854867232,25.155920988173328],[-107.37886476671974,25.155891444687004],[-107.37878960388741,25.155825472964995],[-107.37875315037282,25.155722974649485],[-107.3787506238918,25.155588640106487],[-107.37870920765296,25.15548621402276],[-107.37863413509764,25.155420231105165],[-107.3785202630665,25.15538623323649],[-107.37837255433442,25.15538861262195],[-107.37825877265077,25.15535906821697],[-107.37818370022735,25.15529308484393],[-107.37814724679889,25.15519058587579],[-107.3781446300926,25.155056261662615],[-107.37810330418289,25.154953824026325],[-107.37802814157376,25.15488785118859],[-107.3779142698118,25.15485385238348],[-107.37776665166,25.15485621986849],[-107.37765774272353,25.1548266131036],[-107.37757770776821,25.15476070125142],[-107.37750263554423,25.15469471699591],[-107.37742747311124,25.154628655965407],[-107.37735231070029,25.154558217726557],[-107.37727714831138,25.154492244041194],[-107.37720207617544,25.15442617185185],[-107.3771269138306,25.154360197971673],[-107.37705184173865,25.15429421312995],[-107.37697667943786,25.15422823905498],[-107.37692624040321,25.15365556847435],[-107.37690521662249,25.15257160691842],[-107.37685459714031,25.15199449014056],[-107.37677952512814,25.151928503931405],[-107.37659680788269,25.15190007687259],[-107.3762967007292,25.151904866487808],[-107.37610893091804,25.15187205696662],[-107.37603385912429,25.151806070045602],[-107.37595869712206,25.15174009388983],[-107.37588362537235,25.15167401923077],[-107.37576975456321,25.15164001640173],[-107.37562213764662,25.151642379480446],[-107.37551322962149,25.151612768917804],[-107.37543319533593,25.15154685350454],[-107.37535803350991,25.151476411971565],[-107.37528287170593,25.151410435065724],[-107.37520780015424,25.151344359656857],[-107.37513263839436,25.15127838255622],[-107.37505756688668,25.151212394496454],[-107.37498240517087,25.151146417201073],[-107.37490733370723,25.151080428946706],[-107.37483217203548,25.151014363912626],[-107.37479084665995,25.150912009554393],[-107.37478822998791,25.150777681847938],[-107.3747862449264,25.150674618830266],[-107.37478498170545,25.15060744950504],[-107.37474491955827,25.15057226428472],[-107.37467111138461,25.150573444924433],[-107.37459793484223,25.150610442587688],[-107.37452548016057,25.150678781681783],[-107.37445293526946,25.150747219162163],[-107.3743803903989,25.150815569079324],[-107.37430793577877,25.150883908116324],[-107.37423548117916,25.150956799431068],[-107.37416293637018,25.151025149291417],[-107.37408551917132,25.15109356036148],[-107.37401306463461,25.15116198686525],[-107.37394051988863,25.15123033666675],[-107.37386797516321,25.151298686449167],[-107.37379552068803,25.151367025351632],[-107.37372297600369,25.151435462640134],[-107.37365043133988,25.151503812365338],[-107.37357806715592,25.151576605105795],[-107.37350552253315,25.15164504233751],[-107.37342810553304,25.151713453219703],[-107.37335556095276,25.151781802867347],[-107.3732831066226,25.15185014163525],[-107.3732105620834,25.151918578789026],[-107.37313801756474,25.151986928379454],[-107.37306556329611,25.152055267090216],[-107.37299301881856,25.152123616642506],[-107.37292056459097,25.152196507618697],[-107.37284802015449,25.152264857133204],[-107.37277060335316,25.152333355371766],[-107.37269814918851,25.152401693986018],[-107.37262560481504,25.15247004344164],[-107.37251805150316,25.152507588955622],[-107.37236547385383,25.152510108153557],[-107.37225656721358,25.15247594240079],[-107.37218140631985,25.152409963252104],[-107.37213872793504,25.152240361178702],[-107.37213358487435,25.15197169305518],[-107.37209090649752,25.151802090648843],[-107.37201574565242,25.15173611103321],[-107.37194067505848,25.151670120460516],[-107.37186551425751,25.15160405310535],[-107.37182779852176,25.151434465732056],[-107.37182256523829,25.151161255161462],[-107.37177997714231,25.15099610585073],[-107.37170472615954,25.150925671640756],[-107.3716296556568,25.150859680408985],[-107.37155449494715,25.150793612393947],[-107.37155323174213,25.150726442226258],[-107.3716257758117,25.150658093278658],[-107.37169822967284,25.15058975517113],[-107.37177077378351,25.150521406185398],[-107.37180551195324,25.15028339237378],[-107.37179766202877,25.14987576364121],[-107.37175372050193,25.149638989206682],[-107.37167855975584,25.149573008263012],[-107.37134335933824,25.149546988865136],[-107.37074793981355,25.149556573358954],[-107.3704126503863,25.1495260972776],[-107.37033758026257,25.149460104246227],[-107.37029490218522,25.149290498403825],[-107.37028966893308,25.14902174928411],[-107.37025195342957,25.148852158764335],[-107.37017688335298,25.14878607772473],[-107.36976769768572,25.148756786936136],[-107.369024668715,25.14876871536289],[-107.36861205623073,25.148811183525282],[-107.3685395130156,25.148879531295478],[-107.36846696982107,25.148947879046602],[-107.3683945168749,25.149016215922313],[-107.36828200281366,25.14905391657543],[-107.36813439021495,25.14905626909891],[-107.36802674856312,25.149089356182234],[-107.36794933322042,25.149162317152076],[-107.36787688042092,25.149230653869502],[-107.36780433741433,25.1492990014239],[-107.36739650895437,25.149336863869717],[-107.36665348687256,25.149348779408943],[-107.36624575047536,25.149391092251797],[-107.36617320793157,25.149459526811377],[-107.36610066540837,25.149527873804622],[-107.36602821313274,25.149596209923963],[-107.36595567065066,25.149664556879063],[-107.36587825593504,25.149733052235867],[-107.36580580372245,25.149805853207976],[-107.36573326130352,25.149874200104563],[-107.36566071890516,25.14994263452935],[-107.36558826675423,25.150010970533113],[-107.36555605577965,25.150383332096588],[-107.36556904844119,25.151059646478217],[-107.36561560548375,25.151430760001148],[-107.36569076444826,25.15149683292171],[-107.36576583320799,25.151562829053194],[-107.36584099221666,25.151628814232105],[-107.3658423456204,25.15170043978315],[-107.36576980319109,25.15176887439423],[-107.36569726078237,25.15183722143941],[-107.36562480862106,25.151905557610228],[-107.36558736448598,25.152009253084294],[-107.3655899810639,25.152143585240385],[-107.36555740918186,25.15224266734258],[-107.365485047287,25.15231554507533],[-107.3654125049591,25.152383892068308],[-107.36533996265179,25.152452239042184],[-107.36526254812267,25.15252064689726],[-107.36519000585793,25.152589081378068],[-107.36492988245848,25.152629043729224],[-107.36448705072472,25.1526360945242],[-107.36422548441935,25.152604440553727],[-107.3641504161121,25.152538443569462],[-107.36407525760062,25.15247245734229],[-107.3640001893375,25.152406460163466],[-107.36351233639105,25.152378388863923],[-107.36262162596152,25.15239264770756],[-107.36214000121481,25.152436136330806],[-107.3620675500623,25.15250447134175],[-107.3619950087048,25.152572817186556],[-107.3619224673679,25.15264125056012],[-107.3615885428975,25.15268237967107],[-107.3609930558687,25.152691934217682],[-107.36065777923758,25.15266143414313],[-107.36058271197899,25.15259534651207],[-107.36053741900432,25.152291485707437],[-107.36052704312479,25.151749495225264],[-107.36048175016,25.15144554590217],[-107.36040668295318,25.151379545085433],[-107.36014521105176,25.151347869534415],[-107.35970229738959,25.151354911570156],[-107.35944217957957,25.151394949370015],[-107.35936963896808,25.1514632942301],[-107.3592970983772,25.151531639071084],[-107.35922455780694,25.151599983892936],[-107.35896444048385,25.151640020950296],[-107.35851665675725,25.151647119778332],[-107.35825518679228,25.151615440187275],[-107.35818003001619,25.151549448350913],[-107.35810496348641,25.151483445567372],[-107.35802980675456,25.15141745353633],[-107.357954740269,25.151351450558263],[-107.3578796738055,25.151285359933386],[-107.35780451714002,25.15121936761033],[-107.35772439817408,25.151148981578675],[-107.35764933177836,25.151082978205064],[-107.35757417518076,25.151016985583517],[-107.35749910882926,25.150950982015388],[-107.3574239522759,25.150884989199167],[-107.35734888596859,25.15081889788665],[-107.35727381968339,25.150752894026724],[-107.3571986631964,25.150686900918508],[-107.3571235969554,25.150620896864073],[-107.35704347820334,25.15055050989152],[-107.35696832178424,25.150484516484823],[-107.35689325561103,25.150418512132134],[-107.3568181894599,25.150352420132055],[-107.35674303310718,25.150286426433357],[-107.35666796700029,25.15022042178889],[-107.35659281069184,25.150154427895533],[-107.35651774462916,25.150088423056555],[-107.35644394171887,25.150089592473943],[-107.3563664396637,25.15015800755328],[-107.3562939901503,25.15022642796706],[-107.35622145043399,25.15029477165952],[-107.3561138138034,25.150332315070294],[-107.35596133617311,25.150334713991153],[-107.35585234630156,25.150300628535703],[-107.35577728045683,25.150234623117818],[-107.35569725235105,25.150168688922523],[-107.35562209632869,25.15010269415351],[-107.35554703055175,25.15003668843958],[-107.35547187457367,25.149970693475915],[-107.35539671861774,25.14990014577582],[-107.35532165290716,25.149834139767936],[-107.35524649699552,25.14976814451007],[-107.35517143132917,25.149702138307674],[-107.3550962754618,25.149636142855183],[-107.35501624756978,25.149570207738982],[-107.35494118197124,25.14950420124056],[-107.35486611639479,25.149438194644937],[-107.35482966629111,25.149335676921783],[-107.35482704982347,25.14920133788584],[-107.35478572768297,25.149098967999723],[-107.3547106621523,25.149032961074784],[-107.35459671055364,25.14899894490681],[-107.35444910586655,25.149001280751733],[-107.35433659795036,25.14903888283618],[-107.35426414901379,25.149107214918576],[-107.354191609875,25.149175557828254],[-107.35411907075687,25.149243988270154],[-107.35378515650044,25.14928509303273],[-107.35318968768817,25.149294601631397],[-107.35285568442717,25.14933124972906],[-107.35278323591157,25.14940404647141],[-107.35271069719433,25.1494724764528],[-107.35263815849771,25.14954081886333],[-107.35223035426938,25.149578632509957],[-107.35148728611935,25.149590466711444],[-107.35107957395506,25.149632731021885],[-107.35100703572293,25.14970116044227],[-107.35092962554275,25.14976956256428],[-107.35085708735332,25.149837904392513],[-107.35078454918454,25.14990624620162],[-107.35071201103644,25.149974675543913],[-107.35063956313053,25.150047471638512],[-107.35056702502372,25.150115813390656],[-107.35049448693755,25.150184155123675],[-107.35042194887207,25.15025258438991],[-107.35034950104867,25.15032091524074],[-107.35027200084696,25.150389328018367],[-107.35016445695071,25.150426856152805],[-107.35001676461017,25.150429198247238],[-107.34990290533221,25.15039516692919],[-107.3498278412402,25.150329156345336],[-107.34975277717032,25.15026314566427],[-107.34967762290137,25.150197145729443],[-107.34941616200406,25.150165444295606],[-107.34896830483147,25.150172603784625],[-107.3487081979755,25.15021253145494],[-107.34863566041892,25.15028087256274],[-107.34856312288302,25.150349301204333],[-107.3484905853678,25.150417642273887],[-107.34841813809399,25.150485972481654],[-107.34834560062009,25.15055431351298],[-107.34827306316686,25.150622654525165],[-107.34819556359726,25.15069115409383],[-107.34812311640742,25.15076394942519],[-107.3480505790176,25.15083229037871],[-107.34801809959602,25.15093136375927],[-107.34802071599371,25.151070258513325],[-107.34798327444304,25.151169402882047],[-107.34791073709307,25.151237743821007],[-107.34779823206505,25.1512753414617],[-107.34765054109735,25.151277768703007],[-107.34753803618436,25.151310900946466],[-107.34746558918171,25.15138369610799],[-107.34743554578566,25.15161713324619],[-107.34744339496086,25.15202479951354],[-107.34740856988653,25.152262750839917],[-107.34733603270037,25.152331091672252],[-107.34726223245009,25.15233225613105],[-107.3471870789165,25.15226625500008],[-107.34711201562538,25.1522002429295],[-107.34703686213616,25.152134241603886],[-107.34696179888937,25.152068229338813],[-107.34688177355329,25.152002287970042],[-107.34680662013207,25.151931821139076],[-107.34673146673305,25.151865819417758],[-107.34665640357635,25.151799806757275],[-107.34658125022169,25.151733804841328],[-107.3465061871093,25.151667704433066],[-107.34643112401908,25.15160169148085],[-107.34635597073097,25.15153568927295],[-107.34628090768506,25.151469676126258],[-107.34620088256315,25.151403733836755],[-107.34612563912312,25.151333276945508],[-107.34571667246958,25.151308349513727],[-107.34497353311464,25.151320159530073],[-107.34456574116562,25.15135795092185],[-107.34449329500946,25.151430832680933],[-107.34442075865459,25.151499172452297],[-107.34434822232043,25.15156751220453],[-107.344274422937,25.15156867463294],[-107.34419927028615,25.151502670519005],[-107.34415668680117,25.151333116479627],[-107.3441514540853,25.15105987567252],[-107.34410887060834,25.15089478656625],[-107.3440338082256,25.150828771146188],[-107.34395865564588,25.150758301195697],[-107.34388350308838,25.150692208864132],[-107.34380844077218,25.150626193150174],[-107.34373337847816,25.150560177339017],[-107.34365822598724,25.150494172269944],[-107.34358316373756,25.150428156264333],[-107.34350801129105,25.150362151000664],[-107.34342798704168,25.15029620562071],[-107.34335292485999,25.15023018931914],[-107.34327786270046,25.15016417292037],[-107.34320262012528,25.15009371280784],[-107.34312755801012,25.150027696212423],[-107.3430524056983,25.1499616903585],[-107.3429773436275,25.149895673568626],[-107.34293602341049,25.149793207733254],[-107.34293340706509,25.149658862504204],[-107.34289713910759,25.149560867768148],[-107.34282189664512,25.149490407019602],[-107.34274187261174,25.14942446057899],[-107.34266681063264,25.14935844326121],[-107.34259174867572,25.149292425846237],[-107.34251659652229,25.14922641917216],[-107.34244153460973,25.14916040156275],[-107.34236638250073,25.149094394694085],[-107.34229132063253,25.14902837689023],[-107.34221625878648,25.148962358989195],[-107.34214101652556,25.14889180978318],[-107.34206099270656,25.148825862422026],[-107.34198593092854,25.14875984422282],[-107.34191086917271,25.148693825926433],[-107.34164941625876,25.14866665794678],[-107.34120653476262,25.14867362798104],[-107.34094634562679,25.148709084243727],[-107.34087381028412,25.148777422584757],[-107.34080127496217,25.148845848462557],[-107.34072873966093,25.148914186765325],[-107.34054243951071,25.148952937410655],[-107.34024228454398,25.14895773290105],[-107.34005950324412,25.148924702034765],[-107.3399794800807,25.14885884033824],[-107.33990441891763,25.148792820332066],[-107.33982926755904,25.148726723508474],[-107.33964170502155,25.148698381228954],[-107.33934642286587,25.148703026859092],[-107.33915877046749,25.14867014165403],[-107.33908370954697,25.148604120839344],[-107.33900855843122,25.14853811076285],[-107.33893349755509,25.148472089753724],[-107.33755497964101,25.14845797900901],[-107.33487798780163,25.14850030453671],[-107.33350571678257,25.14855772321114],[-107.33343318356602,25.148626059004695],[-107.3333606503702,25.14869448233755],[-107.33328811719512,25.148762818092816],[-107.33321062219643,25.14883122420347],[-107.33313808906426,25.148899559918753],[-107.33310561154913,25.149003100720417],[-107.33310813757794,25.14913754986211],[-107.3330707884403,25.149241150171562],[-107.33299825534813,25.14930948587259],[-107.33292572227671,25.149377821554452],[-107.33285318922604,25.14944615721716],[-107.33278065619612,25.149514580419137],[-107.33270812318695,25.149582916043542],[-107.33263549998337,25.149651262480013],[-107.33255818561435,25.149724112249054],[-107.33248565266881,25.14979253537315],[-107.33241311974402,25.14986087091965],[-107.33230540297608,25.149893941693268],[-107.33215284940735,25.149896321274625],[-107.33204531317986,25.149933835684806],[-107.33197278038105,25.150002171092734],[-107.33193534119575,25.150105869756],[-107.33193786721289,25.150240231529523],[-107.33190538985149,25.15034377225124],[-107.33182798549024,25.150412167161573],[-107.33175545275361,25.150480502534347],[-107.33168292003772,25.150548925446483],[-107.33165035249417,25.150648011493445],[-107.33165296872328,25.15078682785699],[-107.33161543937042,25.150885984217027],[-107.3315429066946,25.150954319555886],[-107.33147046425425,25.151027197085963],[-107.33139793161992,25.151095532386883],[-107.33136310874562,25.151333494190357],[-107.33137077699473,25.151736655537828],[-107.33134082571716,25.151974557479985],[-107.3312682931199,25.152042892813693],[-107.33119079873858,25.152111386039987],[-107.33111826618425,25.152179721333678],[-107.33108705193217,25.152350442514088],[-107.3310922843788,25.152623696504776],[-107.33105601811313,25.152790033255556],[-107.33098357581194,25.152862823194848],[-107.33064951152026,25.152899427849853],[-107.33005409691535,25.152908831059452],[-107.329720124063,25.152949975537187],[-107.32964759192957,25.153018310397638],[-107.32957505981692,25.153086645238915],[-107.32950252772503,25.153154980061004],[-107.32931614560404,25.15319372838852],[-107.32902087546745,25.153198441467367],[-107.32883449370078,25.153232723647722],[-107.3287619618209,25.153301058229214],[-107.3286894299618,25.153369392791525],[-107.32861689812346,25.15343772733464],[-107.32798269649129,25.153483562238424],[-107.32679179100323,25.15350226548251],[-107.32616255564788,25.153548021070833],[-107.32609002453324,25.15361635476699],[-107.3260174934394,25.153684688443953],[-107.32594496236632,25.153753022101725],[-107.32587243131402,25.153821443299954],[-107.32579493858336,25.15388984708537],[-107.32576498796504,25.15412775148807],[-107.3257727462574,25.154535373210877],[-107.325737743731,25.154768892736733],[-107.32566530295074,25.15484168109192],[-107.32559277197856,25.154910102282766],[-107.32552024102718,25.154978435894947],[-107.32548794491372,25.155350762411548],[-107.32550075510348,25.15602710902376],[-107.32547333047268,25.156399462758174],[-107.32540079955551,25.156467796450077],[-107.32532826865913,25.156536130122777],[-107.32525573778354,25.15660446377626],[-107.32521829959094,25.15670816199388],[-107.32522082554112,25.156842524747617],[-107.32526214287246,25.156944912854527],[-107.32533728991376,25.15701093096786],[-107.32541234676481,25.157076959812297],[-107.3254874036381,25.157142988559546],[-107.32552637548494,25.157379798101896],[-107.32553413376999,25.157787416306487],[-107.3255779771062,25.158024165851078],[-107.32565312424127,25.158090183172888],[-107.32572818118597,25.158156211226363],[-107.32580332836561,25.158222228353583],[-107.32584843472667,25.158526245615278],[-107.32585871897811,25.159068223451296],[-107.32582515984336,25.159373365011003],[-107.3257525386127,25.159441709892405],[-107.32568000761555,25.15951013148342],[-107.32560747663916,25.15957846549694],[-107.32553494568354,25.159646799491217],[-107.32546241474873,25.159715133466275],[-107.32538997404727,25.159787922066958],[-107.32531735294145,25.159856266833188],[-107.32527991473975,25.159955499067422],[-107.32528253090307,25.160094315144956],[-107.32524500249401,25.16019347061871],[-107.32517247164228,25.16026180453894],[-107.3250648481655,25.1602993276916],[-107.32491229895703,25.160301791724056],[-107.3248046755909,25.160334761658266],[-107.32473214486535,25.16040764847547],[-107.32469596972268,25.160573973884212],[-107.32470111182494,25.160847239034723],[-107.32466989836372,25.16101795952143],[-107.3245924060012,25.161086363563744],[-107.32451987533649,25.161154697333316],[-107.32444734469256,25.161223031083644],[-107.3243748140694,25.161291364814737],[-107.32430228346705,25.161359786084876],[-107.32422966267333,25.161428130606467],[-107.32415713211259,25.161496464279818],[-107.32411969408251,25.16160007427391],[-107.32412231023385,25.16173442484806],[-107.32416362738584,25.161836811548547],[-107.32423868388881,25.161902926677886],[-107.32431383062624,25.16196894332262],[-107.32438888717377,25.162034970699285],[-107.32443660943731,25.162473248696603],[-107.3244520357286,25.16328848671945],[-107.32442100272253,25.163728074373076],[-107.32434847210695,25.16379640829664],[-107.32416209377963,25.1638351558068],[-107.32386682965341,25.1638397806506],[-107.32368036146889,25.163874072891353],[-107.32360783106559,25.163942406573987],[-107.32353530068308,25.164010740237373],[-107.32346277032136,25.164079073881496],[-107.32339023998043,25.164151960516396],[-107.3233177096603,25.164220294122366],[-107.32324021771188,25.164288697965628],[-107.32316768743476,25.16435703153141],[-107.3230599745989,25.164390099796233],[-107.32290742659909,25.164392476105732],[-107.32279980408569,25.164429998811613],[-107.32272727393483,25.164498419796498],[-107.32265474380476,25.164566753204106],[-107.32257725205943,25.164635156828357],[-107.32239583666932,25.164673832134284],[-107.32209561297786,25.164678523830855],[-107.32190923631022,25.16471280324758],[-107.32183670641474,25.164785689422036],[-107.32176417654006,25.16485402254886],[-107.32169164668616,25.164922355656415],[-107.32161911685307,25.164990688744698],[-107.3215464968296,25.165059032641924],[-107.32147396703813,25.165127365691657],[-107.32140143726748,25.165195698722115],[-107.32128894399519,25.165233367466126],[-107.3211412684603,25.16523568267381],[-107.32102868509274,25.165268809016577],[-107.3209560652388,25.165337152734324],[-107.32088362582765,25.165409940255774],[-107.32081109622631,25.165478273107478],[-107.32069851300577,25.16551139926454],[-107.3205508378157,25.16551371390843],[-107.32043834492184,25.165551382082437],[-107.32036572523745,25.165619725621074],[-107.3202931957847,25.16568805831287],[-107.32022066635275,25.165756390985393],[-107.32003429106706,25.165795133895227],[-107.31973903175972,25.165799750876428],[-107.31955256661863,25.1658340384693],[-107.31948003739919,25.165902370900795],[-107.31940750820053,25.16597079087177],[-107.31933497902268,25.166043588761717],[-107.31922239645951,25.166076713914773],[-107.31907472213176,25.16607902707674],[-107.31896222989478,25.166116606706975],[-107.31888970084472,25.166184938959663],[-107.31881708160526,25.166253282019717],[-107.31874455259684,25.166321614233816],[-107.31867202360925,25.166390033987533],[-107.31859949464248,25.166458366163084],[-107.31852200414004,25.166526768424742],[-107.31844938500622,25.166595111386535],[-107.31834185460046,25.166632620588462],[-107.31818921923728,25.1666350030821],[-107.31808168894221,25.16667251210107],[-107.31800906993494,25.166740942483028],[-107.31793654115845,25.166809274460434],[-107.3178590508593,25.166877676503375],[-107.31778652212586,25.166946008440526],[-107.31771399341326,25.167014340358385],[-107.31764137451165,25.16708268308303],[-107.31756884584071,25.167151014962293],[-107.31716100776904,25.167193304390587],[-107.31641786192066,25.167204907360784],[-107.31600993549807,25.167242650881494],[-107.31593731708635,25.167310993041696],[-107.3158600078188,25.167383925818836],[-107.31578738945021,25.167452267939094],[-107.31560588872458,25.167486480940617],[-107.31530567309895,25.167491159019082],[-107.31511930143878,25.167529896090787],[-107.31504677349206,25.167598227145042],[-107.31502313876764,25.1681721277647],[-107.31504361618141,25.16925602161672],[-107.31501520038742,25.169834433542995],[-107.31494258226176,25.169902863130048],[-107.3148700543658,25.16997119431347],[-107.31479752649065,25.17003952547758],[-107.31472490842759,25.170107867447342],[-107.31465238059415,25.170176198572808],[-107.31457985278156,25.170244529678957],[-107.31450236351226,25.170312930777637],[-107.31442974553408,25.170381272668322],[-107.31435730799407,25.170454145974425],[-107.31424959891322,25.17048712183952],[-107.31409705623162,25.170489578138632],[-107.3139894374703,25.170527096080182],[-107.31391690984816,25.170595426988015],[-107.31387938312648,25.170694581729954],[-107.3138819991718,25.170833399697436],[-107.31384447245529,25.170932554407702],[-107.31377185466638,25.171000896122916],[-107.31369932710675,25.171069226994216],[-107.31362688977632,25.171142100109762],[-107.31355427205,25.171210441767304],[-107.31348174455289,25.171278772581022],[-107.31329528403097,25.171313054664274],[-107.31300003260097,25.171317661389878],[-107.31281366264301,25.17135639752984],[-107.31274104515067,25.171424738926312],[-107.31270613463694,25.171662799463682],[-107.31271389252846,25.172070333699498],[-107.31268385325217,25.172303781656403],[-107.31261132600518,25.172376665349482],[-107.31253383734023,25.172445065905332],[-107.31246131013634,25.172513396468954],[-107.31242865485981,25.172612491888355],[-107.31243136109804,25.172751299044204],[-107.31246762469307,25.172849304610864],[-107.31254276793018,25.172915326343393],[-107.31262287263017,25.172985831075106],[-107.31269792570548,25.17305186343084],[-107.31277306901119,25.173117884864826],[-107.31284812213116,25.173183917026034],[-107.31292326548157,25.173249938265347],[-107.31299831864622,25.17331597023202],[-107.31299958156025,25.17338315158478],[-107.31292705422253,25.173451482382053],[-107.31285443669755,25.173519823984694],[-107.31278199960961,25.17359260943007],[-107.31274699888218,25.17382621405608],[-107.3127546665669,25.174233756439513],[-107.31272471749378,25.174471745394317],[-107.31265219023507,25.174540076184257],[-107.31257470155755,25.174608476968285],[-107.31250208413397,25.17467681854267],[-107.31242955693924,25.17474514927288],[-107.31235711997326,25.1748179346619],[-107.3122845026123,25.174886276178533],[-107.3122119754801,25.17495469440997],[-107.31221323839019,25.17502187564664],[-107.31228829134365,25.175087907389006],[-107.31236343452737,25.175153928209273],[-107.31243848752553,25.17521995975709],[-107.31248241879801,25.17545670026984],[-107.3124900864747,25.175864328671974],[-107.31252905631743,25.17610113860965],[-107.31260410936483,25.176167169560195],[-107.31268412387625,25.176233130365343],[-107.31275926717784,25.176299237849964],[-107.31283432029372,25.176365268504366],[-107.31290946364003,25.176431288235857],[-107.31298451680057,25.1764973186957],[-107.31305966019158,25.176563338232494],[-107.3131347133968,25.176629368497775],[-107.31320994704076,25.17669984247797],[-107.31328500029066,25.176765872546476],[-107.31336501501796,25.176831832430494],[-107.31344015852227,25.17689785147403],[-107.31351521184062,25.17696396880437],[-107.31359035538966,25.177029987653146],[-107.31366549896106,25.177096006404536],[-107.31370807732118,25.177265574210733],[-107.3137131289915,25.17753429563697],[-107.31375083610529,25.177704009959868],[-107.31382588951602,25.177770039075234],[-107.31390103315752,25.17783605726655],[-107.31397617682141,25.177906540795878],[-107.31397743974033,25.177973720973768],[-107.31390491212163,25.17804205246938],[-107.31383229431532,25.17811048233002],[-107.31375976673833,25.17817881378691],[-107.31373234338132,25.178551072527362],[-107.31374506276693,25.179227415208334],[-107.31371276815788,25.179599819830035],[-107.31364015040685,25.179668162191213],[-107.31356762288507,25.17973649370582],[-107.31349518559244,25.179809279792956],[-107.31342256790401,25.179877622096306],[-107.31334507898997,25.179946111255425],[-107.31327255155296,25.18001444269123],[-107.31319993392859,25.180082784934676],[-107.31320119684362,25.18014996488622],[-107.31327634029915,25.18021598248735],[-107.31335139356881,25.18028201081825],[-107.31343149852545,25.180347958068765],[-107.31350664204955,25.180418440784386],[-107.31358178559603,25.180484545546545],[-107.31365683895649,25.180550573481693],[-107.3137319825477,25.18061659049203],[-107.3138070359528,25.180682618232574],[-107.3138821795887,25.180748635048168],[-107.3139572330385,25.18081466259412],[-107.31403237671911,25.180880679214958],[-107.31411239168331,25.180946636371328],[-107.31418762561869,25.1810171949134],[-107.314296507385,25.181046853130333],[-107.31444905018712,25.18104447806233],[-107.31455802227488,25.181078590555725],[-107.31463316613431,25.18114460652389],[-107.31467439152648,25.18124253683842],[-107.31467700758004,25.18138135002805],[-107.31471336170645,25.18147933960802],[-107.3147933768865,25.181545295842955],[-107.31486852081599,25.181615864310295],[-107.31494366476782,25.181681879749473],[-107.31498119164772,25.181847058988808],[-107.31498642376121,25.18212030666514],[-107.3150290023441,25.182289869865784],[-107.31510405613481,25.182355895671083],[-107.31517920015678,25.182421910549984],[-107.31525434420107,25.182488012887433],[-107.31529692282913,25.182657575579398],[-107.31530197453125,25.18292629100983],[-107.31533968188235,25.18309600037956],[-107.31541473576542,25.18316202552755],[-107.3154898798798,25.183228039748673],[-107.31556989530591,25.183293994403392],[-107.31560886562409,25.18353088191622],[-107.31561653339574,25.183938407933827],[-107.31566046522128,25.18417522453215],[-107.31573551919969,25.18424124888342],[-107.31581066340954,25.18430726230724],[-107.31588571743256,25.184373286463863],[-107.31592703323842,25.184475756498724],[-107.31592964930496,25.18461010234902],[-107.31596600361172,25.18471255503039],[-107.31604114789015,25.184778568026776],[-107.31611620198167,25.184844591756274],[-107.31619134630478,25.184910692112897],[-107.31623266216063,25.18501307412382],[-107.31623518802104,25.18514743042675],[-107.31627641367474,25.18524535782743],[-107.31635164825487,25.18531591231998],[-107.31642679264803,25.18538192468975],[-107.31650184685417,25.1854479477931],[-107.31657699129201,25.185513959968063],[-107.31665204554277,25.185579982876767],[-107.3167271900253,25.18564599485693],[-107.31680233453018,25.185712006739656],[-107.3168773888479,25.185778116910928],[-107.31695740471358,25.185844069026995],[-107.31703263949652,25.185914535061364],[-107.31710778409227,25.185980546547906],[-107.31714404835897,25.186078543371128],[-107.3171466644381,25.186217440758426],[-107.3171879804502,25.186315356201924],[-107.3172630348825,25.186381378192404],[-107.31733817954678,25.186447389253672],[-107.3174133242334,25.18651795303711],[-107.31745464028911,25.186615868156586],[-107.31745716616174,25.186750223166893],[-107.31749352068833,25.186852673856254],[-107.31756866542116,25.186918684489996],[-107.31764868150579,25.186984635405654],[-107.31772382628476,25.187050733394244],[-107.31776144378756,25.187220361090812],[-107.31776667595865,25.18749360138126],[-107.31780916480037,25.18765870387165],[-107.31788430962709,25.18772471384306],[-107.31795945447614,25.187795276510265],[-107.31803459934754,25.187861286284598],[-107.31807582529488,25.187959211197807],[-107.31807844138368,25.188098019740334],[-107.31811479599966,25.188196004179513],[-107.31818985070726,25.188262112012534],[-107.31826499564718,25.188328121361508],[-107.31834510216237,25.188398525330282],[-107.31842024714847,25.188464534477898],[-107.3184953019468,25.18853055436145],[-107.31857044697755,25.18859665086754],[-107.31864559203065,25.188662659722826],[-107.3187206468959,25.188728679314266],[-107.31879579199367,25.188794687974713],[-107.31887093711376,25.188860696537695],[-107.31894599204594,25.188926803390164],[-107.31898730835225,25.189029181551824],[-107.31898992445048,25.18916352394538],[-107.31903124076398,25.189265901967072],[-107.31910629574375,25.189332008485177],[-107.31918144095619,25.18939801651882],[-107.31925658619095,25.18946402445501],[-107.31933164123764,25.189530043128034],[-107.31940687672748,25.189600592779225],[-107.31952072231948,25.189630170797116],[-107.3196683969078,25.1896278439652],[-107.31978224261755,25.18966188687623],[-107.31985738803093,25.189727894159482],[-107.31993253346664,25.189793901345283],[-107.32000758871405,25.189859919268493],[-107.3200827341944,25.189926013811895],[-107.3201577894864,25.189992031540363],[-107.32023293501142,25.1900580383364],[-107.32030808055877,25.19012404503497],[-107.32038322612843,25.190194604355483],[-107.32046333331495,25.19026054022729],[-107.32053838871992,25.190326557462374],[-107.32061353435807,25.190392563764654],[-107.32072241889377,25.190422210735804],[-107.32087496557565,25.190419822184705],[-107.32098403064592,25.190453999910023],[-107.32105908620547,25.190520016596494],[-107.32110166581167,25.190689568219188],[-107.32110680784086,25.190958347748648],[-107.3211493874551,25.191127899036406],[-107.3212245332748,25.191193904419467],[-107.32129967911685,25.191259997256765],[-107.32137473477009,25.191326013281145],[-107.32141118007128,25.191428448421544],[-107.32141370598345,25.19156288694667],[-107.32145502269304,25.191665262096407],[-107.32153016860359,25.191731266954275],[-107.32160531453646,25.191797271714655],[-107.3216803702804,25.191863374765692],[-107.3217555162579,25.19192937933115],[-107.32183553366785,25.191995323917602],[-107.32191076990277,25.192065782563724],[-107.32198582573737,25.192131885218554],[-107.32206097180563,25.19219788938768],[-107.32213611789622,25.192263893459323],[-107.32221117379768,25.192329908270708],[-107.32228631993289,25.192395912147465],[-107.32236146609041,25.19246200347779],[-107.32243652205877,25.192528017996985],[-107.3225166298957,25.192593950823824],[-107.32259177612164,25.19266441940377],[-107.32266692236993,25.19273051033758],[-107.32274206864052,25.192796513622984],[-107.3228171247218,25.19286252764871],[-107.322892271037,25.19292853073922],[-107.32296741737456,25.192994621282946],[-107.32304247352269,25.193060635016483],[-107.32311761990485,25.19312663781456],[-107.32319763774568,25.19319258055672],[-107.32327287438574,25.193263124945894],[-107.3233479306245,25.193329138283353],[-107.32342307709739,25.19339514068507],[-107.32349822359258,25.19346114298929],[-107.32357327989818,25.19352715603458],[-107.32364842643801,25.193593245694238],[-107.32372357300015,25.193659247706027],[-107.3237987195846,25.193725249620325],[-107.32384003668375,25.193827709584042],[-107.32384256262017,25.19396205830014],[-107.3238838797265,25.19406443057358],[-107.32395902635855,25.19413043215328],[-107.32403417301293,25.19419652118554],[-107.32410922947751,25.19426253340938],[-107.32415081726374,25.194633738699533],[-107.32416362738584,25.19531009774206],[-107.32421008663685,25.19568124159395],[-107.3242852333658,25.19575170714162],[-107.32436038011704,25.195817795110756],[-107.3244355268906,25.19588379543281],[-107.32447810706512,25.19605334015807],[-107.32448324916294,25.196322111780606],[-107.32452095788356,25.196491803792618],[-107.32459601449253,25.19655781449121],[-107.32467603280088,25.19662375417093],[-107.32475117966817,25.196689753830114],[-107.32482632655778,25.19675575339179],[-107.3249014734697,25.19682184040506],[-107.3249765301915,25.19688785061229],[-107.32505176736046,25.196958304040486],[-107.32509299445174,25.19705630745277],[-107.32509561061312,25.197190643365953],[-107.32505817244422,25.197294247683327],[-107.3249855514336,25.197362595326776],[-107.32491302065621,25.197430932109995],[-107.32484039968723,25.197499367263415],[-107.3247679591638,25.19757215816361],[-107.32469542844876,25.197640494888862],[-107.32450895965367,25.197674809029234],[-107.32420864324251,25.197679466652538],[-107.32402713647052,25.197718174218068],[-107.3239546059678,25.197786510701537],[-107.32387711382434,25.197855005626806],[-107.32380449315264,25.1979233529098],[-107.32373196271375,25.197991689333207],[-107.32365934208372,25.19806003657721],[-107.32362686578384,25.19816356997093],[-107.32362939171813,25.198297917064554],[-107.32366583734418,25.198400435141536],[-107.32374098391148,25.198466434835073],[-107.32381613050111,25.198532434431094],[-107.32389118690102,25.19859853231896],[-107.32393250401527,25.198700902444028],[-107.32393512016465,25.19883523831856],[-107.32397643728609,25.198937695852308],[-107.32405158394563,25.19900369501606],[-107.32412664041539,25.199069704922984],[-107.32420178711955,25.199135791440522],[-107.32427693384601,25.199201790311765],[-107.32435208059479,25.199267789085496],[-107.32442713715368,25.19933379860268],[-107.32450228394706,25.199399884730024],[-107.32454748028852,25.19970376228],[-107.32455776448711,25.20024576426597],[-107.32459799916278,25.200549799376404],[-107.3246731460069,25.200615797222532],[-107.32475325455198,25.200686276474862],[-107.32482840144219,25.20075227411944],[-107.3248736880543,25.201325086332407],[-107.32489434669078,25.202408984360922],[-107.32494459499705,25.202981722300983],[-107.32501974194408,25.20304771867734],[-107.32509488891343,25.203113714956164],[-107.32517003590507,25.203184263601546],[-107.32524518291905,25.20325025968312],[-107.32532032995532,25.20331634321446],[-107.3253954770139,25.203382339100916],[-107.32547549557499,25.20344827465062],[-107.32551320444345,25.203617961159953],[-107.3255182563497,25.203886648901577],[-107.325560926919,25.204056263992623],[-107.325636074049,25.204122259313312],[-107.32571113098864,25.204188352926817],[-107.32578627816324,25.204254348052448],[-107.32582759558686,25.204356714205762],[-107.32583021175584,25.204491134342955],[-107.3257927734783,25.204594737438946],[-107.32572015225692,25.204663085905885],[-107.32564762126904,25.204731423509738],[-107.32557509030192,25.204799761094122],[-107.325502469143,25.204868109502485],[-107.3254249765256,25.204936605702976],[-107.32535253583484,25.205009397273606],[-107.32527991473975,25.20507774562209],[-107.32524861099463,25.205243995234152],[-107.32525384332065,25.205517212697583],[-107.32521766810342,25.205688074859097],[-107.32514504704703,25.205756423214343],[-107.32507251622394,25.205824760706577],[-107.32499989520922,25.205893109022757],[-107.32496633618831,25.20619830350464],[-107.32497662040392,25.206740294070478],[-107.32502181683009,25.207044250667888],[-107.32509696380005,25.207110245028204],[-107.32517211079232,25.207176239290966],[-107.32524716759438,25.207242331846544],[-107.32528983811798,25.207411857455597],[-107.32529489001976,25.20768062993492],[-107.32533259886132,25.207850313913028],[-107.32540774592354,25.20791630761413],[-107.32548289300809,25.20798230121769],[-107.3255629115968,25.208048234396145],[-107.3255993575013,25.20815074685852],[-107.32560188345526,25.20828508889048],[-107.32564329106147,25.20838753004021],[-107.32571834800324,25.208453534055884],[-107.32579349517998,25.208519527129326],[-107.32586864237902,25.208585607650978],[-107.3259099598161,25.208687971766267],[-107.32591257598592,25.20882239011706],[-107.32594893172799,25.208924825296425],[-107.32602407897318,25.208990905487152],[-107.32609922624066,25.209056898034657],[-107.32617437353046,25.2091228904846],[-107.32625439233777,25.209188822460565],[-107.32632953967362,25.209254902256585],[-107.32640477724472,25.20932534837968],[-107.32647983441225,25.209391438823808],[-107.32655498181501,25.209457430779455],[-107.3266301292401,25.20952342263754],[-107.32670527668746,25.20958950194329],[-107.32678042415714,25.2096554936062],[-107.326821741743,25.209757856562955],[-107.32682426770917,25.209892284840944],[-107.32686071379524,25.209994708073193],[-107.32694073281944,25.21006072653025],[-107.327015880359,25.21012671776054],[-107.32709102792086,25.210192708893267],[-107.32712747404531,25.21029521935348],[-107.32713000001453,25.21042955970693],[-107.32717131765745,25.21053200959805],[-107.32724646526542,25.21059800039996],[-107.3273216128957,25.210663991104294],[-107.3273967605483,25.210730069255767],[-107.32747190822317,25.21079605976492],[-107.327546965707,25.210862061023295],[-107.32762707516142,25.21092806757132],[-107.32770222290463,25.21099405778346],[-107.32773857890365,25.211096578314475],[-107.32774119509237,25.211230907172087],[-107.32778251283499,25.211333268703168],[-107.32785766062433,25.211399346128896],[-107.32793280843596,25.211465335912617],[-107.3280079562699,25.211531325598763],[-107.32804927405604,25.21163377434083],[-107.32805180003444,25.211768113663407],[-107.32808824629717,25.211870622764877],[-107.32816339417722,25.211936612120166],[-107.32823854207957,25.21200268892198],[-107.3283185615391,25.212068617569432],[-107.32835753382167,25.212305465296716],[-107.32836529219345,25.212713012379385],[-107.32840913601986,25.212945334240416],[-107.32848437420877,25.213015864226016],[-107.32855952220635,25.21308185268414],[-107.32863458001249,25.21314785189295],[-107.3287097280546,25.213213927699616],[-107.32878487611902,25.213279915865005],[-107.32886002420574,25.2133459039328],[-107.32893517231473,25.213411979446526],[-107.3289816324413,25.213783091883574],[-107.32899453302163,25.214459475914115],[-107.3290361216103,25.2148351122126],[-107.32911614132178,25.21490112625943],[-107.32919128950672,25.214967113258286],[-107.329266437714,25.215033100159545],[-107.32934158594355,25.215099174506154],[-107.32941673419539,25.215165161212184],[-107.32949188246951,25.215231147820603],[-107.32956703076593,25.215297221874255],[-107.32961222801137,25.21560116233774],[-107.32962251241564,25.21614312762426],[-107.32966274789604,25.21644713860173],[-107.32973789624313,25.216513211921175],[-107.32981800639038,25.21657912609413],[-107.32989306456935,25.216645122521825],[-107.32996830319895,25.216715649352068],[-107.33004345163664,25.2167816347321],[-107.33011860009664,25.216847707556752],[-107.33019374857892,25.216913692741528],[-107.33026889708349,25.21697976537084],[-107.33034404561033,25.217045750360356],[-107.3304191039451,25.21711174610306],[-107.3304992143077,25.217177746893924],[-107.3305381869257,25.217414587640285],[-107.33054594536424,25.217822124943254],[-107.33058987978241,25.2180588935236],[-107.33066502840443,25.218124965254944],[-107.33073891404612,25.218123781703877],[-107.3308114464919,25.218055441322033],[-107.33088397895841,25.217987100920656],[-107.33095660166025,25.21791874964829],[-107.33102904395373,25.21784586789212],[-107.33110166669711,25.21777751658096],[-107.33117916105121,25.217709104518338],[-107.33125169362296,25.217640764017847],[-107.33132431643016,25.21757241264624],[-107.33139684904343,25.217504072106635],[-107.3314694718922,25.21743572069585],[-107.33154200454702,25.21736738011712],[-107.33161462743738,25.217299028667163],[-107.3316870699189,25.21722614673712],[-107.33175969285082,25.21715779524837],[-107.33183718740608,25.217089382993073],[-107.33201878998983,25.217055194860095],[-107.33231911566092,25.217050408364244],[-107.33250549999015,25.217011617516683],[-107.3325781231565,25.216943265764012],[-107.33265065612848,25.21687492484403],[-107.33272318912123,25.216806583904525],[-107.33283577768837,25.21676896628103],[-107.33298346004332,25.216766608094844],[-107.33309253032894,25.216800759657026],[-107.33317255132098,25.216866681459177],[-107.33324770070857,25.216932751497264],[-107.3333228501184,25.216998733896528],[-107.33343183033455,25.217032895839484],[-107.33358447488821,25.217030465110195],[-107.33369336500124,25.21706008548734],[-107.33376851454314,25.217126154975457],[-107.3338436641073,25.21719213682497],[-107.33392386576757,25.217262588160715],[-107.33403275602632,25.21729220807535],[-107.33418043907828,25.21728984813807],[-107.33429438152838,25.217323937337547],[-107.33436953124834,25.21738991863076],[-107.33444468099057,25.217455899826373],[-107.33451983075506,25.21752196846494],[-107.33478145675946,25.217553696357154],[-107.3352294693646,25.217546628627126],[-107.33549100588462,25.217573813623616],[-107.33556615595903,25.217639793747107],[-107.33564130605569,25.21770586131315],[-107.33571645617462,25.217771841241355],[-107.33583039931455,25.21780592852707],[-107.33597808341291,25.217803566111584],[-107.33609202667031,25.217837653098293],[-107.33616717692271,25.217903632567793],[-107.33624232719737,25.217969611939676],[-107.33631747749428,25.218035678753782],[-107.33643133068756,25.21806522403552],[-107.33657901513561,25.21806286074275],[-107.33669295866282,25.218096946942858],[-107.33676810909314,25.218162925760627],[-107.33684325954574,25.218228992020393],[-107.33691831980391,25.21829498149862],[-107.33699347030095,25.218361047563082],[-107.33706871103699,25.218431479649194],[-107.33714386157858,25.21849754551605],[-107.33721901214241,25.218563523745768],[-107.3373328657401,25.218593067796604],[-107.33748055071267,25.218590790649586],[-107.33759449464456,25.218624788055923],[-107.3376696453418,25.218690853368408],[-107.33774479606129,25.218756831044],[-107.33781994680302,25.21882280862195],[-107.33793389088721,25.21885689307747],[-107.33808157620943,25.218854527511173],[-107.33819543019395,25.218884070495932],[-107.33827058106905,25.21895013515638],[-107.33834573196641,25.21901611218018],[-107.33842088288601,25.219086641128385],[-107.33849603382784,25.219152617954723],[-107.33857118479193,25.21921868222224],[-107.33864633577825,25.21928465885328],[-107.33872644873894,25.219350651001836],[-107.33880150955386,25.219416638290692],[-107.33887666060835,25.21948270216317],[-107.33895181168508,25.219548678399324],[-107.33902696278403,25.219614654537853],[-107.3391022041227,25.219685171723185],[-107.33917735526616,25.21975123520263],[-107.33925250643186,25.219817211045935],[-107.33932765761979,25.219883274329984],[-107.33940768057786,25.2199491888733],[-107.33948283181172,25.220015164419404],[-107.33955798306782,25.220081227406116],[-107.33963313434614,25.220147202756888],[-107.33974707924393,25.220181284548556],[-107.33989476562061,25.220178916032786],[-107.34000365844084,25.220208528396807],[-107.34008386204746,25.22027897241742],[-107.34015901348138,25.220344947211778],[-107.34023416493753,25.220411009446437],[-107.34030931641593,25.220476984045483],[-107.34038437769864,25.220543056943647],[-107.34045952922146,25.220609031347433],[-107.34053468076651,25.22067509319133],[-107.34060983233378,25.22074106739977],[-107.3406849839233,25.220807129048257],[-107.34076518774503,25.220877484586072],[-107.34084024916243,25.220943556891978],[-107.34094923260604,25.220973157048405],[-107.34110188168012,25.220970714573767],[-107.34121086523592,25.221004866397628],[-107.34128601700321,25.2210708398543],[-107.34136116879274,25.221136900750697],[-107.34144119239137,25.221202812802307],[-107.34151634422678,25.22126887349903],[-107.34159149608442,25.22133484656078],[-107.34166664796427,25.22140090706207],[-107.34174189008475,25.221471333463555],[-107.34185574570988,25.221500871202938],[-107.3420034333123,25.221498586916944],[-107.34211737927313,25.22153257789245],[-107.34219253130851,25.221598637837058],[-107.34226768336612,25.221664610147002],[-107.34234283544593,25.221730669896175],[-107.34241798754798,25.221796642010762],[-107.34249313967224,25.221862701564508],[-107.34256829181872,25.221928673483745],[-107.34264335376872,25.221994743703043],[-107.34271859617834,25.222065168936755],[-107.34279374839149,25.222131228097474],[-107.34287386265999,25.22219712747686],[-107.34294901491904,25.222263186437818],[-107.34302416720031,25.222329157764523],[-107.34309931950379,25.222395216530042],[-107.34317438161061,25.222461198522893],[-107.3432495339585,25.222527257093038],[-107.34332468632861,25.222593228029098],[-107.34339992893992,25.22266373989342],[-107.34344251229815,25.222828783650055],[-107.34344774499944,25.22310205445695],[-107.34348536632052,25.22326725761143],[-107.343565571026,25.223337609265723],[-107.34364072348954,25.223403667070873],[-107.34371587597529,25.223469637242278],[-107.34375223426869,25.223567676845164],[-107.3437548506225,25.223706456435256],[-107.34379617097261,25.223804423695743],[-107.3438713235043,25.223870393538046],[-107.34394656627738,25.223940904281257],[-107.34402171885355,25.224006961461708],[-107.3440967812327,25.224072941871363],[-107.34417193385323,25.224138998856425],[-107.34425078548621,25.224137733147955],[-107.34432332179257,25.22406938768105],[-107.34439585811964,25.22400095465896],[-107.34446848468674,25.22393259829007],[-107.34454093083585,25.22385979931124],[-107.34461355744439,25.223791442903526],[-107.34464973542731,25.223625058435157],[-107.34464450270129,25.223351876901976],[-107.34467571862021,25.223181100207203],[-107.3447482550478,25.223112754668563],[-107.34482079149608,25.223044409110376],[-107.34489829003769,25.222975991288024],[-107.34497091674827,25.22290763482613],[-107.34504345326006,25.222839289207585],[-107.34511598979253,25.22277094356948],[-107.3451886165653,25.22270249951313],[-107.34526115313918,25.22263415383592],[-107.34533368973374,25.22256134381954],[-107.34540622634897,25.222492998103586],[-107.3454787629849,25.222424652368083],[-107.345556261727,25.222356234353082],[-107.34562888862548,25.222287877713608],[-107.34570142532492,25.222219444382116],[-107.34577396204503,25.222151098566737],[-107.34584658900567,25.22208274186853],[-107.34591912576718,25.222014396014032],[-107.34647479052559,25.22196972171937],[-107.34751872901103,25.22195317015483],[-107.34807439726272,25.221908488861683],[-107.34814693465934,25.22184014225874],[-107.34814567157017,25.221772980004047],[-107.34807051777568,25.22170692536888],[-107.34796162150057,25.221677321979236],[-107.34780896830856,25.221679685972532],[-107.34769998192489,25.221645628875887],[-107.347624828262,25.221579573788212],[-107.34758341706949,25.221477242391757],[-107.3475808006763,25.22134284074977],[-107.34753947971139,25.22124041081293],[-107.34746432609592,25.221174442924745],[-107.34738917250263,25.2211084749389],[-107.34731401893154,25.221042419319996],[-107.34723886538265,25.22097645113878],[-107.34716371185596,25.220910395324424],[-107.34708855835146,25.220844426947856],[-107.34701340486916,25.220778370938053],[-107.34693825140906,25.220707850514017],[-107.34685813586019,25.2206419541236],[-107.3466753498037,25.22061345543874],[-107.34637500715598,25.220618281573927],[-107.34619213122666,25.220585328615538],[-107.34611210613267,25.220519420615656],[-107.3460369529388,25.220453363592394],[-107.34596179976714,25.22038739400742],[-107.34588664661767,25.220321336788718],[-107.34581149349043,25.220255367008388],[-107.34577008259306,25.220152946134576],[-107.34576755643832,25.220018619659758],[-107.34573110763698,25.219916126423726],[-107.34565595455568,25.21985006877587],[-107.3455808014966,25.21978409856658],[-107.34550564845969,25.219718040723293],[-107.34542562358168,25.219652131660503],[-107.34535047059063,25.219586161153966],[-107.34527522740217,25.219515649514914],[-107.34520007445556,25.2194495912743],[-107.34516109958683,25.21921277026961],[-107.34515334070166,25.218809635214786],[-107.34518320338897,25.218571704158798],[-107.34525583018093,25.218503347940405],[-107.34532836677397,25.218435002564206],[-107.3454009033877,25.218366657168485],[-107.34543834455835,25.21826305793158],[-107.34543572818721,25.21812865384256],[-107.345473169363,25.218025054570493],[-107.34554579623774,25.21795661075839],[-107.34561833291349,25.217888265325314],[-107.3456908696099,25.217819919872714],[-107.34572334873441,25.217716392752795],[-107.34572082258013,25.217581977734124],[-107.34575817357806,25.217478389260492],[-107.3458308005342,25.217410032929976],[-107.34594339491217,25.217376869101344],[-107.34609108488893,25.217374494594463],[-107.34620367938207,25.21733686619385],[-107.34627621624541,25.217268520583772],[-107.34630869544466,25.217164993438892],[-107.34630616928456,25.217030578511157],[-107.34634361058846,25.216926979137163],[-107.3464161474917,25.216858545974176],[-107.3464886844156,25.21679020032848],[-107.3465612213602,25.216721854663263],[-107.34659739962015,25.216551004003588],[-107.34659225707416,25.216282272305516],[-107.34662347323213,25.21611158122146],[-107.34669601021515,25.216043235562715],[-107.34676854721886,25.215974802347585],[-107.34684604635387,25.215906384458044],[-107.34691858340035,25.21583803873911],[-107.34699112046752,25.215765228620494],[-107.34706365755535,25.215696882862897],[-107.34713619466386,25.215628537085802],[-107.34720882201337,25.215560092890147],[-107.34728135916328,25.215491747074033],[-107.34735389633386,25.21542340123841],[-107.3474264335251,25.21535505538329],[-107.34750393286049,25.21528663730154],[-107.34757656031496,25.215218280543368],[-107.34783675623504,25.21517828710914],[-107.34827991994017,25.215171236480536],[-107.34854156011204,25.215202935332123],[-107.3486167140456,25.21526890514517],[-107.34869186800137,25.215334962396987],[-107.34876693175843,25.215400942877967],[-107.34888079052838,25.215430563875614],[-107.34902848220993,25.215428186873172],[-107.34914243131786,25.215462173526955],[-107.34921758542883,25.215528230224393],[-107.34929273956199,25.215594199287974],[-107.34936789371733,25.215660255790006],[-107.34944178479925,25.215659061518178],[-107.34951919452712,25.215590653499433],[-107.34959182255662,25.21552229602725],[-107.34966436038562,25.215453861863367],[-107.34973689823529,25.215385515216052],[-107.34980943610563,25.215317168549245],[-107.34988206421791,25.21524881099894],[-107.34995460212961,25.21518046429312],[-107.35006719833198,25.215142833533893],[-107.35021489070178,25.215140455245468],[-107.35032875011925,25.21517453917482],[-107.35040390458038,25.215240507433364],[-107.35047905906367,25.215306563130074],[-107.35055421356917,25.21537253119328],[-107.35062810499537,25.215371336278128],[-107.35070064311958,25.21530298930778],[-107.35077318126444,25.215234642317938],[-107.35085068161868,25.215166222966538],[-107.35092312958466,25.21509342247891],[-107.35099575801455,25.215024977028843],[-107.35106829624348,25.2149566299597],[-107.35114083449308,25.21488828287107],[-107.35121337276331,25.214819935762947],[-107.35128600127598,25.214751577770503],[-107.35135853958758,25.214683230623372],[-107.35143107791983,25.21461488345676],[-107.35154367477497,25.21457725170882],[-107.35169136800098,25.214574871935824],[-107.35180396497118,25.214541704308456],[-107.35187659365226,25.214473346135414],[-107.35194904191003,25.21440054535991],[-107.35202158041044,25.214332198013413],[-107.35209547226229,25.214331002493658],[-107.35217053702264,25.21439698047262],[-107.3522119489612,25.214499399271563],[-107.352214565402,25.21463371365741],[-107.3522558871256,25.21473614318105],[-107.35233104215533,25.214802109959223],[-107.35240619720726,25.214868164175044],[-107.35248135228136,25.214934130757896],[-107.35255650737761,25.2150001847783],[-107.35263166249604,25.21506615116581],[-107.35270690785892,25.215136658415652],[-107.3527819727994,25.215202723006726],[-107.35285712798435,25.215268689099076],[-107.35293724542079,25.215334582663004],[-107.35301240065152,25.215400636090674],[-107.35308755590441,25.215466601885705],[-107.35312400575894,25.215569091962553],[-107.35312653198667,25.215703503830124],[-107.35316794408061,25.215805833791933],[-107.35324309937938,25.21587188679051],[-107.35331825470033,25.215937852156635],[-107.35339331982091,25.2160039158265],[-107.35346847518615,25.216069880997363],[-107.35354363057355,25.216135933605145],[-107.35362374822583,25.21620182610546],[-107.35369890365904,25.216267790979],[-107.35377414933704,25.216338296679137],[-107.3538492145919,25.216404359756684],[-107.35440624999849,25.216426812159373],[-107.35545004054818,25.21641014829513],[-107.35600707945264,25.216437144881677],[-107.35608223558846,25.21650310755061],[-107.35612355793909,25.216605533373222],[-107.35612617442003,25.21673993234839],[-107.35616253448555,25.216837878878703],[-107.35623778089072,25.216908382090416],[-107.35631293709454,25.216974431863832],[-107.35639305561713,25.217040321401623],[-107.35646812164312,25.217106294311158],[-107.35654327791481,25.217172343787166],[-107.35687881981102,25.21720282222525],[-107.35747456791144,25.21719328505817],[-107.3578086674475,25.217152157722452],[-107.35788120761524,25.217083808159572],[-107.35791116201887,25.216845873653316],[-107.35790322229707,25.216438226245323],[-107.35793804880585,25.21620022959613],[-107.35801058901035,25.21613188006294],[-107.35808321945967,25.216063519640198],[-107.35815575970547,25.21599517006802],[-107.35819311252665,25.215891494872302],[-107.35819058624871,25.215757173326278],[-107.35822315719113,25.215658013198748],[-107.35829560725244,25.215585210290897],[-107.35837310989375,25.215516788026257],[-107.35844565022197,25.215448438397498],[-107.35851819057082,25.215380088749253],[-107.35859073094026,25.21531165154843],[-107.3588510283313,25.2152717125442],[-107.35929412096532,25.215264632328985],[-107.35955577244424,25.21529630577381],[-107.35963092962552,25.21536226587674],[-107.35971095896535,25.21542825157551],[-107.35978611619235,25.21549421147882],[-107.35986001029424,25.21549301089807],[-107.35993255104512,25.21542466076303],[-107.36000509181662,25.215356310608506],[-107.36007763260872,25.215287960434527],[-107.3603379315163,25.215247930926687],[-107.36078589888855,25.215240783432606],[-107.36104132635643,25.21520536610996],[-107.36111882983153,25.215136855298848],[-107.3611913709401,25.215068504761344],[-107.36126391206932,25.215000154204375],[-107.36133645321912,25.21492733948188],[-107.36140899438955,25.214858988886323],[-107.36148153558058,25.2147906382713],[-107.36155407679222,25.214722200104543],[-107.36162661802446,25.214653849450592],[-107.36169915927732,25.214585498777176],[-107.36173660284253,25.214481812788772],[-107.36173398630405,25.214347503443896],[-107.36177142987435,25.214243817420442],[-107.36184397116835,25.214175466729472],[-107.36202550494463,25.21414124980263],[-107.36232586603379,25.214136392210545],[-107.36251227234249,25.21409756104602],[-107.36258481384692,25.21402921011331],[-107.36265735537197,25.21396085916113],[-107.3627298969176,25.213892508189492],[-107.36280243848384,25.213824157198403],[-107.36287498007069,25.213755806187844],[-107.36294752167814,25.213687367625777],[-107.3630200633062,25.2136145524419],[-107.36309747715586,25.213546139432456],[-107.36317001882651,25.21347778834276],[-107.36324265074374,25.21340933882869],[-107.36331519245562,25.213340987700064],[-107.36338773418807,25.213272636551984],[-107.36346027594114,25.21320428538445],[-107.3635328177148,25.213135934197453],[-107.36360535950907,25.213067582991002],[-107.36367781109777,25.21299469097494],[-107.36375531537297,25.212926266900944],[-107.3637878870253,25.212827194442507],[-107.36378518023963,25.21268834473849],[-107.36382271433685,25.21258919941862],[-107.36389525621344,25.212520760623743],[-107.36400289612546,25.21248319250173],[-107.36415546878592,25.212480824274802],[-107.36426446220295,25.212514869045133],[-107.3643396207701,25.212580913884093],[-107.36441477935934,25.212646871093472],[-107.36449490042482,25.212712842881647],[-107.36467769925603,25.212745782833444],[-107.36497806346358,25.212740920249946],[-107.36516447170744,25.212702086205343],[-107.36523701396494,25.212633734475318],[-107.36530955624303,25.212565382725842],[-107.36538209854172,25.212497030956925],[-107.3654946113268,25.21245939970749],[-107.36564231262827,25.21245700410687],[-107.36575004350308,25.21242388792035],[-107.36582745817985,25.21235100988024],[-107.36590000062553,25.212282657951135],[-107.3659725430918,25.212214218471175],[-107.36604508557863,25.212145866503192],[-107.36611762808609,25.212077514515766],[-107.3661901706141,25.21200916250889],[-107.3662627131627,25.211940810482574],[-107.36659682419648,25.21189957866458],[-107.3671925949683,25.211890093176528],[-107.36752670721727,25.211853323060538],[-107.36759934037262,25.211784959714382],[-107.3676717930935,25.211712154020027],[-107.36774433606249,25.211643713979857],[-107.36782175134313,25.211575299356447],[-107.36789429435466,25.211506946806722],[-107.36796683738676,25.211438594237556],[-107.36803947066714,25.211370230773305],[-107.36815198462169,25.21133259778172],[-107.36829968745835,25.211330199570476],[-107.36840741945286,25.2112970816958],[-107.36848483493424,25.21122866685269],[-107.36851605377134,25.2110578949383],[-107.36851073032776,25.21078465244166],[-107.3684730150865,25.21061956351483],[-107.36839298300205,25.210553583461255],[-107.3683177330154,25.210483087997456],[-107.36824257327865,25.21041713317394],[-107.36820621149317,25.210319104563432],[-107.36820359488846,25.21018479701125],[-107.36816227058313,25.210082377139397],[-107.36808711089206,25.2100164219869],[-107.3680119512231,25.209950379205427],[-107.3679367915762,25.209884423857567],[-107.36786154172378,25.209813927654487],[-107.3677863821211,25.20974788457762],[-107.36770635025154,25.209681990989832],[-107.36763119069447,25.209615947713278],[-107.36759338535538,25.20944631645474],[-107.36758824238606,25.209177601529486],[-107.36761937088617,25.209006839358494],[-107.3676919138403,25.20893848707883],[-107.36776941933267,25.208870061862374],[-107.36784196232935,25.20880170954218],[-107.36786921107223,25.208429391724582],[-107.3678561280662,25.20775303445098],[-107.36788824910292,25.20737618946791],[-107.36796079213332,25.20730783722421],[-107.36803333518428,25.20723948496109],[-107.36810587825583,25.207171045146577],[-107.3681393527398,25.206865900600988],[-107.36812888632386,25.20632393762481],[-107.36815739828556,25.206018865334183],[-107.36822994139229,25.205950425572816],[-107.36830248451962,25.20588207332431],[-107.36837999019703,25.20581364817146],[-107.36845253336689,25.205745295882465],[-107.36852507655735,25.20567694357407],[-107.3686327184189,25.20563937404422],[-107.3687852938426,25.20563691640405],[-107.36889302604168,25.20560379995488],[-107.36896556935704,25.205535447507188],[-107.36900039737398,25.205297451609358],[-107.36899245730751,25.20488980814065],[-107.36902232278602,25.204651884787296],[-107.36909982868157,25.20458345947895],[-107.3691723720556,25.204515107040823],[-107.36924491545018,25.20444675458332],[-107.36927216434253,25.204074434173602],[-107.36925908126472,25.20339807187873],[-107.3692911122495,25.203021235170283],[-107.36936365567779,25.20295288278976],[-107.36943619912662,25.202884530389856],[-107.36950874259604,25.202816177970565],[-107.36954618730533,25.202712490776904],[-107.36954357068693,25.20257809335437],[-107.36957614307673,25.20247901982354],[-107.36964859635756,25.20240621409528],[-107.36972601221456,25.20233771210771],[-107.36979855576615,25.202269359632556],[-107.36983112818841,25.20217028607884],[-107.36982842133875,25.20203143529656],[-107.36986595632318,25.20193228883423],[-107.36993849991444,25.20186393634324],[-107.37001104352628,25.20179549630016],[-107.37008349693026,25.201722690475936],[-107.37015604058323,25.201654337927206],[-107.37022858425674,25.2015859853591],[-107.37030112795081,25.20151754523892],[-107.37037854400525,25.20144913062146],[-107.37045108774184,25.20138077799357],[-107.370523631499,25.201312425346323],[-107.37059617527672,25.201244072679692],[-107.37066871907501,25.201175632461034],[-107.37074117266522,25.201102826464652],[-107.37081371650461,25.201034473740293],[-107.370926321908,25.201001295162154],[-107.37107402634636,25.20099889934174],[-107.37118789506748,25.20102841667824],[-107.37126296544065,25.20109447183284],[-107.37133821629354,25.201164969294723],[-107.37141337693967,25.20123092584465],[-107.37160105307922,25.201259249811276],[-107.37189646281993,25.201254543590686],[-107.37208287610605,25.201220170891098],[-107.37215542032571,25.20115181769953],[-107.37222787433679,25.201079011223726],[-107.37230041859755,25.201010570461648],[-107.37241302465496,25.200977390688486],[-107.37256072995122,25.20097508060127],[-107.3726732458938,25.20093744737053],[-107.37274579028076,25.200869006467727],[-107.37278323546366,25.200765406775375],[-107.37278061881216,25.200631010308282],[-107.37281310138457,25.200531947686155],[-107.37288555558175,25.20045905350616],[-107.37295810002885,25.200390700100698],[-107.37303064449652,25.20032234667587],[-107.37302938128423,25.200255186754934],[-107.37295422016362,25.20018914362278],[-107.37287905906508,25.200123187925108],[-107.37280389798862,25.200057144597576],[-107.37276618211463,25.199887501339706],[-107.37276094881197,25.19961879515966],[-107.37279216817076,25.19944802054],[-107.37286462236202,25.19937967812157],[-107.3729371668032,25.1993113248085],[-107.3730096210355,25.19923843066828],[-107.37300835782331,25.199171270524573],[-107.37293319670889,25.19910531438587],[-107.37285803561652,25.19903927061709],[-107.37278287454622,25.198973314283112],[-107.37278161133513,25.198906066493045],[-107.37285415575279,25.19883771324574],[-107.37292670019102,25.198769359979078],[-107.37299924464979,25.19870100669306],[-107.37299780097877,25.198629316497833],[-107.37292273009685,25.198563349214684],[-107.37281382321953,25.19853367196724],[-107.37266611777729,25.198536068530462],[-107.37255215816931,25.198502098165843],[-107.37247708741806,25.198436042898134],[-107.37243567219332,25.1983337192116],[-107.37243305554536,25.19819932158239],[-107.37239669316439,25.19810129061957],[-107.37232153222953,25.198035333430575],[-107.37224140871223,25.19796489732648],[-107.37216624782296,25.19789893993575],[-107.37209108695575,25.197832894914395],[-107.3720159261106,25.19776693732841],[-107.37194085551661,25.19770096877068],[-107.37186569471558,25.19763492345638],[-107.37179053393663,25.197568965577602],[-107.37171537317974,25.19750292006796],[-107.37164021244492,25.197436961993915],[-107.37156008914087,25.197366524945792],[-107.37148492845165,25.19730056667002],[-107.3714097677845,25.197234520763235],[-107.37133469736827,25.197168551418674],[-107.37125953674523,25.197102505316614],[-107.37118437614429,25.197036546650413],[-107.37110921556538,25.1969705878866],[-107.37103405500856,25.19690454149156],[-107.37095898470254,25.19683857165933],[-107.37091756972342,25.19673615859224],[-107.37091495309099,25.196601759507747],[-107.37087362834768,25.196499422960894],[-107.37079846786006,25.196433376132855],[-107.3707233073945,25.196367416741005],[-107.37064814695103,25.196301457251547],[-107.37061169459503,25.19619897091462],[-107.37060907796571,25.196064571450645],[-107.37064156026254,25.19596104360904],[-107.3707141040737,25.195892603791048],[-107.37078664790543,25.19582425148772],[-107.37085919175772,25.19575589916504],[-107.37093660798097,25.195687484896442],[-107.37100915187575,25.195619132533434],[-107.37108160556234,25.195546239258245],[-107.37115414949824,25.195477886856946],[-107.37118013539074,25.195038398493057],[-107.37116443558037,25.1942277107414],[-107.37119529382923,25.193788159018354],[-107.37126783779735,25.193719806717645],[-107.37134029155717,25.193646913483754],[-107.37141283556639,25.193578561144783],[-107.37148537959617,25.19351020878648],[-107.37156279600885,25.19344170696425],[-107.37163534008111,25.193373354565644],[-107.37170788417396,25.193305002147717],[-107.37178042828735,25.19323664971047],[-107.37185297242131,25.193168297253894],[-107.37192551657584,25.193099857243702],[-107.37199797052183,25.193027051372454],[-107.37207051471742,25.192958698858302],[-107.37214305893359,25.192890346324827],[-107.37222047554516,25.192821844312462],[-107.37229301980383,25.19275349173869],[-107.37236556408305,25.192685139145603],[-107.37243810838282,25.19261678653319],[-107.37251065270317,25.192548433901464],[-107.37258319704405,25.19247999371618],[-107.37262055197387,25.192376403559077],[-107.37261793532402,25.192242003641987],[-107.37265041787579,25.19213847538052],[-107.37272296225629,25.192070035180073],[-107.37279550665733,25.19200168249461],[-107.37286805107892,25.191933329789833],[-107.37290414283862,25.191762490382885],[-107.37289881930374,25.191489324460395],[-107.37285623102872,25.191324202009753],[-107.37278106995895,25.191258241973188],[-107.37270581868192,25.19118774091669],[-107.37263074788562,25.191121682275597],[-107.37259429524727,25.191023746851332],[-107.37259167859769,25.19088488211238],[-107.37255035358368,25.19078700846238],[-107.37247519260372,25.190720960365116],[-107.37240003164581,25.190654999704947],[-107.37232487070996,25.190584487137592],[-107.37232351727195,25.19051733595148],[-107.37239606155981,25.190448983525748],[-107.37246860586822,25.190380631080718],[-107.37254115019721,25.190312191081574],[-107.37257200861202,25.189872636788927],[-107.3725563087163,25.189061941070126],[-107.37250830674225,25.188619194617818],[-107.37243323600386,25.18855322210751],[-107.37235807505826,25.18848717283599],[-107.37228291413473,25.188421211002183],[-107.37224158917056,25.18831878419952],[-107.3722389725246,25.188184469990972],[-107.37227632740418,25.188080791591993],[-107.37234887167868,25.18801243937642],[-107.37242141597372,25.187944087141542],[-107.37249396028933,25.18787564735195],[-107.37253005199629,25.187704893897262],[-107.37252481869847,25.187436090172906],[-107.37255594779917,25.187265409279835],[-107.37262849215288,25.18719696949836],[-107.37270103652718,25.187128617233153],[-107.372773580922,25.18706026494867],[-107.3727722274816,25.186993113178215],[-107.37269715666584,25.186927052584828],[-107.37262190541345,25.186856636854],[-107.37254674441247,25.186790586934492],[-107.37250379527897,25.186352217895596],[-107.37248809538742,25.185541513467278],[-107.37251408141533,25.18510201537606],[-107.3725865355279,25.185033674187757],[-107.37265898966096,25.184960868638345],[-107.37273153404388,25.184892516541296],[-107.37280904106278,25.184824004217056],[-107.37288158548822,25.18475565207979],[-107.37295403970478,25.184687310794],[-107.37302658417128,25.18461895861821],[-107.37309912865837,25.18455051888707],[-107.373171673166,25.18448216667274],[-107.37328418937706,25.18444453826657],[-107.37343189517584,25.1844421488277],[-107.37354576494573,25.18447613664196],[-107.37362092623995,25.184542186794182],[-107.37369599732656,25.184608160184165],[-107.37377115866488,25.18467421014123],[-107.37410654272067,25.184704617357347],[-107.37470215051617,25.18469509047295],[-107.37503618233865,25.1846538790227],[-107.37510872739493,25.184585526139593],[-107.37518127247176,25.184517085701838],[-107.37525372733892,25.184448743652524],[-107.3753262724568,25.184380390711652],[-107.37539872736495,25.184307496785046],[-107.375476235191,25.184239071035957],[-107.37554869014157,25.184170728908427],[-107.37562123534299,25.184102375889232],[-107.37569378056494,25.184033935315437],[-107.37576632580743,25.183965582257713],[-107.37583887107047,25.18389722918073],[-107.37591141635406,25.183828876084487],[-107.37598387142768,25.183760533841593],[-107.37602131708398,25.183656844199078],[-107.37601870039938,25.183522442621207],[-107.37597728460196,25.1834201147458],[-107.37590212261632,25.18335406612409],[-107.37582705088317,25.183288094067855],[-107.37575188894164,25.183222132786504],[-107.37567672702212,25.183156083872028],[-107.37560156512465,25.18308565807972],[-107.37552640324924,25.183019608967875],[-107.37545124139588,25.18295364729408],[-107.37537120712969,25.182887747391394],[-107.37529604532185,25.182821697982476],[-107.37518704720513,25.18278764930856],[-107.37503446796568,25.18279010181415],[-107.37492556019036,25.182760506312928],[-107.37485048874338,25.18269444558036],[-107.37477532708832,25.182628483157703],[-107.3746952930333,25.182562582472933],[-107.37462004119377,25.182492078845836],[-107.37454487960633,25.18242611612404],[-107.3745019301377,25.181987657357475],[-107.37448623012364,25.181177036422188],[-107.37451221635432,25.180737536144257],[-107.37458467103222,25.180669194624176],[-107.37465712573062,25.180596301184206],[-107.3747346333323,25.180527876085502],[-107.37480708807313,25.180459446969966],[-107.37487963306452,25.180391094501026],[-107.3749521780765,25.18032274201283],[-107.375024723109,25.180254389505393],[-107.37509726816204,25.180186036978707],[-107.37516972300543,25.180117607767173],[-107.37542994704528,25.180077589754486],[-107.37587785062328,25.180070456955246],[-107.37613807538234,25.180034901907526],[-107.37621053052005,25.179962008008577],[-107.37628307590886,25.179893655101143],[-107.3763556213182,25.179825302174468],[-107.37642816674807,25.179756949228562],[-107.3765006219678,25.179688519598947],[-107.37657316743874,25.1796201666146],[-107.37664571293018,25.17955181361101],[-107.37672313090268,25.179483398728276],[-107.3767956764366,25.179414958148428],[-107.37686813176023,25.17934215161483],[-107.3769406773352,25.179273798533035],[-107.37701313269983,25.17920536876781],[-107.37708567831582,25.179137015647587],[-107.37711915397392,25.17883185784881],[-107.37710868719087,25.178289869048427],[-107.37713720015259,25.17798478335195],[-107.37720974580371,25.17791643028758],[-107.37728220124441,25.177848000539303],[-107.37735474693656,25.17777964743652],[-107.37738957609456,25.177541641284574],[-107.37738163576797,25.177134065316952],[-107.37741646492962,25.176900523188472],[-107.37748892042877,25.176827629086798],[-107.3775965660587,25.176794613478823],[-107.37774914682367,25.176792161212457],[-107.37785805579898,25.176821756840326],[-107.37793330858939,25.176892172823138],[-107.3780083809395,25.176958233630348],[-107.3780885062605,25.17702412319043],[-107.37834503377982,25.177051337936355],[-107.37879294245212,25.177044199500013],[-107.37905317017064,25.177008641253384],[-107.37912571636392,25.176940200078636],[-107.37916307224756,25.176836608048625],[-107.37916045553091,25.176702205437124],[-107.37911903922586,25.17659987677346],[-107.37904396655057,25.176533816768814],[-107.37896880366569,25.17646785507529],[-107.37889364080286,25.176401893284236],[-107.37885231477242,25.17629946587905],[-107.37884969805891,25.176165150422914],[-107.37888705390236,25.17606147071165],[-107.37895960004865,25.175993117205813],[-107.37914601847393,25.175958750021014],[-107.37944134668257,25.17595397704509],[-107.37962767522626,25.175915155734838],[-107.37970022158208,25.175846801988413],[-107.37977267772659,25.175778371559513],[-107.37984522412341,25.17571001777471],[-107.37991777054077,25.175641663970687],[-107.37999022674674,25.175568769146548],[-107.38006764572914,25.175500353383658],[-107.38014019220941,25.175431999520768],[-107.38021264847822,25.17536365651163],[-107.38028519499949,25.17529521507435],[-107.38035774154127,25.17522686115388],[-107.38043019787153,25.175158518087255],[-107.3805427172693,25.175120886947152],[-107.38069042725132,25.17511849387943],[-107.3808030369954,25.175085316003344],[-107.38087549345143,25.175016885260806],[-107.38094794992793,25.17494407770558],[-107.38102049665714,25.174875723587608],[-107.38113310654614,25.174842545526225],[-107.38128072663572,25.174840162768568],[-107.3813882836249,25.174802603893635],[-107.38146570302925,25.174734100138362],[-107.38153824990488,25.17466574586094],[-107.38161079680101,25.174597391564312],[-107.38171835392856,25.174559832515712],[-107.38187093714575,25.17455737635374],[-107.38197858461491,25.174524270565588],[-107.38205113163555,25.174455916130363],[-107.3821285512399,25.174387412157106],[-107.38220100807027,25.174314604239783],[-107.38227355515376,25.174246162210103],[-107.38234601202505,25.17417781857095],[-107.38237858604235,25.174078741819024],[-107.38237587906015,25.173939886392024],[-107.38241332564985,25.173840747620446],[-107.38248587279338,25.173772393092325],[-107.38255841995742,25.173703951009358],[-107.38263078667632,25.17363115387358],[-107.38262952341671,25.173563903662636],[-107.38255435948128,25.1734979436935],[-107.38247928580064,25.173431972752876],[-107.38240412190923,25.173365925052988],[-107.38236144182221,25.173196434442076],[-107.38235620832366,25.172927629700062],[-107.3823923014193,25.17275678688923],[-107.38246475832412,25.17268844332962],[-107.38253730548219,25.172620088877128],[-107.38260985266076,25.172551734405452],[-107.38264197554737,25.172179336962657],[-107.38262871132125,25.17149850401855],[-107.38258215118593,25.171127446275996],[-107.38250698726439,25.1710613975629],[-107.38239807631507,25.1710318037719],[-107.38224558301714,25.17103424768644],[-107.38213658194611,25.17100020012864],[-107.38206141815506,25.170934150963518],[-107.38201612137927,25.170630254925676],[-107.38200556416373,25.170088361968364],[-107.38196026739779,25.169784377419283],[-107.38188519389095,25.169718404181854],[-107.38181003017354,25.169652354182446],[-107.38173495671066,25.169586380750182],[-107.38169850277747,25.169483890466132],[-107.38169588603493,25.169349573826615],[-107.38165446932051,25.169247156153563],[-107.3815793056707,25.169181193263185],[-107.38150423227532,25.16911521940338],[-107.3814290686695,25.169049168780873],[-107.38138638874467,25.16887967437314],[-107.38138115526601,25.1686108651495],[-107.3813434381298,25.168441297694567],[-107.38126340202423,25.168375308445697],[-107.38118823848897,25.168309344795123],[-107.38111316520803,25.168243370175695],[-107.38107671136318,25.1681408788744],[-107.381074094627,25.16800656136759],[-107.38103267801294,25.16790414262658],[-107.38095751454529,25.167838178548212],[-107.38084364148256,25.167804102278346],[-107.38069602164448,25.167806480569777],[-107.38058711146387,25.167776883297613],[-107.38050707559425,25.167710980562056],[-107.38043191228059,25.16764501593016],[-107.380356839221,25.16757895279221],[-107.38009525670057,25.16754735156076],[-107.3796523085015,25.167554493606534],[-107.37939081693133,25.167522879862048],[-107.3793156539448,25.167456826622544],[-107.37927044788547,25.16715291183141],[-107.37925989078295,25.16661100735516],[-107.37929336672492,25.16630575452995],[-107.3793658227545,25.16623741254456],[-107.37943836903624,25.166169059670548],[-107.3795109153385,25.166100619238787],[-107.37958337142952,25.166032277196056],[-107.37965591777281,25.165963924264613],[-107.37972846413659,25.165895571314017],[-107.37980092028909,25.165827141675386],[-107.37987842944622,25.16575871608383],[-107.37995088564108,25.165690373943864],[-107.3800233418564,25.165617479780916],[-107.38009588832413,25.16554912673334],[-107.3801283718238,25.16545005921751],[-107.38012566486533,25.16531119899693],[-107.38016320135856,25.165212047972318],[-107.38023565763386,25.165143618241252],[-107.38030820416165,25.165075265159903],[-107.38038066047791,25.16500245846208],[-107.38037930699734,25.164935216802025],[-107.38030423395313,25.164869239860845],[-107.3802290706989,25.164803273691977],[-107.38015390746669,25.16473730742564],[-107.38015264421928,25.164670054782295],[-107.38022519072359,25.16460170176773],[-107.38033761979939,25.164564085068033],[-107.3804853296633,25.164561698156128],[-107.38059784908526,25.164528534863667],[-107.38067039571548,25.164460094170394],[-107.38070152580562,25.16428940790966],[-107.38069620210878,25.16401614069864],[-107.38065857530542,25.16385102328234],[-107.38058332171526,25.16378051578889],[-107.38050824861133,25.16371453847481],[-107.38042821276632,25.163648633649107],[-107.38035304947576,25.163582579466482],[-107.38027788620724,25.163516612725275],[-107.38020281319271,25.16345063501737],[-107.3801276499682,25.163384668081292],[-107.3800863237389,25.163282235676476],[-107.38008370701282,25.163147915709622],[-107.380121063036,25.163044234078107],[-107.38019360953139,25.162975881206627],[-107.38030612882537,25.162942718682515],[-107.38045383867113,25.16294033271611],[-107.38056626784717,25.162902628833116],[-107.38063881446845,25.162834275821584],[-107.38067129803687,25.162730743437937],[-107.38066868130483,25.162596336027278],[-107.38070603741322,25.162492741900326],[-107.38077849384183,25.162424312204802],[-107.38096491358915,25.16238995079634],[-107.38126024389206,25.162385188568674],[-107.381446573757,25.16234637288853],[-107.38151903039478,25.16227803049235],[-107.38159157728549,25.162209677207297],[-107.38166403396421,25.16214124723409],[-107.38173658089592,25.16207289391082],[-107.38180912784813,25.16200454056842],[-107.38188645714689,25.161931584314104],[-107.38195900414148,25.161863230932195],[-107.38203146092395,25.16179488840115],[-107.38210400795954,25.16172644744221],[-107.38213649171345,25.161627379533424],[-107.3821337847338,25.16148851885969],[-107.38217132152084,25.161389367431724],[-107.38224377836328,25.161321024867057],[-107.38231623522616,25.161248130262184],[-107.3823886921095,25.161179787659762],[-107.38246123924607,25.161111434168195],[-107.38253865897414,25.16104293136591],[-107.3826112061531,25.16097457783446],[-107.38268375335257,25.160906224283885],[-107.38268239985985,25.160838982429635],[-107.38260723590895,25.160773016420432]]]},"id":"00000000000000000000","properties":{"SqM":39507046.88,"SqMi":15.2538,"basin_id":2,"id":3,"layer":"pt_03"}}]}