{"type":"FeatureCollection","features":[{"type":"Feature","geometry":{"type":"Polygon","coordinates":[[[-107.52238960776128,25.155002408298824],[-107.52231440357767,25.154936474735877],[-107.52223919941534,25.1548705410751],[-107.5221639952743,25.1548046073165],[-107.52208879115453,25.154738760953485],[-107.5220136773371,25.154672816032466],[-107.5219383829789,25.15460243077976],[-107.52185821346991,25.154536574833784],[-107.52178309971767,25.15447062961305],[-107.52170789570576,25.154404695261174],[-107.52159901694593,25.1543752239467],[-107.52144644230783,25.154377833288354],[-107.52133747337439,25.154343822985187],[-107.52126226948866,25.154277888180307],[-107.52118219046447,25.154212107977486],[-107.52110698662271,25.15414617297274],[-107.52103178280225,25.15408023787018],[-107.52095648872242,25.154009851443636],[-107.52088128494458,25.153943916143234],[-107.52080608118801,25.15387798074502],[-107.52073096773336,25.153812121777424],[-107.52065576401937,25.153746186183685],[-107.52058056032669,25.153680250492137],[-107.52050048150808,25.153614381870238],[-107.52042527785939,25.15354844597881],[-107.52035007423197,25.15348259748386],[-107.52027478034545,25.1534122101506],[-107.52019957676067,25.15334627396356],[-107.52008582347963,25.15331686772242],[-107.5199382151281,25.153319308945388],[-107.5198242813985,25.153285462122135],[-107.51974907794133,25.15321952547785],[-107.51967387450546,25.153153588735748],[-107.5195986710909,25.15308765189585],[-107.51941097862814,25.153055063040984],[-107.5191157627576,25.153060030865163],[-107.51892816091629,25.153031892448993],[-107.51885295771298,25.152965954894494],[-107.51877775453099,25.152900017242185],[-107.51870246109041,25.15282962820995],[-107.51862734823094,25.152763766891052],[-107.51855214511288,25.15269782894323],[-107.51850926219196,25.15252830892347],[-107.51850375512261,25.152259579995597],[-107.5184608722095,25.15209005964141],[-107.51838566913861,25.152024121223942],[-107.51782909485269,25.152002289128685],[-107.51679088154317,25.152019952452672],[-107.5162291646968,25.151993662892334],[-107.51615396225847,25.15192772246488],[-107.51607885012046,25.1518617709779],[-107.51600364772476,25.151795830354917],[-107.51574210966704,25.151764501206973],[-107.51529432677738,25.151772058729993],[-107.5150329699765,25.15174516832957],[-107.51495767759876,25.15167477536589],[-107.51492120503976,25.151576832533294],[-107.51491840640301,25.151442515003055],[-107.51487696852692,25.15134010007749],[-107.51480176647205,25.151274245643535],[-107.51472656443849,25.1512083036151],[-107.51465145270477,25.15114235052839],[-107.5146099245919,25.151040033726375],[-107.51460721623694,25.150905704854612],[-107.51464441098082,25.15080196769788],[-107.51471690463501,25.150733581113105],[-107.51478930803043,25.15066511797315],[-107.51486171144563,25.150596742311414],[-107.51489060059438,25.150085490250056],[-107.51487119069722,25.149140515376864],[-107.51489529508135,25.14863386711546],[-107.51496760824688,25.148560952686584],[-107.51504497703631,25.148492499329876],[-107.51511738052133,25.148424036267517],[-107.51514148492782,25.147917387467196],[-107.51512198473364,25.14696795610336],[-107.51515096418943,25.146461238518402],[-107.51522336770337,25.14639277559115],[-107.51529586151581,25.146324301685855],[-107.51536826506934,25.14625592621911],[-107.51539580009177,25.145677547661307],[-107.51537368179484,25.144598231524913],[-107.51532240346458,25.14402119254359],[-107.51524729156209,25.143955236537906],[-107.51517208940217,25.143889291393165],[-107.5150968872636,25.14382334615067],[-107.5150540049012,25.14365390435833],[-107.51504849790358,25.14338516467141],[-107.51501058087392,25.143215557336237],[-107.51493546905976,25.14314960067069],[-107.51485530166619,25.143083820066206],[-107.51478018989602,25.143017863201095],[-107.51470489759004,25.142947465713103],[-107.51462969558396,25.14288151960835],[-107.51451594469093,25.142852101985742],[-107.51436833943819,25.142854618028707],[-107.51425928313299,25.14282060536623],[-107.51417920622224,25.14275481301813],[-107.51410400436527,25.142688866358597],[-107.51402889280793,25.142622996143125],[-107.5139536909936,25.14255704928821],[-107.51387848920061,25.142491102335544],[-107.51380337770716,25.142425144328],[-107.51372808567862,25.142354745671426],[-107.51361424489428,25.142325337775244],[-107.5134666401436,25.14232785242437],[-107.51335279947156,25.14229398176431],[-107.51327759784904,25.142228034156997],[-107.51320239624786,25.142162086451936],[-107.513127284946,25.142096215192186],[-107.51305208338748,25.14203026729175],[-107.51297688185026,25.14196431929357],[-107.51293544427766,25.141861986136497],[-107.51293264566188,25.14172766369261],[-107.51289608310358,25.14162526375827],[-107.51282097188856,25.1415593044727],[-107.51274080513443,25.14149343363068],[-107.5126656939634,25.141427561645436],[-107.5126236244947,25.14105641724038],[-107.51260972171038,25.14038015357634],[-107.51256277724919,25.140009074385652],[-107.51248748557306,25.139938673426684],[-107.51237373559934,25.139909251994734],[-107.51222613153958,25.139911763773434],[-107.51211716639345,25.13987773640682],[-107.5120370901299,25.139811940625084],[-107.51196188888072,25.13974599067157],[-107.5118866876529,25.13968012812095],[-107.51169900064801,25.13964742778731],[-107.51140379336245,25.139652449229867],[-107.51121682891839,25.13965562327487],[-107.51114307233915,25.139656872934154],[-107.5111093989016,25.13969324673148],[-107.5111107530612,25.139760458083373],[-107.5110727463176,25.139828332991804],[-107.5110003439375,25.139896706466214],[-107.51092794157721,25.13996516742288],[-107.51085553923669,25.1400380909056],[-107.51078313691596,25.14010646432454],[-107.51070576937067,25.14017500270246],[-107.51063336709089,25.140243463583392],[-107.5105609648309,25.14031183694482],[-107.51048856259068,25.140380297788543],[-107.5104160700932,25.140448682066825],[-107.51034366789261,25.140517142873282],[-107.51027126571181,25.140585603661137],[-107.51019895382778,25.14065851602444],[-107.51012646140957,25.14072690022851],[-107.50979261737857,25.140763907601208],[-107.50919724216989,25.140774020439164],[-107.50886339931039,25.14081548799253],[-107.5087909975343,25.140883948306865],[-107.50875371333565,25.140987610968928],[-107.50875651190727,25.14112193597141],[-107.50872410264408,25.141221069572055],[-107.50864682597683,25.14129405890084],[-107.50857442425999,25.141362519182586],[-107.50850193228652,25.14143090289744],[-107.5084295306093,25.141499363141914],[-107.50835712895189,25.14156782336777],[-107.50828472731428,25.14163619607365],[-107.50821223542013,25.141704667215187],[-107.50813983382216,25.14177303988378],[-107.50806743224396,25.1418415000351],[-107.50795494803585,25.141879210160894],[-107.5078073464388,25.141881717673638],[-107.50769350819907,25.141847840680693],[-107.50761830818334,25.14178188788136],[-107.50754310818898,25.1417159349843],[-107.50746799849206,25.141650058538726],[-107.5073927985404,25.141584105446313],[-107.50731272370543,25.141518306168855],[-107.50723752379787,25.141452352876765],[-107.50716232391171,25.141386399486944],[-107.50690088485791,25.14135502764706],[-107.50645808207733,25.141362457416122],[-107.50619664371933,25.141335546543424],[-107.50612135385337,25.141265140522815],[-107.50604624455998,25.14119926261254],[-107.50596617013247,25.141133374403292],[-107.50589097060764,25.141067419742445],[-107.50581577110414,25.141001552486216],[-107.50574057162206,25.140935597629962],[-107.50566546243678,25.140869631725103],[-107.50547777984227,25.14083700938131],[-107.50518257949409,25.14084201702754],[-107.50499634164574,25.14088097081825],[-107.5049238506525,25.140949440785526],[-107.50485144995427,25.14101781228112],[-107.50477904927588,25.14108627126075],[-107.50451896670313,25.141126481632753],[-107.50407129306465,25.14113405609808],[-107.50381112091314,25.141169813391347],[-107.50373872051956,25.14123827203323],[-107.5036663201458,25.14130673065648],[-107.5035940100666,25.14137955346133],[-107.5034076830623,25.141414141157327],[-107.50311248502487,25.141419056913794],[-107.5029248042422,25.141390893381434],[-107.50284960558216,25.14132047350254],[-107.50277440694349,25.141254603693405],[-107.50269920832622,25.141188646283297],[-107.50258546255925,25.14115921514311],[-107.50243786395839,25.141161715718205],[-107.50232393775525,25.1411277560031],[-107.50224873926614,25.14106188563959],[-107.50217363107267,25.140995916726425],[-107.50209843262631,25.140929958664056],[-107.50202467858867,25.140931203138937],[-107.50195218841016,25.14099967210699],[-107.50187482344704,25.141068207240124],[-107.50180242358375,25.141136577717273],[-107.50173002374031,25.14120503567945],[-107.50165753364261,25.141273417067477],[-107.50158513383886,25.141341874992353],[-107.50151282432898,25.141414784638712],[-107.50144033429085,25.141483165971103],[-107.50136793454661,25.141551623840442],[-107.50129553482219,25.141620081691148],[-107.5012181700513,25.141688529136395],[-107.50114568009401,25.14175699789611],[-107.5010732804305,25.141825368185472],[-107.5010409623826,25.141928954291256],[-107.50104367059875,25.142063381556493],[-107.50100638749217,25.14216704474277],[-107.50093398786682,25.142235415019755],[-107.5008615882613,25.142303872781774],[-107.50078909840182,25.142372341473056],[-107.50075325971153,25.142543119793736],[-107.50075867613796,25.142811886593435],[-107.500727712235,25.142982598598472],[-107.50065531268602,25.143051056353837],[-107.5005779481026,25.143119591208354],[-107.50050554859463,25.143187961421173],[-107.50043314910651,25.143260881802227],[-107.50036074963823,25.14332933948171],[-107.50028835018978,25.143397709638933],[-107.5002158604876,25.14346617822895],[-107.5001786677714,25.143569830329096],[-107.50018137597873,25.143704169910684],[-107.50022272128047,25.143802059936505],[-107.50029791919305,25.14386793076976],[-107.50037320740068,25.143938340736412],[-107.50044831508242,25.14400430982369],[-107.50048975069964,25.144102188576767],[-107.50049254918382,25.144240979501514],[-107.50045517588134,25.144340190685682],[-107.50038277640702,25.1444086484633],[-107.50031028667892,25.14447702966716],[-107.50023797751791,25.144549939129472],[-107.50020060425145,25.14464915028915],[-107.50020340273255,25.14478347848498],[-107.50024483831136,25.144885819738136],[-107.50032003623025,25.14495177753634],[-107.50039514389687,25.145017746185268],[-107.50047034185853,25.145083616284968],[-107.50047178623736,25.14515528116658],[-107.50039938675849,25.145223739018256],[-107.50032689702583,25.145292120296656],[-107.50025449758665,25.14536057811097],[-107.50021721459144,25.145464240867046],[-107.50022001307273,25.145598568732083],[-107.50018751458207,25.145697713545093],[-107.50011520545463,25.14577062305475],[-107.5000428060735,25.14583899333479],[-107.49997031643868,25.1459074620477],[-107.49993294321007,25.146006673037792],[-107.49993583196185,25.14614545254934],[-107.49989845873813,25.146244663508792],[-107.49982605941636,25.14631312125862],[-107.49975366011446,25.146386041644945],[-107.4996812608324,25.146454411854766],[-107.49965020678233,25.14662067124603],[-107.49965571345956,25.14689388772476],[-107.49961987492301,25.147064752377453],[-107.49954738540426,25.147133221050666],[-107.49947498617874,25.147201591253708],[-107.49940258697305,25.14727004894101],[-107.49933009751392,25.147338430055136],[-107.4992527333186,25.14740696484987],[-107.49918033417384,25.147475334976498],[-107.49910793504893,25.147543792587403],[-107.49903553594386,25.147616712831457],[-107.49896313685863,25.147685082902402],[-107.49889064752013,25.147753551405913],[-107.49881824847462,25.147822008942462],[-107.49874584944898,25.147890378957328],[-107.4986733601701,25.14795884740468],[-107.49859599616715,25.148027294511817],[-107.49852359720242,25.148095751971944],[-107.49845110798458,25.14816422036148],[-107.49837870905957,25.14823259028117],[-107.49826622897358,25.148270382355275],[-107.49811863278573,25.148272794175792],[-107.49801111781643,25.148310508947024],[-107.49793375400752,25.14837895583972],[-107.49786135522437,25.148447413106005],[-107.49778886618832,25.148515881301336],[-107.49771646744489,25.14858425102705],[-107.49764406872131,25.14865270823725],[-107.49757157974493,25.148721088873202],[-107.49749918106109,25.148789546046014],[-107.49742669212446,25.14885792664449],[-107.49735438375298,25.148930835496365],[-107.49731701089458,25.14903004625484],[-107.49731971907255,25.149164385230858],[-107.49728252676422,25.149268036724994],[-107.4972100378871,25.149336504793663],[-107.49710252328782,25.1493741317092],[-107.49694996276448,25.14937670732601],[-107.49684235799867,25.149409882340034],[-107.49676995951484,25.149478339324556],[-107.49673267701158,25.149582001768106],[-107.49673538518356,25.149716340842414],[-107.49670306766649,25.14981992616681],[-107.4966257042409,25.1498884602229],[-107.49655330581646,25.14995682967115],[-107.4964808171396,25.150025297551213],[-107.49640841875492,25.150093666962032],[-107.4963360203901,25.150166586523174],[-107.49626362204515,25.150235043400215],[-107.49619122372003,25.150303412755296],[-107.49615529538154,25.150474288414387],[-107.49616071171366,25.15074305393159],[-107.49612974834986,25.150913764861276],[-107.49605735006148,25.150982221731166],[-107.49597998682515,25.15105066815905],[-107.49590749830575,25.151119135937094],[-107.49587788905322,25.15135706001946],[-107.49588619408713,25.151764604623825],[-107.49585161987162,25.151998142796387],[-107.49577922165955,25.152071062314047],[-107.49570682346733,25.152139519162333],[-107.49563433502296,25.152207899436306],[-107.4955619368705,25.152276356247146],[-107.49548944846593,25.1523447364836],[-107.49530321745057,25.15238377123004],[-107.49500802847112,25.15238867961545],[-107.4948202631759,25.152356059681907],[-107.49474515709524,25.152290089647494],[-107.49466996076424,25.152224130462155],[-107.4945898897847,25.15215832477968],[-107.49451604757259,25.152159578794496],[-107.49444364972697,25.152227947720753],[-107.49437116162966,25.152296415078162],[-107.49429876382379,25.152364783966952],[-107.49403869157042,25.15240507085574],[-107.49359094542464,25.152412549345303],[-107.49333565824467,25.152448229558754],[-107.49325829580644,25.15251676261045],[-107.49318589830607,25.152585218645623],[-107.49311341055439,25.152653598104095],[-107.49304110336492,25.152726505845944],[-107.49296861565304,25.152794885267287],[-107.4929699697197,25.152862098946787],[-107.49304516556604,25.152928059321507],[-107.49312036143382,25.152993932094848],[-107.49319555732305,25.1530598922741],[-107.49323699180177,25.153162234961016],[-107.49323969993787,25.153296574512176],[-107.49327625977783,25.153399070630144],[-107.4933563303586,25.153464876902888],[-107.4934315263151,25.153530836648862],[-107.49350672229303,25.15359670879373],[-107.4935818280211,25.153662679290605],[-107.49365702404191,25.153728638743427],[-107.4937709465056,25.153762513527557],[-107.49391854026193,25.153760103907857],[-107.49403237256712,25.15378952668096],[-107.49410756871636,25.153855398173615],[-107.49418285515856,25.153925808779572],[-107.49425796107913,25.15399177852459],[-107.49437179353079,25.15402120081669],[-107.49451938762331,25.15401870281712],[-107.49462843578874,25.15405273015328],[-107.49470850677997,25.1541186223602],[-107.49474777497508,25.154355367906632],[-107.49475598970169,25.154758459082824],[-107.49472638057841,25.154996381874458],[-107.4946490177323,25.15506491571278],[-107.4945766198502,25.15513783506186],[-107.49450422198798,25.155206204257446],[-107.494431733874,25.1552746718844],[-107.49435933605153,25.155343041042485],[-107.49428684797736,25.15541150863188],[-107.49421445019466,25.15547987775246],[-107.4941853827613,25.1559866301532],[-107.49420470086882,25.15693605089452],[-107.49418050809888,25.157442735179465],[-107.49410811034535,25.157511191935658],[-107.49403074768057,25.157579638294656],[-107.49395834996815,25.15765255762268],[-107.4938859522756,25.157721014321346],[-107.49381346433152,25.157789394446937],[-107.49362714422794,25.157823890988634],[-107.49333186685276,25.157828899867603],[-107.49314563736057,25.15786784742703],[-107.49307314961997,25.15793631481674],[-107.49300075217042,25.158004683737886],[-107.49292826446963,25.158073151090004],[-107.49281587697793,25.158110843623387],[-107.49266819356768,25.1581133527995],[-107.49255571591586,25.158146593459207],[-107.4924832283374,25.15821506067266],[-107.49241092132074,25.158287968602817],[-107.4923384337821,25.158356348276556],[-107.49185683899718,25.158395849008105],[-107.49096126460516,25.158410907138506],[-107.49047976260651,25.158454854378093],[-107.4904072755989,25.1585232334121],[-107.49033487888144,25.158591688984803],[-107.4902623919137,25.1586600679812],[-107.49018999523605,25.158728523516356],[-107.49011750830815,25.158796989978306],[-107.4900451116703,25.15886535797274],[-107.4899678404678,25.158938342152283],[-107.489895353601,25.159006808556576],[-107.48982286675415,25.159075187438837],[-107.48975047019725,25.159143642860077],[-107.48967798339025,25.159212021704715],[-107.48934416520147,25.159253459822704],[-107.48874874581527,25.159263525223984],[-107.4884147482648,25.159300520176462],[-107.48834226182532,25.159368898582006],[-107.4882698656753,25.159437353527913],[-107.48819737927569,25.159505731895823],[-107.4877158823281,25.159549670440345],[-107.48682032201167,25.159564701928268],[-107.48633729301169,25.159536980327598],[-107.48626209907962,25.15947110472636],[-107.48618699543785,25.159405130580108],[-107.48611180154872,25.159339167279132],[-107.48585038334501,25.159312229626558],[-107.4854025608445,25.1593197006162],[-107.48514105307673,25.159288309528183],[-107.4850658594864,25.159222345251315],[-107.48502930078577,25.159119933429533],[-107.48502659273407,25.158985591741416],[-107.4849851595466,25.158883245625066],[-107.4849099660008,25.158817281016837],[-107.48472229816927,25.158789101129607],[-107.48442712104273,25.158793990967776],[-107.48423936328741,25.158761358433473],[-107.48416416995472,25.158695393110925],[-107.48408906691158,25.158629416749374],[-107.48401387362182,25.15856353873669],[-107.4836785280594,25.15853330533649],[-107.4830831214868,25.15854325378235],[-107.48274922139252,25.15858477232284],[-107.4826767365132,25.158653148750577],[-107.48260434192142,25.158721601725002],[-107.48253185708202,25.158789978115095],[-107.48234563522632,25.158828911165955],[-107.48204540579381,25.15883397036577],[-107.48186261444006,25.158801257199727],[-107.48178254735379,25.158735355510384],[-107.48170735472334,25.158669388014815],[-107.48163216211441,25.158603507927584],[-107.48152320959676,25.158569458527296],[-107.48137065809446,25.158572019895296],[-107.48126179595228,25.158542509592863],[-107.48118660347073,25.158476541546886],[-107.48110644632325,25.158406187190543],[-107.48103125388614,25.15834030644897],[-107.48092239188448,25.158310708177485],[-107.48076984073077,25.158313268639354],[-107.48066079830355,25.15827931663984],[-107.48058569626076,25.15821333700056],[-107.48051050397261,25.158147368202222],[-107.48043034703124,25.158081563388862],[-107.48032139501161,25.158047512472127],[-107.48017380887642,25.15804999546029],[-107.48006133656236,25.15808768886679],[-107.47998885242399,25.15815615184977],[-107.47991645857222,25.158224516368993],[-107.4798439744738,25.15829297931432],[-107.47976661599978,25.158361420350147],[-107.47969413194267,25.15842988325616],[-107.47962182843862,25.15850278711429],[-107.47954934442144,25.158571162476257],[-107.47914152064764,25.15860937885769],[-107.47839853921066,25.15862178634988],[-107.47798945349923,25.158597321933925],[-107.47791426195387,25.15853135103671],[-107.47783898016411,25.158460928100332],[-107.47776387892772,25.15839503357619],[-107.47750237875648,25.158367999323584],[-107.47705457047273,25.15837552538208],[-107.47679442499107,25.158411243553303],[-107.4767219417539,25.15847961795019],[-107.47668601607216,25.158650497763308],[-107.47669161253484,25.15892371889848],[-107.4766604709296,25.159089993599704],[-107.47658807799489,25.15916290747007],[-107.47651568508014,25.159231270923566],[-107.4764432019199,25.159299732801983],[-107.47636584444719,25.15936817265181],[-107.47629336132829,25.159436634490877],[-107.47611201822062,25.159475493726625],[-107.47581188617471,25.159480527298598],[-107.47562413457302,25.159447793290507],[-107.47554894370482,25.1593818207212],[-107.47547375285814,25.15931593556216],[-107.47539865229807,25.15924995186213],[-107.47528473778762,25.15921606022882],[-107.4751370642169,25.15921854867976],[-107.47502459405924,25.15925623849123],[-107.47495220157552,25.15932460142407],[-107.47487971884686,25.15939306278123],[-107.47480723613825,25.159461436611355],[-107.47380412444357,25.15951408351072],[-107.47187021390657,25.159546364477546],[-107.4708656692235,25.159527317427354],[-107.47079047971873,25.159461428221867],[-107.4707152902355,25.15939545140915],[-107.4706401910373,25.159329463566763],[-107.47052627859259,25.15929556684965],[-107.4703786076999,25.159298049551374],[-107.47026478563212,25.15926851709242],[-107.47018959629965,25.15919816423448],[-107.47011440698871,25.159132186767273],[-107.47003921769935,25.15906620920233],[-107.46963014501655,25.159041716311947],[-107.4688871002404,25.159054077686967],[-107.4684792930332,25.15909226021089],[-107.46840681209311,25.159160719358486],[-107.4683344214357,25.159229080046515],[-107.4682620307983,25.15930199125843],[-107.46814947332572,25.159335223566863],[-107.46800180377184,25.15933770339693],[-107.46788933667354,25.159375387615103],[-107.46781694615906,25.159443835656514],[-107.46777957749732,25.159542959563804],[-107.46778228537119,25.15968186090147],[-107.46782371584473,25.15977966882521],[-107.46789881423614,25.159845658926105],[-107.46797409317412,25.159916090098303],[-107.46804928187116,25.159981981561106],[-107.46809477420254,25.16028590904329],[-107.46810560571117,25.160823310021716],[-107.46807238908612,25.161128542173206],[-107.46799999852108,25.16120145343331],[-107.46792751771353,25.161269825083117],[-107.46785503692603,25.161338284224097],[-107.46778255615857,25.16140665583614],[-107.4677101656736,25.161475104008815],[-107.46763768494621,25.161543475583116],[-107.46756033006997,25.161611999833834],[-107.46748784938403,25.161680371368707],[-107.46741536871812,25.1617488303948],[-107.4673429783346,25.16182165397727],[-107.46727049770875,25.161890112966],[-107.46723312912495,25.16198932407811],[-107.46723592725543,25.162128126278233],[-107.46720352310098,25.162227261246713],[-107.46713104251373,25.162295632711672],[-107.46705856194653,25.1623640916678],[-107.46698617166156,25.162436915178652],[-107.46690881697766,25.162505439273012],[-107.46683633647193,25.16257381066115],[-107.46676385598624,25.16264226954048],[-107.46669137552063,25.16271064089083],[-107.46661898533712,25.162779088802218],[-107.46654650491156,25.162847460114804],[-107.46647402450607,25.16291591891861],[-107.46640154412063,25.162984290193407],[-107.4663291540172,25.16305720104672],[-107.4662517995273,25.163125637444818],[-107.46617931920335,25.163194096171825],[-107.46610683889944,25.163262467369766],[-107.46603444887745,25.163330915129052],[-107.46596196861363,25.163399286289224],[-107.46588948836985,25.163467744940686],[-107.46581700814616,25.16353611606306],[-107.46574452794249,25.16360457467674],[-107.46567213802064,25.16367739785221],[-107.46548583786486,25.163711858210593],[-107.46518562771823,25.163716881254093],[-107.46500429229125,25.16375572792817],[-107.46493181231251,25.163824186284806],[-107.46489444406232,25.16392339729172],[-107.46489724216782,25.16406220000456],[-107.46485978366111,25.164161421909675],[-107.46478730372236,25.164229792740468],[-107.46471500432648,25.16430269223323],[-107.46464252442782,25.164371063026632],[-107.4646100303328,25.164470208857576],[-107.46461273817391,25.16460455940733],[-107.46457546023059,25.164708222423794],[-107.46450298037054,25.164776593203413],[-107.46443050053057,25.164845051474458],[-107.46435802071063,25.16491342221625],[-107.46432760266018,25.165357457175435],[-107.46434393995094,25.166168098045905],[-107.46431830574932,25.166607614345338],[-107.46424086159207,25.166676061270103],[-107.46416838182465,25.166744519608713],[-107.46409608259968,25.166817419076548],[-107.46406358857246,25.166916477067108],[-107.46406629640792,25.167050826940713],[-107.4640290185424,25.16715448962776],[-107.46395653883361,25.167222947933983],[-107.46388405914489,25.167291318711374],[-107.46381157947624,25.167359776979744],[-107.4637391900887,25.167432599795383],[-107.46366671046016,25.167501058026314],[-107.46340657825994,25.167536757310685],[-107.46295870378663,25.16754417036712],[-107.46269857228998,25.16758433127852],[-107.46262609294956,25.167652789169527],[-107.46255370388988,25.167721148602507],[-107.46248122458957,25.167789606455692],[-107.46240874530935,25.167857976779697],[-107.46233626604918,25.167926434595035],[-107.46225891273889,25.167994869971672],[-107.46218652378076,25.16806777984304],[-107.46211404458215,25.168136150090064],[-107.46204156540361,25.168204607828443],[-107.46196908624513,25.168272978037585],[-107.46189660710675,25.168341435738103],[-107.46182412798844,25.16840980590938],[-107.4617516488902,25.168478263572034],[-107.46171707916547,25.168716276726297],[-107.46172529285946,25.169123779929723],[-107.46169559719785,25.16936172765092],[-107.46161815381659,25.169430261368273],[-107.46154576503571,25.169498620606056],[-107.46147328601458,25.169567078263768],[-107.4614008070135,25.169635448392388],[-107.46132832803252,25.169703818502068],[-107.46125584907163,25.16977227610296],[-107.46118337013081,25.169840646174745],[-107.46111089121005,25.169909103737762],[-107.46103850256952,25.169982013372703],[-107.46096114964286,25.170050448464508],[-107.46088867078367,25.17011890596945],[-107.46081619194456,25.170187275945246],[-107.46074371312554,25.170255645902092],[-107.46067123432658,25.1703241033502],[-107.46059875554774,25.170392473269143],[-107.46052627678894,25.170460930679365],[-107.46045379805024,25.170529300560403],[-107.46038140959152,25.170602210027198],[-107.46030902115284,25.170670568942516],[-107.46023157818202,25.170739102265443],[-107.46015909952496,25.170807472069416],[-107.460086620888,25.17087592936471],[-107.46001414227112,25.170944299130785],[-107.45994166367433,25.171012756388176],[-107.4598691850976,25.171081126116324],[-107.4596828890723,25.171120045867898],[-107.45938764985821,25.17112498704586],[-107.45920126391638,25.171159454042332],[-107.45912887580434,25.171232363150562],[-107.45905639745288,25.171300732621148],[-107.45898391912151,25.17136910207277],[-107.45890656680247,25.171437624035477],[-107.45883408851262,25.171505993447536],[-107.45876161024286,25.171574450351173],[-107.4586891319932,25.171642819725292],[-107.45850283680853,25.1716818256771],[-107.45820750866764,25.17168668802878],[-107.45802112356705,25.171721153701014],[-107.45794864552265,25.171789522836082],[-107.45787634801644,25.171862420658794],[-107.4578038700122,25.17193087726713],[-107.45773139202802,25.17199924634573],[-107.45765891406396,25.17206761540536],[-107.45758147187799,25.17213614786272],[-107.45750899395549,25.17220451688274],[-107.45743651605308,25.172272973394605],[-107.45736403817078,25.172341342376686],[-107.45733172549747,25.172444928941978],[-107.45733434300438,25.17257929118037],[-107.45729706609814,25.17268295361264],[-107.45722458825449,25.172751410091816],[-107.45711203552844,25.172784638034983],[-107.45696437220191,25.172787024470065],[-107.45685190984658,25.172824791854325],[-107.45677943212638,25.17289316068338],[-107.45674838314655,25.17306397762134],[-107.45675379866603,25.173332680327075],[-107.45671787572228,25.173503474570314],[-107.45664539803926,25.173571930920282],[-107.45638527282185,25.17361208450037],[-107.45594228432446,25.173619417030434],[-107.45568071567438,25.173587897466128],[-107.45560553053114,25.17352200165644],[-107.45552547146482,25.173456083158797],[-107.45545028636624,25.173390099638244],[-107.45526751355781,25.173357354340087],[-107.45496731513853,25.173362275589025],[-107.45477966873719,25.17333405744631],[-107.45470448385326,25.173268073211545],[-107.45462929899098,25.17320217639056],[-107.45455402389243,25.173131739794965],[-107.45447883907345,25.173065755264748],[-107.45440374453395,25.172999847223664],[-107.45436240644331,25.172901937017606],[-107.4543596084505,25.17276313205584],[-107.45432314428902,25.172665156855835],[-107.45424795953649,25.172599171898753],[-107.45413405422636,25.17256526464038],[-107.45398648284059,25.17256763639992],[-107.45387393150945,25.172605412286604],[-107.4538014546154,25.172673780087685],[-107.45372897774145,25.172742235381733],[-107.45365650088762,25.172810603144864],[-107.45347011903333,25.17284506306541],[-107.45316992267992,25.17285006679029],[-107.45298724172457,25.172821681994225],[-107.45291205735666,25.172755783450114],[-107.45283199911593,25.172689862094277],[-107.45275681479272,25.172623875838223],[-107.45268298434993,25.172625110136195],[-107.45261050778643,25.172693565047293],[-107.45253803124304,25.172761932427075],[-107.45246555471978,25.172830387300216],[-107.45198385261004,25.17286969406479],[-107.45108814357418,25.172884539826438],[-107.450606534263,25.172928381130223],[-107.45053405827605,25.172996747849478],[-107.45046158230925,25.173065202062702],[-107.45038910636256,25.17313356874398],[-107.450316630436,25.173201935406265],[-107.450244244786,25.173274841803202],[-107.45020687863537,25.173374052520852],[-107.45020958632728,25.17350840730948],[-107.45017718428277,25.173612005525598],[-107.4500997443153,25.173680447783656],[-107.44984458971328,25.17372051269957],[-107.44939664822637,25.173727984625437],[-107.44913517639014,25.173696439232387],[-107.44905999313193,25.17363045020972],[-107.44898480989539,25.173564548602634],[-107.44890962668052,25.17349855938449],[-107.44872189437785,25.17346579146555],[-107.4484217034862,25.17347078414197],[-107.44824028943475,25.173509624700202],[-107.44816781410518,25.1735780781779],[-107.44809046498987,25.173646508748067],[-107.44801798970195,25.173714962186143],[-107.44794542417857,25.173783339012033],[-107.44787294893095,25.173851704898457],[-107.44780056395905,25.173924610555325],[-107.44772808875169,25.173992976404158],[-107.44765561356448,25.174061429747645],[-107.44758313839742,25.17412979555847],[-107.4475106632505,25.174198248863977],[-107.44743818812371,25.174266614636807],[-107.44736074896942,25.174335143433005],[-107.4472882738843,25.174403509166147],[-107.4472558722027,25.174507107604626],[-107.44725857986397,25.174641463534954],[-107.44722130439641,25.17474512654627],[-107.44714882935007,25.174813492265596],[-107.44707635432385,25.174881945479562],[-107.4470038793178,25.174950311160877],[-107.44693131407662,25.175018687743293],[-107.44685883911089,25.17508714090023],[-107.44674638110928,25.175124813538577],[-107.44659872364633,25.175127276173644],[-107.44648626575695,25.175164948619553],[-107.44641379091492,25.175233401637538],[-107.44634131609304,25.175301767122743],[-107.44626884129134,25.17537013258893],[-107.44619636650977,25.17543858554991],[-107.44612389174834,25.175506950978075],[-107.44604645298445,25.175575479399313],[-107.4459739782647,25.175643844787782],[-107.44586639440905,25.17568145233456],[-107.44571386368311,25.175683978777485],[-107.44560618968002,25.17571713385023],[-107.44553380533748,25.175790038906527],[-107.4454613307603,25.17585840413855],[-107.44538389219325,25.17592693234326],[-107.4448283749422,25.17596744766732],[-107.44378990833935,25.175984558789708],[-107.44322952077185,25.17602968235376],[-107.44315704683562,25.17609813433805],[-107.44312599947683,25.176268868007543],[-107.44313141471355,25.176537582867002],[-107.4430954033914,25.176708391781286],[-107.44302292949249,25.17677684377523],[-107.44295045561373,25.176845208235626],[-107.44287798175515,25.176913660191538],[-107.44284061666035,25.177017246642485],[-107.44284332427573,25.17715160395549],[-107.4428109231468,25.177255202489793],[-107.44273844932704,25.17732365443168],[-107.4426610115693,25.177392094233902],[-107.44258853779127,25.177460458621564],[-107.44251606403338,25.17752891050471],[-107.44244359029567,25.177597274854314],[-107.44218338898513,25.177637414402298],[-107.44174051485845,25.177644778412212],[-107.44148022399709,25.177680376736053],[-107.44140784080102,25.17775328060084],[-107.44133040343897,25.177821807454855],[-107.44125793003127,25.177890171425883],[-107.44025458606014,25.177938106705838],[-107.43832525591422,25.1779699017683],[-107.43732192325035,25.178022276748614],[-107.43724448710417,25.178090802076575],[-107.43721208667222,25.178194313654483],[-107.43721479422904,25.178328673534764],[-107.43717742994724,25.178432347779886],[-107.43710495769614,25.178500710390864],[-107.43703248546524,25.178569160498903],[-107.43696001325453,25.17863752307179],[-107.43696127677983,25.178704757670683],[-107.43703645654585,25.178770667376064],[-107.43711163633363,25.17883666449978],[-107.43718681614313,25.178902661525747],[-107.43726199597437,25.178968570938054],[-107.43734213968392,25.17903895587173],[-107.43741731956004,25.17910495259802],[-107.43749249945792,25.179170861710762],[-107.43756758912548,25.179236869156416],[-107.43764276906676,25.179302778073854],[-107.43771794902979,25.1793687744093],[-107.43779312901452,25.179434770646996],[-107.43779448279597,25.17950190643218],[-107.43772201037294,25.17957026933949],[-107.4376495379701,25.179643183040167],[-107.43757706558748,25.17971154590974],[-107.43754240881387,25.179949578964436],[-107.43755044124276,25.18035266672077],[-107.43752074833272,25.18059062419298],[-107.43744827598594,25.180658987095697],[-107.43737571340743,25.180727448409932],[-107.43729836749715,25.180795875597774],[-107.43722589521236,25.180868789245352],[-107.43715342294776,25.180937152070516],[-107.43708095070335,25.181005602392094],[-107.43700847847913,25.181073965179145],[-107.43693600627512,25.181142327947136],[-107.43686344383951,25.18121078912648],[-107.43679097167592,25.18127915185631],[-107.43671849953249,25.18134760208258],[-107.43664106356597,25.18141603999744],[-107.43656859146434,25.18148440266841],[-107.43649620963456,25.18155730521296],[-107.43642364732165,25.18162567876094],[-107.43635117528062,25.181694128890612],[-107.43627870325977,25.181762491485678],[-107.43620623125913,25.181830854061687],[-107.43613375927868,25.181899304134177],[-107.43606119706693,25.18196767758665],[-107.4359838515476,25.182036191914346],[-107.4359112893777,25.182104565326938],[-107.43583890773087,25.18217746770215],[-107.4357664358528,25.18224583016243],[-107.43569396399495,25.182314192603638],[-107.43562140190593,25.182382653455807],[-107.4355489300885,25.182451015858838],[-107.43547645829126,25.182519465758425],[-107.43540398651422,25.182587828123324],[-107.43532655093915,25.182656265661834],[-107.43525407920392,25.182724715502548],[-107.43518160748887,25.182797541107],[-107.43510913579404,25.18286599090994],[-107.4350366641194,25.182934353178148],[-107.43496419246495,25.18300280294295],[-107.43489172083072,25.183071165173008],[-107.43481915896564,25.183139538298082],[-107.43474668737184,25.183207988005652],[-107.43466925199259,25.183276425355903],[-107.43459678044057,25.183344787507945],[-107.43452439915976,25.18341768954437],[-107.43445192764814,25.183486051658644],[-107.43437936590583,25.183554512183477],[-107.43430689443464,25.183622874259555],[-107.43423442298368,25.183691323832306],[-107.4341618613021,25.183759696784044],[-107.43408938989157,25.18382805880286],[-107.43401691850126,25.183896508318345],[-107.43393948333942,25.183964945459536],[-107.43386710224162,25.184037847326508],[-107.4337946309133,25.184106209267686],[-107.4337220693545,25.18417458210343],[-107.43364959806661,25.184243031522218],[-107.43357712679895,25.184311393406123],[-107.43350465555149,25.18437984278675],[-107.43343209407365,25.184448215546002],[-107.43335962286665,25.184516577372612],[-107.43328218790066,25.18458510184129],[-107.43320980698597,25.184657916022882],[-107.43313733584095,25.184726365306794],[-107.43306477446569,25.18479473796914],[-107.43299230336112,25.184863099698987],[-107.43291983227677,25.18493154892562],[-107.43284736121264,25.184999910617282],[-107.43277479991835,25.185068283203105],[-107.43270232889468,25.185136732372452],[-107.4326248941246,25.185205169136903],[-107.43255242314272,25.185273618266397],[-107.43248004243132,25.185346432259657],[-107.43240748123964,25.185414892264465],[-107.43233501031843,25.18548325382114],[-107.43226253941742,25.185551615358705],[-107.43219006853663,25.185620064393124],[-107.43211750742594,25.185688436805485],[-107.43204503658563,25.185756798285734],[-107.43196760201145,25.1858253223777],[-107.43189513121295,25.18589368381808],[-107.43182275068469,25.185966585157637],[-107.43175018967662,25.18603495747303],[-107.43167771893877,25.18610340637247],[-107.43160524822116,25.18617176773681],[-107.43153268727383,25.18624013999479],[-107.43146021659668,25.18630858883691],[-107.43138774593973,25.186376950143913],[-107.43131031156152,25.186445386531428],[-107.43123784094642,25.18651383531459],[-107.43116537035155,25.18658665988103],[-107.43109289977687,25.18665510862635],[-107.43102042922244,25.18672346983652],[-107.43094795868822,25.186791831027577],[-107.43087539792454,25.186860290628076],[-107.4308029274308,25.186928651780903],[-107.43073045695728,25.186997100430702],[-107.43065302277506,25.187065536629685],[-107.43058046209379,25.18713390863585],[-107.43050808193192,25.18720680963601],[-107.43043561154069,25.187275170691972],[-107.43036305092018,25.187343630157205],[-107.43029058056942,25.187411991174923],[-107.43021811023888,25.187480352173523],[-107.4301456399286,25.18754880066916],[-107.4300730793891,25.18761717254168],[-107.43000060911929,25.18768553348292],[-107.42992317515471,25.187754056988663],[-107.42985079517608,25.18782687030289],[-107.429778234719,25.1878953296137],[-107.42970576453148,25.187963690477158],[-107.4297071182708,25.188030914255833],[-107.42978229593807,25.18809682585839],[-107.42985747362712,25.188162824879353],[-107.42993256108858,25.188228834714767],[-107.43001270253775,25.18829467094312],[-107.43008788029353,25.188360669666537],[-107.43016314832052,25.188431120691494],[-107.43023823587036,25.188497042613808],[-107.43031341369144,25.188563041041796],[-107.43038859153428,25.188628951856213],[-107.4304637693989,25.188694950088692],[-107.43053894728526,25.188760948223386],[-107.4306141251934,25.18882685874464],[-107.4306893031233,25.188892856683815],[-107.43076935455638,25.188958790313606],[-107.4308446227809,25.189029152916632],[-107.43091980077753,25.189095150556042],[-107.43099497879592,25.18916114809767],[-107.43107015683609,25.189227058026106],[-107.43114533489799,25.189293055372204],[-107.43122042273185,25.189359063534035],[-107.43129560083726,25.189424973169366],[-107.43137077896445,25.18949097022224],[-107.43145092085747,25.18955680449824],[-107.43152609902963,25.189622801351256],[-107.4316012772235,25.18969326137724],[-107.43193664623827,25.189719128867324],[-107.43253220708165,25.18970932825882],[-107.43286766754862,25.1897396453719],[-107.43294284613076,25.189805553377223],[-107.43301802473465,25.189871548799427],[-107.4330932033603,25.189937544123854],[-107.4331682917572,25.190003462751065],[-107.43324347042632,25.19006945788001],[-107.4333186491172,25.190135452911182],[-107.43339382782983,25.190201360330168],[-107.43347406059753,25.190271732221305],[-107.43354914910452,25.190337737868056],[-107.43358967163711,25.190641674576963],[-107.4336005017137,25.191183652424797],[-107.43364589778969,25.191487523804266],[-107.433721076597,25.19155351780022],[-107.43379625542605,25.1916194241845],[-107.43387143427684,25.1916854179849],[-107.43391421312842,25.191855008811572],[-107.43391953792268,25.192123732075345],[-107.43395735299009,25.192293310370502],[-107.43403253188751,25.19235930370541],[-107.43410771080664,25.192425296942503],[-107.43418776329308,25.19249113815342],[-107.43426294225712,25.192557131190707],[-107.43433812124292,25.192623036616734],[-107.43441339050138,25.192693481725264],[-107.43448856953069,25.192759474466953],[-107.43456374858174,25.192825467110843],[-107.43463892765453,25.19289137214364],[-107.43471410674908,25.192957364591962],[-107.43478928586536,25.193023356942465],[-107.43483071110201,25.193125724602602],[-107.43483332838296,25.193260090718276],[-107.4348698800682,25.19336252269651],[-107.43494993278938,25.19342836273935],[-107.43502511197386,25.19349435465614],[-107.43510029118009,25.19356034647512],[-107.43517547040807,25.193626250683383],[-107.43525064965779,25.19369224230679],[-107.43536454671379,25.19372624609094],[-107.43551228805649,25.193723775789366],[-107.43562609497576,25.19375323953081],[-107.43570127435578,25.193819230697052],[-107.43577645375754,25.193885221765473],[-107.43585172343246,25.19395566496043],[-107.43596553050031,25.193985128220802],[-107.436113181933,25.1939826679597],[-107.43622220578307,25.194016735183432],[-107.4363023491722,25.194082650250827],[-107.43634151836012,25.194319445722932],[-107.43634955075191,25.194722518192474],[-107.43639359353382,25.194959248520266],[-107.43646877313576,25.195025150919857],[-107.43654395275942,25.19509114073378],[-107.4366192226565,25.195161582644502],[-107.436660557933,25.19525949578488],[-107.43666326548409,25.195393849141723],[-107.43669972717485,25.195496289827343],[-107.43677490686528,25.19556227921169],[-107.43685008657745,25.19562818098638],[-107.43692526631135,25.19569417017512],[-107.4369666918883,25.19579653503883],[-107.43696939944257,25.195930888015354],[-107.43701082502655,25.196033252738363],[-107.43708600480691,25.196099241591],[-107.43726885511971,25.196132075248507],[-107.43756912340977,25.19612707342489],[-107.43775675742255,25.196155389476697],[-107.43783193741851,25.19622129010348],[-107.43786984330707,25.19639093859349],[-107.43787525843446,25.19666410611332],[-107.43791794769264,25.196829237483627],[-107.43799312773518,25.196895137644848],[-107.43806839805166,25.19696557736416],[-107.43814357813767,25.19703156483867],[-107.43821875824541,25.197097552215354],[-107.43829393837488,25.197163539494202],[-107.43837399215009,25.197229374492878],[-107.43844917232443,25.197295361571857],[-107.43848572451788,25.19739778925825],[-107.43848834183562,25.197532151694894],[-107.43852976766148,25.197634514564943],[-107.43860494788083,25.197700501312088],[-107.43871884640578,25.197729948773063],[-107.43886649940141,25.197727483056802],[-107.43897417061793,25.197694413663914],[-107.43905160727897,25.197625885731867],[-107.4391239898198,25.197552981288716],[-107.43919646263336,25.197484616455398],[-107.43927028925619,25.197483383397362],[-107.4393454696895,25.197549369566175],[-107.43942074039718,25.197619807749025],[-107.43949592087395,25.197685793719938],[-107.43957110137242,25.19775169208263],[-107.43964628189264,25.197817677857913],[-107.43972146243456,25.197883663535354],[-107.43980160690172,25.197949573450366],[-107.43987678748852,25.198015471417584],[-107.43995196809702,25.198081456797215],[-107.4399884302487,25.19818389401249],[-107.43999113783443,25.19831824440219],[-107.43995873706044,25.198421839588775],[-107.43988626403461,25.198490204756137],[-107.43981370077616,25.19855866833693],[-107.43973635414112,25.1986270982184],[-107.43970792452025,25.198932273525877],[-107.43971875485163,25.19947413716172],[-107.43968545158403,25.199779376598325],[-107.43961288838157,25.19984775270415],[-107.43954041545206,25.199916117868025],[-107.43946794254272,25.199984570522584],[-107.43946938658556,25.200056241337098],[-107.43954456707635,25.200122138583286],[-107.4396197475889,25.200188123241453],[-107.43969492812316,25.200254107801772],[-107.43977010867914,25.200320092264246],[-107.43985016290847,25.200385924329765],[-107.4399253435093,25.20045190859232],[-107.44000052413182,25.200517892757027],[-107.44007570477608,25.20058378931439],[-107.44015097569495,25.200654312851373],[-107.44022615638265,25.200720209210896],[-107.44030133709208,25.20078619298201],[-107.44037651782321,25.200852176655275],[-107.44045169857606,25.200918072721404],[-107.44053175301504,25.20098399137097],[-107.44060693381273,25.201049974746454],[-107.44064348630924,25.201152399280183],[-107.44064619390177,25.20128674812558],[-107.44068762007112,25.201389107686182],[-107.44076280091383,25.20145509072967],[-107.44083798177823,25.2015210736753],[-107.44091316266436,25.201586969014112],[-107.4409883435722,25.20165295176407],[-107.44106352450174,25.201718934416164],[-107.441138705453,25.201784916970404],[-107.44121876010324,25.201850747046183],[-107.44129403135264,25.20192118142169],[-107.44136921237046,25.20198716367591],[-107.44144439341,25.202053145832277],[-107.44151957447123,25.20211912789077],[-107.44156100077956,25.202221486425838],[-107.44156370838164,25.20235583434714],[-107.44160017075906,25.202453805631436],[-107.44167544211872,25.202524239366475],[-107.44208465154581,25.20254882404595],[-107.44282798112225,25.202536547870455],[-107.44324215632943,25.202565515508475],[-107.44331733790966,25.202631495739617],[-107.44339251951159,25.20269747587288],[-107.44346770113522,25.202763368400493],[-107.44354288278053,25.202829348338064],[-107.44361806444756,25.202895328177767],[-107.44369324613628,25.202961307919605],[-107.4437684278467,25.20302720005595],[-107.443843699833,25.203097719069614],[-107.44391888158684,25.203163611008083],[-107.4439603082768,25.203261504411085],[-107.4439630159038,25.203400313501255],[-107.44400435234654,25.20349821769425],[-107.44407953414674,25.203564196806184],[-107.44415471596862,25.20363017582024],[-107.44422998806654,25.203700606681448],[-107.44430516993184,25.20376658549754],[-107.44438035181885,25.20383247670853],[-107.44445562398195,25.203898444401442],[-107.44453080591236,25.203964422923868],[-107.44460598786446,25.204030401348426],[-107.4446860435804,25.20409622711485],[-107.4447612255773,25.204162205339436],[-107.44483640759587,25.204228183466146],[-107.44491167989072,25.20429861341984],[-107.44498686195273,25.20436459134857],[-107.44532224822217,25.204390400140134],[-107.44591792995853,25.204380489609264],[-107.4462520538557,25.20434361906522],[-107.44632452865275,25.20427525126685],[-107.44636189424716,25.2041715818857],[-107.4463591865952,25.204037237282048],[-107.44639158816535,25.20393364391427],[-107.4464640630012,25.20386518859469],[-107.4465365378572,25.203796820762452],[-107.44660910298849,25.203728441982097],[-107.44664096305873,25.203356006566924],[-107.44662742478478,25.202675268914152],[-107.44658058236233,25.202304224023184],[-107.44650539984063,25.20223824650399],[-107.4464302173406,25.202172268886912],[-107.44635503486228,25.202106291171965],[-107.44635368103633,25.202039162214035],[-107.44642615586163,25.201970794565142],[-107.44661253268424,25.20193186378363],[-107.44690784770943,25.201926908218038],[-107.44709431513171,25.201892516213007],[-107.44716679016291,25.201824060817383],[-107.44723926521425,25.20175123006354],[-107.44731661407707,25.201682709515577],[-107.44738917942549,25.20161433063916],[-107.44746165453864,25.201545875165607],[-107.44753412967194,25.20147750717967],[-107.4476066048254,25.201409139174576],[-107.44771915345355,25.20137144642053],[-107.44786681155101,25.201368967692684],[-107.44797936029147,25.201335737584348],[-107.4480519258243,25.201267358510123],[-107.44812440112166,25.201198902839273],[-107.44819678618344,25.201126082747628],[-107.44826926152105,25.201057627038878],[-107.44834182713457,25.200989247888288],[-107.44841430251248,25.200920879647818],[-107.44848677791053,25.200852423881607],[-107.44867324646187,25.200817942793382],[-107.4489685638207,25.200813070960994],[-107.4491562963009,25.20084135328056],[-107.44923147958687,25.20090732914106],[-107.4493066628945,25.200973217397387],[-107.44938672005382,25.201039127876328],[-107.44946190340619,25.201105103438987],[-107.4495371770364,25.201175530787477],[-107.44961236043214,25.201241506152172],[-107.44968754384952,25.201307393912916],[-107.45002293616513,25.201333193297778],[-107.45061853838233,25.201323365008903],[-107.45095266830143,25.20128648566904],[-107.45102514440461,25.20121802901209],[-107.45109762052795,25.20114965984164],[-107.4511700966714,25.20107674035933],[-107.45135647688366,25.201042353763384],[-107.45165188753634,25.201037376700295],[-107.45183817783568,25.20099845009515],[-107.45191065418476,25.200930080666073],[-107.45194811083631,25.20083086309422],[-107.45194531286938,25.20069206831678],[-107.45197780539041,25.200592926926905],[-107.45205524591516,25.200524481267266],[-107.4521277223245,25.200456024296948],[-107.45220010849691,25.200383202966407],[-107.45227258494647,25.200314745958213],[-107.45234506141617,25.200246376436333],[-107.45241753790597,25.200178006895307],[-107.4524901046731,25.200109538897745],[-107.45256258120318,25.200041169318418],[-107.45263505775338,25.19997271221454],[-107.45289526949354,25.199932619401714],[-107.45334321698495,25.19992517742679],[-107.45360478329437,25.19995667342722],[-107.45367996786173,25.20002264580146],[-107.45375515245077,25.200088530572806],[-107.45383033706142,25.20015450275133],[-107.45394433249679,25.200188472098972],[-107.45409199411648,25.200185986447654],[-107.45420445528381,25.20014829989146],[-107.4542769322897,25.200079929726662],[-107.45434949957354,25.200011461104655],[-107.45442197661968,25.199943090901566],[-107.45449445368592,25.199874720679347],[-107.45456693077229,25.199806262933183],[-107.45463931762083,25.199733440861156],[-107.45471179474738,25.19966498307713],[-107.45482443669758,25.199631737075677],[-107.45497209881479,25.199629338168908],[-107.45508591423228,25.1996587781913],[-107.455161099226,25.19972474940633],[-107.45523637449949,25.199795172323583],[-107.4553115595365,25.19986114334063],[-107.45572079035742,25.199885684694898],[-107.45646903275255,25.19987326691642],[-107.45687691150566,25.1998351403432],[-107.45694947951161,25.199766670856746],[-107.45702186702022,25.19969384802074],[-107.45709434480766,25.199625389431432],[-107.45720689752609,25.199592152450897],[-107.45735456098964,25.199589750661787],[-107.45746214958041,25.199552127203386],[-107.45753959173103,25.1994835920552],[-107.457612069662,25.19941522081093],[-107.4576845476131,25.199346762043664],[-107.45779213633968,25.19930913841182],[-107.45794476438262,25.199306659634075],[-107.4580524434754,25.199273487575912],[-107.45812492154856,25.199205028670573],[-107.45820227363636,25.199136591744157],[-107.4582746614919,25.19906368104354],[-107.45834722988587,25.19899529864758],[-107.45841970804076,25.198926839664505],[-107.45849218621574,25.19885846816604],[-107.45856466441082,25.198790096648462],[-107.4588986239752,25.19874867102124],[-107.45949424642991,25.198738717440833],[-107.45982838770087,25.198701817738343],[-107.45990086626628,25.198633445779567],[-107.45993814354372,25.19852978764323],[-107.45993543575099,25.198395448103085],[-107.45996783900584,25.198291855493654],[-107.4600403176099,25.198223396017116],[-107.46011279623403,25.198155024024853],[-107.46019023916968,25.198086488007007],[-107.4602226424561,25.197982895376086],[-107.46021993466042,25.19784855577029],[-107.46025721198333,25.197744897538595],[-107.46032969066758,25.19767652551116],[-107.4604021693719,25.19760806596122],[-107.46047473835624,25.19753968295875],[-107.46054721710074,25.19747131087396],[-107.46061969586533,25.197402851266688],[-107.46069217464999,25.19733447914369],[-107.46076465345475,25.197266019498215],[-107.46080193085528,25.19716236122326],[-107.46079922305363,25.197028021601366],[-107.46083659071917,25.19692435235509],[-107.46090906956393,25.19685598019696],[-107.46098154842876,25.196787520516317],[-107.46105402731368,25.196719148319993],[-107.46112650621868,25.19665068860116],[-107.46119898514375,25.19658231636663],[-107.46131144936861,25.196544625359042],[-107.46145911514976,25.19654213277461],[-107.46157166974676,25.196504430637166],[-107.46164414879516,25.196436058263266],[-107.46171662786362,25.196367598366997],[-107.46178910695215,25.196299225954906],[-107.46186158606079,25.196230766020463],[-107.46193406518947,25.196162393570173],[-107.46200654433824,25.196094021100794],[-107.46207902350707,25.19602556110907],[-107.46219148811016,25.195987869586205],[-107.46233915438795,25.195985376241893],[-107.46245179962408,25.195952125310757],[-107.46252418865556,25.1958793009609],[-107.46259666796777,25.195810840810864],[-107.46266914730003,25.19574246814485],[-107.46274162665237,25.195674007956644],[-107.46281410602478,25.195605635252452],[-107.46289154975996,25.195537098460402],[-107.46296402917389,25.195468725716356],[-107.46322416093436,25.195428539564173],[-107.46366716176539,25.195421143665165],[-107.46392738448569,25.195385495348432],[-107.46399986418639,25.195317034762173],[-107.464072253646,25.19524420995724],[-107.46414482364803,25.195175738394546],[-107.46433121311108,25.195141337046064],[-107.46463142227823,25.19513628022386],[-107.46481420163003,25.195164617585636],[-107.46489435380086,25.195230505765387],[-107.4649696318755,25.195300922170524],[-107.46504481971027,25.195366886789948],[-107.46530630746221,25.19539382173843],[-107.46574931181584,25.19538641828449],[-107.46601089053296,25.195417978275824],[-107.46608607866663,25.19548385442099],[-107.4661612668219,25.19554981797034],[-107.46623645499875,25.195615781421807],[-107.46631525367545,25.195614455704067],[-107.46638773403701,25.19554608179148],[-107.46646021441863,25.195477620357906],[-107.4665326948203,25.19540924640716],[-107.46660517524202,25.19534078493544],[-107.46667765568381,25.195272410946522],[-107.46675004588354,25.195199497781644],[-107.4668225263654,25.195131123754962],[-107.46689500686729,25.195062662207334],[-107.4669724518093,25.194994211419772],[-107.46704493235268,25.19492574983232],[-107.46711741291611,25.194857375727647],[-107.4672249152582,25.194819757331206],[-107.46737754880205,25.19481718177262],[-107.46748523177557,25.19478400390004],[-107.46755771246079,25.194715629657356],[-107.46763506733626,25.19464710209152],[-107.46770745780047,25.194574276162857],[-107.46788897562354,25.194539848443977],[-107.46818918886785,25.194534870995053],[-107.46837558120852,25.19449591423016],[-107.46844806213998,25.194427452207048],[-107.4685205430915,25.194359077666363],[-107.4685929338003,25.19429062654666],[-107.46870549146331,25.194252919496172],[-107.46885316141365,25.194250506689006],[-107.4689657191884,25.19421726201592],[-107.46903820028304,25.194148799815153],[-107.46911068139772,25.19408042509669],[-107.46918316253245,25.194011962857804],[-107.46929563018588,25.193974266372784],[-107.46944330046865,25.193971765501555],[-107.4695508940278,25.193934134690473],[-107.46962824949149,25.193865693947227],[-107.4697007307693,25.193797231550164],[-107.46977321206715,25.19372885663526],[-107.46988089602488,25.193695677269925],[-107.47003344085208,25.193693109960705],[-107.47014238860251,25.193722690513123],[-107.47021757792146,25.193788651341954],[-107.47029276726198,25.193854612072904],[-107.47037292110849,25.19392040836315],[-107.47055570446501,25.19395319987122],[-107.4708560110266,25.193948205541147],[-107.47104375921695,25.193980919360932],[-107.47111894879434,25.194046879272577],[-107.47119413839329,25.194112839086337],[-107.47126932801379,25.19417871130159],[-107.47160465773615,25.19420446901506],[-107.47220030908599,25.194194550763633],[-107.472534376301,25.194157546357108],[-107.47260685838194,25.194089170451377],[-107.47267934048288,25.19402079452658],[-107.47275182260387,25.19395233108255],[-107.47286429178762,25.193914631796723],[-107.47301196407963,25.193912126609767],[-107.47312443337489,25.19387442713139],[-107.47319691561881,25.193806051048327],[-107.47326939788276,25.19373758744616],[-107.47334188016671,25.19366921132498],[-107.47345443986778,25.193635963220395],[-107.47360211249189,25.193633457470806],[-107.47371458204007,25.193595757616404],[-107.473787064447,25.19352738135563],[-107.47381946941496,25.19342378968474],[-107.47381676147877,25.193289368097332],[-107.47378020434287,25.19318696328753],[-107.47370501400282,25.193121005303166],[-107.4736248591382,25.193055124179907],[-107.47354966884264,25.192989253495565],[-107.47351320200838,25.192886749922856],[-107.4735104038109,25.19275242639951],[-107.47354280874474,25.192648834556557],[-107.4736152911042,25.192580458430783],[-107.47369264776647,25.192511928779012],[-107.47376513016732,25.192443552613486],[-107.47379762539713,25.192344412316096],[-107.47379482719663,25.19220553871602],[-107.47383219671546,25.19210641987879],[-107.47390467915487,25.19203795619851],[-107.47397707134968,25.19196512843096],[-107.47404955382909,25.191896664712992],[-107.47412203632851,25.19182828847623],[-107.47419451884794,25.191759824720197],[-107.47430707891469,25.1917265765709],[-107.47445475201853,25.19172415835547],[-107.47456722193208,25.19168637094616],[-107.47463970457443,25.191617994550814],[-107.47471218723682,25.191549530636298],[-107.4747846699192,25.191481154202858],[-107.47485715262161,25.191412777750383],[-107.47492945481419,25.19133987316412],[-107.47500193755658,25.19127140917389],[-107.47507938489245,25.191202955681305],[-107.47515322165121,25.191201702522378],[-107.47522841240611,25.19126766015635],[-107.47530360318252,25.191333617692422],[-107.47537888424556,25.19140402668151],[-107.47556654540672,25.191432195903346],[-107.47586189311433,25.19142726905449],[-107.47604829090639,25.191392765912045],[-107.47612068369232,25.191319937499348],[-107.47619316676354,25.19125147310696],[-107.47626555958936,25.191183107141235],[-107.47633804270059,25.191114642710826],[-107.47641549043055,25.19104618872583],[-107.47648797358315,25.19097772425569],[-107.47656045675575,25.190909347266164],[-107.47689434898842,25.19086789465937],[-107.47749001234129,25.190857870467713],[-107.47782544027615,25.19088815376624],[-107.47790063179609,25.19095410920021],[-107.47797582333754,25.19101997703713],[-107.47805101490054,25.191085932275364],[-107.47812476222869,25.19108468828588],[-107.47819724585294,25.19101631073239],[-107.47826972949717,25.190947933159855],[-107.47834221316138,25.190879468069213],[-107.47841957121614,25.190811024293087],[-107.4784920549217,25.190742559162757],[-107.47856444838108,25.19066964250991],[-107.4786369321266,25.19060126484097],[-107.47874949409734,25.190568013492975],[-107.47889716969902,25.190565503014746],[-107.47900476713345,25.19052786615517],[-107.47907716073408,25.190459499296136],[-107.47915460927155,25.19039095683631],[-107.47922709317986,25.190322578989807],[-107.47929957710816,25.190254113625386],[-107.47937197079,25.190185746688726],[-107.47944445475827,25.190117281286287],[-107.47951684848002,25.190044364370113],[-107.47992476310284,25.190006177344443],[-107.48066801965494,25.189993726341918],[-107.48107575553,25.189951095134923],[-107.48115320465632,25.18988255196672],[-107.48122568911572,25.189814173483622],[-107.481298083328,25.189745718432256],[-107.48137056782733,25.189677339911146],[-107.48144305234666,25.189608873872682],[-107.48151553688595,25.189540495313537],[-107.48158802144523,25.18947202923705],[-107.48166041575726,25.18939911167668],[-107.48173281008924,25.189330744010167],[-107.48181025940907,25.189262200654444],[-107.48188274404959,25.189193821998963],[-107.48195513844274,25.189125366775553],[-107.4820276231232,25.189056988082072],[-107.4820600291076,25.188953396697244],[-107.48205732108647,25.1888190652758],[-107.48209460151317,25.188715407578545],[-107.48216699596466,25.188646952322184],[-107.48235339822881,25.18861244196349],[-107.4826487535639,25.188607501741945],[-107.48283506590184,25.18856853927005],[-107.48290755082478,25.188500072825352],[-107.4829800357677,25.18843169385978],[-107.48305243046289,25.188363325825108],[-107.4831298801713,25.18829478206501],[-107.4832023651755,25.18822631554267],[-107.48327475993186,25.188157947449415],[-107.48334715470816,25.18808502943706],[-107.48360739694256,25.188049347827498],[-107.48405034191333,25.188041900793937],[-107.48431049457511,25.188001678864225],[-107.48438297990457,25.18793321196571],[-107.48445546525396,25.187864832545962],[-107.48453282510718,25.187796299253737],[-107.48460531049787,25.187727919794337],[-107.48467779590851,25.1876594528182],[-107.48475019107083,25.187591084271677],[-107.48482267652139,25.18752261725758],[-107.48489507172356,25.187449786289502],[-107.484967557214,25.187381319237808],[-107.48504004272444,25.187312939664835],[-107.4851124379864,25.18724448352619],[-107.48518988830116,25.187176026593544],[-107.48526228360436,25.187107570415336],[-107.48533476919594,25.18703919076476],[-107.4854072548075,25.186970723597515],[-107.48566740881061,25.186930499892465],[-107.48611035724853,25.1869230472163],[-107.48637060221535,25.18688736105242],[-107.48644299784324,25.18681444213326],[-107.48652035828059,25.186745908192652],[-107.4865928442186,25.186677528145005],[-107.48666523990761,25.186609071532942],[-107.48673772588549,25.186540691447338],[-107.48681021188334,25.186472223845424],[-107.48688269790114,25.18640384372185],[-107.48695509366985,25.186335387034],[-107.48702757972754,25.186267006872466],[-107.48709997553607,25.18619408778483],[-107.48717733616645,25.18612564115455],[-107.487432617381,25.186089943442386],[-107.48788053360371,25.186082408320708],[-107.48814069005054,25.186042180435972],[-107.48821317643456,25.185973799896416],[-107.48828557256901,25.185905342793763],[-107.48835805899287,25.185836962216275],[-107.48847053485323,25.185799165735997],[-107.48861821591134,25.185796733590188],[-107.48873078215244,25.185763475800734],[-107.48880317842917,25.185695018540194],[-107.48887566499548,25.18562663780441],[-107.48894806131199,25.185553718167654],[-107.48902054791817,25.185485249897475],[-107.48909294427452,25.185416880058412],[-107.48916543092054,25.185348411750326],[-107.48924279215755,25.185279964421436],[-107.48942423458787,25.185241061244092],[-107.48972447243604,25.185236041063238],[-107.48991078978143,25.185201533059512],[-107.48998327665247,25.185133064492],[-107.49005576354344,25.1850646834021],[-107.49012825045436,25.18499621479665],[-107.49053600098355,25.184953560306358],[-107.49127919722815,25.184940981977974],[-107.49168694953788,25.184898323853968],[-107.49175943689741,25.184829854709687],[-107.49183192427685,25.1847614730425],[-107.49190928629659,25.184692937265158],[-107.49201688905022,25.18465975474423],[-107.49216457209567,25.184657318917054],[-107.49227840364375,25.184686727354865],[-107.49235359929288,25.18475267305601],[-107.49242879496346,25.18481861865927],[-107.49250399065548,25.184884564164637],[-107.49257783230428,25.184883302165346],[-107.49265519454288,25.184814766093158],[-107.49272768216859,25.184746384123567],[-107.49280007954317,25.184677925594908],[-107.49287392127489,25.18467666347335],[-107.49294911709384,25.184742608655323],[-107.49302431293424,25.184808553739394],[-107.49309950879606,25.184874498725573],[-107.49317479495053,25.184944894931355],[-107.49324999085526,25.18501083971952],[-107.49333015169931,25.18507670679413],[-107.49340534764833,25.185142651382183],[-107.49348054361882,25.18520850837695],[-107.49355573961073,25.18527445276925],[-107.4936309356241,25.185340397063648],[-107.49370613165888,25.185406341260155],[-107.49378132771511,25.18547228535876],[-107.49385661406421,25.185542680656827],[-107.49393181016333,25.185608624557414],[-107.49401188094312,25.185674501661996],[-107.49412083862725,25.18570397431088],[-107.49426852285093,25.185701535331262],[-107.49438244557874,25.185735392275983],[-107.49445764182776,25.185801335621125],[-107.4945017846538,25.18603807583892],[-107.4945100896444,25.18644558089081],[-107.49454935780997,25.186677925001423],[-107.49462464437825,25.186748319013784],[-107.49470471536834,25.186814194911147],[-107.49477991170923,25.18688013745359],[-107.49485510807155,25.18694599240364],[-107.4949303044553,25.187011934750313],[-107.49500550086049,25.187077876999076],[-107.4950806972871,25.187143819149934],[-107.49515589373513,25.18720976120288],[-107.49523109020461,25.18727570315792],[-107.49534501334806,25.1873096457124],[-107.495492698257,25.187307116842344],[-107.49560517716117,25.187269401744963],[-107.49567766559753,25.187200931080383],[-107.49575006378174,25.187132558849495],[-107.4958225522579,25.187064088147004],[-107.49593512157479,25.18703082410841],[-107.49608280681397,25.187028382170162],[-107.4961966400529,25.18705778520974],[-107.49627183681895,25.187123726322017],[-107.49634703360641,25.187189667336387],[-107.4964222304153,25.18725560825285],[-107.49649751751794,25.18732600029779],[-107.4965727143697,25.187391941016205],[-107.49661405910645,25.18748981436978],[-107.49661694782192,25.187628578710097],[-107.4966534178575,25.18772660626352],[-107.49672861475366,25.187792459158295],[-107.49680868638217,25.18785833259737],[-107.49688397359502,25.187928723997214],[-107.49692044366748,25.18802666374759],[-107.49692315184139,25.18816107494017],[-107.49696467717797,25.188263387945874],[-107.49703987416282,25.188329327802],[-107.49722764103726,25.18836200202707],[-107.49752292277194,25.188357036788503],[-107.49771059971718,25.188385171491753],[-107.4977857969145,25.188451110632784],[-107.49786099413323,25.188517049675895],[-107.49793628164619,25.18858743980497],[-107.49805011568438,25.188616927554186],[-107.49819780210682,25.188614394651626],[-107.49831172653067,25.188648333285624],[-107.49838692389919,25.188714271770923],[-107.49846212128912,25.188780210158306],[-107.49853731870046,25.188846148447766],[-107.4986125161332,25.188912086639306],[-107.49868771358739,25.188978024732915],[-107.4987292392015,25.189080336058954],[-107.49873194739395,25.189214658358246],[-107.49876850799477,25.189317134955157],[-107.49884867051503,25.189382907300487],[-107.49892386803643,25.1894488449596],[-107.49899906557926,25.18951478252079],[-107.49907426314348,25.18958071998405],[-107.49914946072911,25.189646657349385],[-107.49922465833617,25.18971259461679],[-107.49929994623791,25.18978298292986],[-107.4993751438878,25.18984891999919],[-107.49945034155911,25.18991485697058],[-107.4995305042863,25.189980715881283],[-107.49960570200183,25.190046652652487],[-107.49968089973878,25.190112589325764],[-107.49975609749713,25.190178525901107],[-107.50009146351076,25.19020866887984],[-107.50068708904423,25.19019854310291],[-107.5010210118578,25.190157115666036],[-107.50109350178091,25.1900886429321],[-107.50116599172388,25.19002025767076],[-107.5012383914128,25.189951795862186],[-107.50131088139553,25.18988341056292],[-107.50138328112415,25.189814948716485],[-107.5014205642839,25.18971129291291],[-107.5014178560639,25.18957697226714],[-107.50145017415788,25.189473394461526],[-107.5015226641987,25.18940492163797],[-107.5017089898743,25.189365932270128],[-107.50200915142547,25.18936088789067],[-107.50219069290802,25.18932641606228],[-107.50226805796358,25.189257875902445],[-107.5023404579544,25.189189501274743],[-107.50241294823941,25.18912102817287],[-107.50296840683639,25.18907578908008],[-107.50401189218309,25.18905815035379],[-107.50456726386408,25.189012915244],[-107.50463975475961,25.188944441402555],[-107.504712245675,25.188876055032814],[-107.5047846463351,25.188807592118902],[-107.50489721947066,25.188774320249472],[-107.50504490971957,25.188771866403833],[-107.50515739269065,25.188734055793326],[-107.5052297934726,25.188665680231097],[-107.5053022845497,25.188597206193673],[-107.50537468537131,25.188528830593604],[-107.50544717648812,25.188460356518302],[-107.505519487074,25.18838752982996],[-107.50559197823047,25.188319055717166],[-107.50566934428117,25.18825051436963],[-107.50574183547872,25.188182127707776],[-107.50581423642063,25.188113664502442],[-107.50588672765787,25.1880452778027],[-107.50595912863945,25.18797681455955],[-107.50607161199923,25.18793909097589],[-107.5062193029038,25.18793654867865],[-107.5063318766499,25.187903275944873],[-107.50640427775328,25.187834900053247],[-107.50647676915219,25.18776642568604],[-107.50654917029522,25.18769350025875],[-107.50662157145806,25.187625124310767],[-107.5066940629165,25.187556649887146],[-107.50676646411898,25.187488273901348],[-107.50683895561713,25.18741979943986],[-107.50691135685925,25.187351423416228],[-107.50698872329573,25.187282881665965],[-107.50706121485476,25.18721449463632],[-107.50713370643363,25.18714602009742],[-107.50720601748043,25.187073105468638],[-107.50727850909898,25.18700471838257],[-107.50735091046135,25.18693625475396],[-107.5074234021196,25.18686786763001],[-107.5074958035216,25.186799403963597],[-107.50756829521954,25.186731016801787],[-107.50764566184806,25.186662474864953],[-107.50771815358702,25.186594000173365],[-107.50779055506968,25.18652562391993],[-107.50786295657213,25.18645269815649],[-107.50793535809437,25.186384234375435],[-107.50800784991269,25.18631584709875],[-107.50808025147457,25.186247383279905],[-107.50815274333256,25.186178995965356],[-107.50822514493409,25.186110532108724],[-107.5083025117546,25.186042077475587],[-107.50837500367345,25.18597360261243],[-107.50844749561216,25.185905215220494],[-107.50851980701786,25.185832300256212],[-107.50859229899622,25.18576382533667],[-107.50866470071796,25.18569544885555],[-107.50873719273599,25.18562697389818],[-107.50880959449734,25.185558597379277],[-107.50888208655505,25.185490122384063],[-107.50895945356756,25.185421580074294],[-107.50903185538968,25.185353203497048],[-107.50910434750826,25.18528472844343],[-107.50917665909336,25.185211813311483],[-107.50924915125155,25.185143425710514],[-107.50932155315293,25.185074961568024],[-107.50935892770825,25.184975756767212],[-107.50935612913025,25.18483698749877],[-107.50938853847082,25.184737860934312],[-107.50946094041026,25.18466939677785],[-107.50953334236954,25.18459647060646],[-107.50961070957234,25.184528015630015],[-107.50964311894406,25.184428889044515],[-107.50964032036305,25.184290032219398],[-107.50967769496337,25.184190827329715],[-107.5097500969819,25.184122450610424],[-107.50982258929709,25.184053975414592],[-107.50989490107834,25.183981060137157],[-107.50992731048484,25.18388202098569],[-107.50992460217773,25.18374761512692],[-107.50996188654126,25.183643959147005],[-107.51003428863748,25.183575494886263],[-107.51010678103047,25.18350710712931],[-107.5101791831663,25.18343864283081],[-107.51021366897862,25.183200679363075],[-107.51020536349462,25.182793108688312],[-107.51016112776898,25.18255639678479],[-107.51008592705237,25.18249046569915],[-107.51001072635712,25.182424534515594],[-107.50993552568322,25.18235860323411],[-107.50989399830941,25.182256297138583],[-107.50989129000266,25.18212197810349],[-107.5098547278641,25.182019506141405],[-107.50977952723449,25.18195357452772],[-107.50970432662623,25.18188764281613],[-107.50962912603934,25.18182171100662],[-107.5095875987136,25.181719404439207],[-107.50958489040995,25.18158508502411],[-107.50954832831371,25.181482612612648],[-107.50946816254995,25.181416846170006],[-107.50939296203013,25.181350913926096],[-107.50931776153166,25.181284981584295],[-107.50928119947228,25.18118250885455],[-107.5092784911718,25.18104818905948],[-107.50923705417772,25.180950332961675],[-107.50916176344687,25.18087994920554],[-107.50908656301405,25.180814016433644],[-107.5090113626026,25.18074808356384],[-107.5089361622125,25.180682150596123],[-107.50886096184378,25.180616217530506],[-107.50878088656467,25.180550351564804],[-107.50870568624002,25.180484418299113],[-107.50866912426518,25.180382032282235],[-107.50866632569448,25.18024772280214],[-107.5086248887962,25.180145316346714],[-107.50854968851587,25.18007938274886],[-107.50847448825691,25.18001344905312],[-107.50839928801932,25.17994760275114],[-107.50835776088647,25.179845206926334],[-107.50835505259542,25.179710886098206],[-107.508318490669,25.17960841200612],[-107.50824329047572,25.179542565372167],[-107.5081680903038,25.17947663114852],[-107.50808792495798,25.179410774940468],[-107.5080127248302,25.17934484051668],[-107.50793752472377,25.179278905995],[-107.50786232463872,25.179212971375417],[-107.50778712457503,25.17914703665793],[-107.50778577043242,25.1790799197032],[-107.50785817193356,25.17900699445375],[-107.50797065610057,25.178973734384588],[-107.50811834806497,25.178971194822267],[-107.50823083234252,25.178933472463697],[-107.50830323396539,25.17886500917302],[-107.50837572588443,25.178796622390664],[-107.50844812754694,25.178728159062292],[-107.50852061950569,25.17865977224216],[-107.50859302120782,25.178591308876086],[-107.50866551320622,25.178522834526238],[-107.50873791494796,25.178454458614414],[-107.50929826176603,25.178409145716152],[-107.51033662628313,25.178391507560278],[-107.510896976484,25.17834610012841],[-107.5109694691131,25.178277712510514],[-107.51104187148476,25.178209248349024],[-107.5111142738762,25.178140871659927],[-107.5112268497037,25.17810759828973],[-107.51137454348418,25.178105055247666],[-107.51148206388594,25.178067408826774],[-107.51155943165793,25.177998866280667],[-107.51159039682857,25.177828084117554],[-107.5115848899029,25.17755936777568],[-107.51162073006043,25.177388518205607],[-107.51169322288759,25.177320130421794],[-107.51176562545704,25.177251666094605],[-107.51183811832382,25.177183278273038],[-107.5118365836054,25.177111634413002],[-107.51176138241316,25.177045702182905],[-107.51168618124224,25.176979769854906],[-107.51161098009267,25.176913837429005],[-107.51156818857172,25.176744315237702],[-107.51156268164652,25.176475598008032],[-107.51152467483809,25.17630601921825],[-107.51144459875358,25.17624015355098],[-107.51136939767258,25.17617422055678],[-107.51129419661295,25.17610837495635],[-107.51125763428072,25.1760059013469],[-107.51125483568266,25.175871591525905],[-107.51121339837937,25.175769184992124],[-107.51113819736402,25.175703339059794],[-107.51106299636999,25.17563740553778],[-107.51098779539733,25.175571471917884],[-107.51094626785854,25.175469163507223],[-107.51094355954102,25.175334754846045],[-107.51090699725721,25.175232368145128],[-107.51083179632883,25.175166434193173],[-107.51075172045377,25.175100567318974],[-107.51067651956947,25.175034633166987],[-107.51060131870653,25.17496869891711],[-107.51052611786493,25.174902764569357],[-107.5104509170447,25.174836917615984],[-107.5103757162458,25.174770983072495],[-107.51033148049171,25.174534264532163],[-107.51032308472698,25.17412669453674],[-107.51035757055803,25.17388872600134],[-107.5104300630395,25.173820251442507],[-107.5108378449021,25.173782009784865],[-107.51158100797177,25.17376934958319],[-107.51198870132845,25.17372665313939],[-107.51206119425628,25.17365817804227],[-107.5121385621974,25.173589635723175],[-107.51221096488854,25.173521259044584],[-107.51228345787717,25.17345278388929],[-107.51235577033019,25.173379868555042],[-107.51242817308068,25.17331149182041],[-107.51250066612873,25.173243016609007],[-107.51257306891881,25.173174639836745],[-107.51264556200651,25.173106164587658],[-107.51271796483618,25.1730377002858],[-107.51279533296905,25.17296924527299],[-107.51286773583963,25.17290078093187],[-107.51294022900794,25.172832393097735],[-107.51301254164017,25.17275947759659],[-107.51308503484806,25.172691002233243],[-107.51315743779779,25.172622625309224],[-107.51322993104533,25.172554149908205],[-107.51330233403465,25.17248577294656],[-107.51337473704373,25.172417308474213],[-107.51348722355344,25.172379584100195],[-107.51363482831557,25.172377052497925],[-107.51374740521388,25.17234377904642],[-107.51381980834454,25.172275314435606],[-107.51389230177323,25.172206926331135],[-107.51396461466518,25.172134010569145],[-107.51415094909942,25.17209947635767],[-107.51444624972343,25.172094488198642],[-107.51463249421765,25.172055414735553],[-107.51470498786857,25.17198702637427],[-107.51477739126075,25.171918561469752],[-107.51485475999469,25.171850105790707],[-107.51492725370636,25.171781629879717],[-107.51499965715925,25.171713164917158],[-107.51507206063188,25.17164478742734],[-107.51514455440297,25.171576311459898],[-107.51521695791517,25.171507933932475],[-107.51528936144716,25.171435006828382],[-107.51536176499889,25.17136654177227],[-107.51543416857041,25.17129816418886],[-107.51551153749597,25.171229620832733],[-107.5155840313872,25.1711611447511],[-107.51561355256652,25.170923256167534],[-107.51560515663445,25.170515690501507],[-107.51556597562166,25.17028343539224],[-107.51549068309258,25.170212964558768],[-107.51541060580993,25.17014718699106],[-107.5153354036037,25.170081254558564],[-107.51529893099276,25.169983319755918],[-107.5152960420733,25.169844471118008],[-107.51532845214034,25.169745342815574],[-107.51540094598153,25.169676954410896],[-107.51547813433982,25.169603971079315],[-107.5155506282219,25.169535495143865],[-107.51557879521506,25.16923040131369],[-107.51556769091933,25.16868851224143],[-107.51552697517228,25.16838452345016],[-107.51545177293305,25.168318590273064],[-107.51537169566215,25.168252811724386],[-107.51529649346696,25.168186878347345],[-107.51525993058264,25.168084404080933],[-107.51525713194232,25.16795009327871],[-107.515215784292,25.167852224741587],[-107.51514049186235,25.167781839885087],[-107.51506528973273,25.167715906078264],[-107.51499008762444,25.16764997217358],[-107.51491488553748,25.167584038171036],[-107.51483968347185,25.167518104070624],[-107.51476448142752,25.167452257365028],[-107.51468440436419,25.167386390259118],[-107.51464233457509,25.167015281289892],[-107.51462843168488,25.16633898734335],[-107.51458148686619,25.165967944145162],[-107.51450619461664,25.165897557789037],[-107.51443099266693,25.165831622518773],[-107.51435579073855,25.165765687150657],[-107.51430875568973,25.165394653703903],[-107.51429494309541,25.164718432136002],[-107.51432663081287,25.1643460606893],[-107.51439912438015,25.16427758558046],[-107.51473297421481,25.164236076070782],[-107.51532836186159,25.164225970243255],[-107.51566239342391,25.164188898586392],[-107.5157347970775,25.164120521497754],[-107.51580711047195,25.16404760571027],[-107.51587960444398,25.163979130125927],[-107.51606594022388,25.16394459826614],[-107.51636611805161,25.163939547440144],[-107.51654748881953,25.16390063094096],[-107.51661989271471,25.163832166084557],[-107.51669726198617,25.163763623040005],[-107.51676966592224,25.163695245637424],[-107.51702976052391,25.163654990605874],[-107.51747258097214,25.163647397068257],[-107.51773276654247,25.163611679319516],[-107.51780517076114,25.163543214087394],[-107.51783965756549,25.163305156955488],[-107.51783135184256,25.16289766229742],[-107.51786087327197,25.162659683022873],[-107.51793336780521,25.162591294353092],[-107.51801209165454,25.162589955906764],[-107.51808729461958,25.162655802089454],[-107.5181624073262,25.162721746633764],[-107.51823770061355,25.162792131273452],[-107.51849915085161,25.1628190788905],[-107.51894206403182,25.16281155792469],[-107.51920225104286,25.162775750462956],[-107.51927456538233,25.162702833662504],[-107.51931194134079,25.162603626416377],[-107.51930914265773,25.16246931563607],[-107.51934146293489,25.162365735465652],[-107.51941883299983,25.16229719154156],[-107.51949123767847,25.162228725850202],[-107.51956364237685,25.162160347632515],[-107.51958621242403,25.161581992917867],[-107.51956400349759,25.16049820691879],[-107.51951778004691,25.159925581465327],[-107.51944257667657,25.159859647737886],[-107.51936737332753,25.15979371391261],[-107.51928720459475,25.159727858188685],[-107.51928576011329,25.15965620181652],[-107.519363130162,25.159587745683773],[-107.51943553482546,25.15951928023697],[-107.51950793950864,25.159450814771475],[-107.51950658530615,25.15938369707947],[-107.51943138193899,25.15931776308205],[-107.51931753870701,25.15928382047777],[-107.51916984050258,25.159286362588823],[-107.5190560876628,25.159256958370676],[-107.51898088442326,25.159191023915938],[-107.51897953022345,25.159123818536468],[-107.51905193478227,25.159055440751043],[-107.51931194134079,25.15901510874228],[-107.5197597310108,25.159007524001627],[-107.5200198285429,25.15896726714236],[-107.52009223338544,25.158898801525936],[-107.52016463824773,25.158830423383836],[-107.52023713341019,25.158761946763146],[-107.52042347224983,25.158727411976308],[-107.52071868957451,25.158722347086787],[-107.52090493847145,25.158683360477152],[-107.52097734355533,25.158614982078845],[-107.52104974865898,25.15854651616903],[-107.52112224406306,25.158478039273128],[-107.5212346435768,25.15844032430027],[-107.521382252649,25.158437791119045],[-107.52149483283445,25.158404516145605],[-107.5215671477983,25.158331598920395],[-107.52159531542999,25.158026502172625],[-107.52158430116341,25.15748905949968],[-107.52161734396456,25.15718389484357],[-107.52168965896178,25.15711097766525],[-107.52180223927752,25.15707770289467],[-107.52194984866517,25.157075169790502],[-107.52206224852912,25.157037454623097],[-107.52213474420958,25.156968977511752],[-107.52216146740437,25.15659668620685],[-107.52214756412026,25.155920479483672],[-107.52217934305644,25.155548010484797],[-107.52225174848776,25.155479631919412],[-107.52232415393881,25.155411165842196],[-107.5223965594096,25.15534278723945],[-107.52243384552631,25.15523904051241],[-107.52243104681034,25.15510472850756],[-107.52238960776128,25.155002408298824]]]},"id":"00000000000000000000","properties":{"SqM":28984781.25,"SqMi":11.1911,"basin_id":3,"id":5,"layer":"pt_05"}}]}